{"type":"FeatureCollection","features":[{"type":"Feature","properties":{"village":"Gemena","rang":1,"score_demande":98.6,"pop_ghs_2030":20738,"forages_indicatifs":42,"dist_riviere_km":19.17,"prod_aquifere":2,"phase":2},"geometry":{"type":"Point","coordinates":[19.76673,3.26667]}},{"type":"Feature","properties":{"village":"Bokuda","rang":2,"score_demande":96.2,"pop_ghs_2030":19280,"forages_indicatifs":39,"dist_riviere_km":14.79,"prod_aquifere":2,"phase":1},"geometry":{"type":"Point","coordinates":[19.77829,3.22171]}},{"type":"Feature","properties":{"village":"Ndoroka","rang":3,"score_demande":91.7,"pop_ghs_2030":8748,"forages_indicatifs":18,"dist_riviere_km":9.97,"prod_aquifere":2,"phase":2},"geometry":{"type":"Point","coordinates":[18.77185,3.72634]}},{"type":"Feature","properties":{"village":"Bozagba","rang":4,"score_demande":90.5,"pop_ghs_2030":5390,"forages_indicatifs":11,"dist_riviere_km":8.7,"prod_aquifere":3,"phase":1},"geometry":{"type":"Point","coordinates":[19.88349,3.07282]}},{"type":"Feature","properties":{"village":"Boyabo","rang":5,"score_demande":90.3,"pop_ghs_2030":7711,"forages_indicatifs":16,"dist_riviere_km":9.68,"prod_aquifere":2,"phase":2},"geometry":{"type":"Point","coordinates":[18.77000,3.71748]}},{"type":"Feature","properties":{"village":"Bokembe","rang":6,"score_demande":88.9,"pop_ghs_2030":3254,"forages_indicatifs":7,"dist_riviere_km":14.53,"prod_aquifere":2,"phase":2},"geometry":{"type":"Point","coordinates":[19.08906,3.72291]}},{"type":"Feature","properties":{"village":"Libenge","rang":7,"score_demande":87.0,"pop_ghs_2030":29668,"forages_indicatifs":60,"dist_riviere_km":3.45,"prod_aquifere":2,"phase":3},"geometry":{"type":"Point","coordinates":[18.63166,3.64472]}},{"type":"Feature","properties":{"village":"Agene Gbali (Village des pêcheurs)","rang":8,"score_demande":83.3,"pop_ghs_2030":28718,"forages_indicatifs":58,"dist_riviere_km":0.6,"prod_aquifere":2,"phase":2},"geometry":{"type":"Point","coordinates":[18.61833,4.36586]}},{"type":"Feature","properties":{"village":"Bogoko II","rang":9,"score_demande":81.1,"pop_ghs_2030":2742,"forages_indicatifs":6,"dist_riviere_km":7.35,"prod_aquifere":3,"phase":1},"geometry":{"type":"Point","coordinates":[19.87171,3.07574]}},{"type":"Feature","properties":{"village":"Bodeme I","rang":10,"score_demande":78.9,"pop_ghs_2030":3087,"forages_indicatifs":7,"dist_riviere_km":6.9,"prod_aquifere":2,"phase":2},"geometry":{"type":"Point","coordinates":[19.58858,3.27248]}},{"type":"Feature","properties":{"village":"Akula","rang":11,"score_demande":78.5,"pop_ghs_2030":3908,"forages_indicatifs":8,"dist_riviere_km":0.17,"prod_aquifere":1,"phase":1},"geometry":{"type":"Point","coordinates":[20.18416,2.37363]}},{"type":"Feature","properties":{"village":"Bozoko V","rang":12,"score_demande":77.0,"pop_ghs_2030":4765,"forages_indicatifs":10,"dist_riviere_km":1.99,"prod_aquifere":2,"phase":2},"geometry":{"type":"Point","coordinates":[19.50763,3.29369]}},{"type":"Feature","properties":{"village":"Boduli II","rang":13,"score_demande":77.0,"pop_ghs_2030":2972,"forages_indicatifs":6,"dist_riviere_km":7.77,"prod_aquifere":2,"phase":2},"geometry":{"type":"Point","coordinates":[19.59630,3.27151]}},{"type":"Feature","properties":{"village":"Gbatikombo","rang":14,"score_demande":76.6,"pop_ghs_2030":2181,"forages_indicatifs":5,"dist_riviere_km":8.9,"prod_aquifere":3,"phase":1},"geometry":{"type":"Point","coordinates":[19.89891,2.99870]}},{"type":"Feature","properties":{"village":"Bozoko IV","rang":15,"score_demande":75.0,"pop_ghs_2030":4765,"forages_indicatifs":10,"dist_riviere_km":1.99,"prod_aquifere":2,"phase":2},"geometry":{"type":"Point","coordinates":[19.50763,3.29369]}},{"type":"Feature","properties":{"village":"Boduli I","rang":16,"score_demande":72.5,"pop_ghs_2030":2056,"forages_indicatifs":5,"dist_riviere_km":8.21,"prod_aquifere":2,"phase":2},"geometry":{"type":"Point","coordinates":[19.60051,3.27276]}},{"type":"Feature","properties":{"village":"Bomele","rang":17,"score_demande":72.1,"pop_ghs_2030":1620,"forages_indicatifs":4,"dist_riviere_km":5.73,"prod_aquifere":3,"phase":1},"geometry":{"type":"Point","coordinates":[19.85780,3.08564]}},{"type":"Feature","properties":{"village":"Bongiliyo","rang":18,"score_demande":71.8,"pop_ghs_2030":3236,"forages_indicatifs":7,"dist_riviere_km":13.58,"prod_aquifere":2,"phase":2},"geometry":{"type":"Point","coordinates":[19.02127,3.76665]}},{"type":"Feature","properties":{"village":"Molin ingonge","rang":19,"score_demande":71.7,"pop_ghs_2030":2301,"forages_indicatifs":5,"dist_riviere_km":0.24,"prod_aquifere":2,"phase":2},"geometry":{"type":"Point","coordinates":[18.78871,4.15005]}},{"type":"Feature","properties":{"village":"Bodiawa Moke","rang":20,"score_demande":71.7,"pop_ghs_2030":2216,"forages_indicatifs":5,"dist_riviere_km":4.8,"prod_aquifere":2,"phase":1},"geometry":{"type":"Point","coordinates":[19.81871,3.12696]}},{"type":"Feature","properties":{"village":"Bogbali Boyikama","rang":21,"score_demande":71.6,"pop_ghs_2030":2073,"forages_indicatifs":5,"dist_riviere_km":12.71,"prod_aquifere":2,"phase":2},"geometry":{"type":"Point","coordinates":[19.04704,3.76343]}},{"type":"Feature","properties":{"village":"Bokiliyo","rang":22,"score_demande":71.5,"pop_ghs_2030":3198,"forages_indicatifs":7,"dist_riviere_km":13.5,"prod_aquifere":2,"phase":2},"geometry":{"type":"Point","coordinates":[19.03295,3.7658]}},{"type":"Feature","properties":{"village":"Botela","rang":23,"score_demande":71.2,"pop_ghs_2030":2683,"forages_indicatifs":6,"dist_riviere_km":12.98,"prod_aquifere":2,"phase":2},"geometry":{"type":"Point","coordinates":[19.07610,3.74540]}},{"type":"Feature","properties":{"village":"Boso Gbamongo","rang":24,"score_demande":70.8,"pop_ghs_2030":14283,"forages_indicatifs":29,"dist_riviere_km":5.0,"prod_aquifere":2,"phase":3},"geometry":{"type":"Point","coordinates":[18.64439,3.65081]}},{"type":"Feature","properties":{"village":"Bondolo","rang":25,"score_demande":70.7,"pop_ghs_2030":1454,"forages_indicatifs":3,"dist_riviere_km":7.12,"prod_aquifere":2,"phase":2},"geometry":{"type":"Point","coordinates":[18.655,4.23555]}},{"type":"Feature","properties":{"village":"Bozoko I","rang":26,"score_demande":70.3,"pop_ghs_2030":2628,"forages_indicatifs":6,"dist_riviere_km":2.26,"prod_aquifere":2,"phase":2},"geometry":{"type":"Point","coordinates":[19.54742,3.28201]}},{"type":"Feature","properties":{"village":"Zepere monene","rang":27,"score_demande":69.8,"pop_ghs_2030":3011,"forages_indicatifs":7,"dist_riviere_km":9.52,"prod_aquifere":2,"phase":2},"geometry":{"type":"Point","coordinates":[18.77603,3.73253]}},{"type":"Feature","properties":{"village":"Bozagba sua","rang":28,"score_demande":69.1,"pop_ghs_2030":1250,"forages_indicatifs":3,"dist_riviere_km":12.4,"prod_aquifere":3,"phase":1},"geometry":{"type":"Point","coordinates":[19.94165,2.86098]}},{"type":"Feature","properties":{"village":"Bongo","rang":29,"score_demande":69.0,"pop_ghs_2030":3577,"forages_indicatifs":8,"dist_riviere_km":14.02,"prod_aquifere":2,"phase":2},"geometry":{"type":"Point","coordinates":[19.02535,3.76645]}},{"type":"Feature","properties":{"village":"Boso Nzimbelo","rang":30,"score_demande":68.6,"pop_ghs_2030":2146,"forages_indicatifs":5,"dist_riviere_km":5.8,"prod_aquifere":2,"phase":3},"geometry":{"type":"Point","coordinates":[18.65149,3.65236]}},{"type":"Feature","properties":{"village":"Gbamundema II","rang":31,"score_demande":67.9,"pop_ghs_2030":1347,"forages_indicatifs":3,"dist_riviere_km":7.22,"prod_aquifere":2,"phase":2},"geometry":{"type":"Point","coordinates":[18.72972,4.20222]}},{"type":"Feature","properties":{"village":"Bau","rang":32,"score_demande":67.6,"pop_ghs_2030":1837,"forages_indicatifs":4,"dist_riviere_km":12.91,"prod_aquifere":2,"phase":2},"geometry":{"type":"Point","coordinates":[19.06966,3.74855]}},{"type":"Feature","properties":{"village":"Bagilima","rang":33,"score_demande":67.1,"pop_ghs_2030":2163,"forages_indicatifs":5,"dist_riviere_km":1.54,"prod_aquifere":2,"phase":2},"geometry":{"type":"Point","coordinates":[19.25516,3.57572]}},{"type":"Feature","properties":{"village":"Bogalegba II","rang":34,"score_demande":66.7,"pop_ghs_2030":1052,"forages_indicatifs":3,"dist_riviere_km":9.45,"prod_aquifere":3,"phase":1},"geometry":{"type":"Point","coordinates":[19.90180,2.94146]}},{"type":"Feature","properties":{"village":"Bomuntu Munene","rang":35,"score_demande":66.0,"pop_ghs_2030":2846,"forages_indicatifs":6,"dist_riviere_km":4.69,"prod_aquifere":2,"phase":2},"geometry":{"type":"Point","coordinates":[18.91628,3.77948]}},{"type":"Feature","properties":{"village":"Boyambi II","rang":36,"score_demande":65.9,"pop_ghs_2030":1446,"forages_indicatifs":3,"dist_riviere_km":14.65,"prod_aquifere":2,"phase":2},"geometry":{"type":"Point","coordinates":[19.70111,3.22972]}},{"type":"Feature","properties":{"village":"Boyambi mbalina III","rang":37,"score_demande":65.0,"pop_ghs_2030":1204,"forages_indicatifs":3,"dist_riviere_km":16.03,"prod_aquifere":2,"phase":2},"geometry":{"type":"Point","coordinates":[19.67174,3.24409]}},{"type":"Feature","properties":{"village":"Ngbodenge","rang":38,"score_demande":64.8,"pop_ghs_2030":1869,"forages_indicatifs":4,"dist_riviere_km":13.21,"prod_aquifere":2,"phase":2},"geometry":{"type":"Point","coordinates":[19.08118,3.74166]}},{"type":"Feature","properties":{"village":"Bozoko III","rang":39,"score_demande":63.1,"pop_ghs_2030":6235,"forages_indicatifs":13,"dist_riviere_km":0.99,"prod_aquifere":2,"phase":2},"geometry":{"type":"Point","coordinates":[19.52193,3.29014]}},{"type":"Feature","properties":{"village":"Bokembe I","rang":40,"score_demande":62.8,"pop_ghs_2030":1483,"forages_indicatifs":3,"dist_riviere_km":4.55,"prod_aquifere":2,"phase":2},"geometry":{"type":"Point","coordinates":[19.38320,3.41680]}},{"type":"Feature","properties":{"village":"Bobise","rang":41,"score_demande":62.1,"pop_ghs_2030":1094,"forages_indicatifs":3,"dist_riviere_km":6.75,"prod_aquifere":2,"phase":2},"geometry":{"type":"Point","coordinates":[19.33596,3.54749]}},{"type":"Feature","properties":{"village":"Bowazi","rang":42,"score_demande":61.5,"pop_ghs_2030":1682,"forages_indicatifs":4,"dist_riviere_km":1.13,"prod_aquifere":2,"phase":2},"geometry":{"type":"Point","coordinates":[19.39121,3.47680]}},{"type":"Feature","properties":{"village":"Talasua","rang":43,"score_demande":60.9,"pop_ghs_2030":917,"forages_indicatifs":2,"dist_riviere_km":12.33,"prod_aquifere":3,"phase":1},"geometry":{"type":"Point","coordinates":[19.94548,2.85445]}},{"type":"Feature","properties":{"village":"Banga","rang":44,"score_demande":60.4,"pop_ghs_2030":2114,"forages_indicatifs":5,"dist_riviere_km":0.58,"prod_aquifere":2,"phase":3},"geometry":{"type":"Point","coordinates":[18.59483,3.71246]}},{"type":"Feature","properties":{"village":"Babenga","rang":45,"score_demande":60.1,"pop_ghs_2030":776,"forages_indicatifs":2,"dist_riviere_km":9.31,"prod_aquifere":2,"phase":2},"geometry":{"type":"Point","coordinates":[18.68166,4.22012]}},{"type":"Feature","properties":{"village":"Bodala","rang":46,"score_demande":59.9,"pop_ghs_2030":1096,"forages_indicatifs":3,"dist_riviere_km":7.87,"prod_aquifere":2,"phase":2},"geometry":{"type":"Point","coordinates":[18.83418,3.75996]}},{"type":"Feature","properties":{"village":"Boguaka","rang":47,"score_demande":59.7,"pop_ghs_2030":925,"forages_indicatifs":2,"dist_riviere_km":10.13,"prod_aquifere":3,"phase":1},"geometry":{"type":"Point","coordinates":[19.90655,2.92322]}},{"type":"Feature","properties":{"village":"Bogalegba III","rang":48,"score_demande":58.5,"pop_ghs_2030":1485,"forages_indicatifs":3,"dist_riviere_km":8.64,"prod_aquifere":3,"phase":1},"geometry":{"type":"Point","coordinates":[19.90057,2.96735]}},{"type":"Feature","properties":{"village":"Molin 2kilo","rang":49,"score_demande":58.3,"pop_ghs_2030":1380,"forages_indicatifs":3,"dist_riviere_km":1.31,"prod_aquifere":2,"phase":2},"geometry":{"type":"Point","coordinates":[18.77305,4.15555]}},{"type":"Feature","properties":{"village":"Bokembe II","rang":50,"score_demande":57.8,"pop_ghs_2030":2013,"forages_indicatifs":5,"dist_riviere_km":3.97,"prod_aquifere":2,"phase":2},"geometry":{"type":"Point","coordinates":[19.38612,3.42829]}},{"type":"Feature","properties":{"village":"Boduli","rang":51,"score_demande":57.1,"pop_ghs_2030":1505,"forages_indicatifs":4,"dist_riviere_km":9.62,"prod_aquifere":2,"phase":2},"geometry":{"type":"Point","coordinates":[19.10992,3.66310]}},{"type":"Feature","properties":{"village":"Wenze I","rang":52,"score_demande":56.6,"pop_ghs_2030":976,"forages_indicatifs":2,"dist_riviere_km":7.98,"prod_aquifere":2,"phase":2},"geometry":{"type":"Point","coordinates":[18.66490,4.23238]}},{"type":"Feature","properties":{"village":"Bodeme II","rang":53,"score_demande":56.1,"pop_ghs_2030":2022,"forages_indicatifs":5,"dist_riviere_km":4.63,"prod_aquifere":2,"phase":2},"geometry":{"type":"Point","coordinates":[19.56876,3.28185]}},{"type":"Feature","properties":{"village":"Boyambi I","rang":54,"score_demande":55.6,"pop_ghs_2030":993,"forages_indicatifs":2,"dist_riviere_km":15.83,"prod_aquifere":2,"phase":2},"geometry":{"type":"Point","coordinates":[19.71638,3.24111]}},{"type":"Feature","properties":{"village":"Bozoko","rang":55,"score_demande":54.9,"pop_ghs_2030":979,"forages_indicatifs":2,"dist_riviere_km":13.21,"prod_aquifere":2,"phase":2},"geometry":{"type":"Point","coordinates":[19.09422,3.69145]}},{"type":"Feature","properties":{"village":"Udawu","rang":56,"score_demande":54.7,"pop_ghs_2030":970,"forages_indicatifs":2,"dist_riviere_km":6.86,"prod_aquifere":2,"phase":2},"geometry":{"type":"Point","coordinates":[18.69638,3.92390]}},{"type":"Feature","properties":{"village":"Boboyo","rang":57,"score_demande":54.3,"pop_ghs_2030":1680,"forages_indicatifs":4,"dist_riviere_km":1.25,"prod_aquifere":2,"phase":2},"geometry":{"type":"Point","coordinates":[19.39280,3.47680]}},{"type":"Feature","properties":{"village":"Bungba","rang":58,"score_demande":54.0,"pop_ghs_2030":770,"forages_indicatifs":2,"dist_riviere_km":4.96,"prod_aquifere":2,"phase":2},"geometry":{"type":"Point","coordinates":[18.74568,4.02014]}},{"type":"Feature","properties":{"village":"Bodongodale II TP","rang":59,"score_demande":53.4,"pop_ghs_2030":810,"forages_indicatifs":2,"dist_riviere_km":9.97,"prod_aquifere":3,"phase":1},"geometry":{"type":"Point","coordinates":[19.89579,3.01931]}},{"type":"Feature","properties":{"village":"Kuma","rang":60,"score_demande":51.7,"pop_ghs_2030":1076,"forages_indicatifs":3,"dist_riviere_km":6.42,"prod_aquifere":1,"phase":1},"geometry":{"type":"Point","coordinates":[20.13991,2.43145]}},{"type":"Feature","properties":{"village":"Yabaza I","rang":61,"score_demande":51.2,"pop_ghs_2030":710,"forages_indicatifs":2,"dist_riviere_km":12.71,"prod_aquifere":3,"phase":1},"geometry":{"type":"Point","coordinates":[19.96721,2.82084]}},{"type":"Feature","properties":{"village":"Ngoli","rang":62,"score_demande":50.6,"pop_ghs_2030":1010,"forages_indicatifs":3,"dist_riviere_km":9.93,"prod_aquifere":2,"phase":3},"geometry":{"type":"Point","coordinates":[18.69197,3.67789]}},{"type":"Feature","properties":{"village":"Bombaolo","rang":63,"score_demande":50.3,"pop_ghs_2030":1191,"forages_indicatifs":3,"dist_riviere_km":2.38,"prod_aquifere":2,"phase":2},"geometry":{"type":"Point","coordinates":[19.18319,3.60261]}},{"type":"Feature","properties":{"village":"Bomanga (fataki et mafua)","rang":64,"score_demande":49.6,"pop_ghs_2030":1469,"forages_indicatifs":3,"dist_riviere_km":4.42,"prod_aquifere":2,"phase":2},"geometry":{"type":"Point","coordinates":[18.88619,3.77621]}},{"type":"Feature","properties":{"village":"Bogeze","rang":65,"score_demande":49.2,"pop_ghs_2030":1240,"forages_indicatifs":3,"dist_riviere_km":3.97,"prod_aquifere":2,"phase":1},"geometry":{"type":"Point","coordinates":[19.83318,3.10906]}},{"type":"Feature","properties":{"village":"Bosombuma","rang":66,"score_demande":49.1,"pop_ghs_2030":920,"forages_indicatifs":2,"dist_riviere_km":9.21,"prod_aquifere":2,"phase":3},"geometry":{"type":"Point","coordinates":[18.75880,3.70118]}},{"type":"Feature","properties":{"village":"Bodenge","rang":67,"score_demande":48.9,"pop_ghs_2030":689,"forages_indicatifs":2,"dist_riviere_km":10.36,"prod_aquifere":2,"phase":2},"geometry":{"type":"Point","coordinates":[19.61968,3.27008]}},{"type":"Feature","properties":{"village":"Bodanu","rang":68,"score_demande":48.9,"pop_ghs_2030":1430,"forages_indicatifs":3,"dist_riviere_km":3.9,"prod_aquifere":2,"phase":1},"geometry":{"type":"Point","coordinates":[19.83532,3.10520]}},{"type":"Feature","properties":{"village":"Bosononno","rang":69,"score_demande":48.5,"pop_ghs_2030":1261,"forages_indicatifs":3,"dist_riviere_km":8.81,"prod_aquifere":2,"phase":3},"geometry":{"type":"Point","coordinates":[18.76792,3.70525]}},{"type":"Feature","properties":{"village":"Bogoro TP III","rang":70,"score_demande":48.3,"pop_ghs_2030":648,"forages_indicatifs":2,"dist_riviere_km":10.73,"prod_aquifere":3,"phase":1},"geometry":{"type":"Point","coordinates":[19.89348,3.02972]}},{"type":"Feature","properties":{"village":"Bozoko II","rang":71,"score_demande":46.9,"pop_ghs_2030":813,"forages_indicatifs":2,"dist_riviere_km":0.9,"prod_aquifere":2,"phase":2},"geometry":{"type":"Point","coordinates":[19.53497,3.28289]}},{"type":"Feature","properties":{"village":"Bodiawa Monene","rang":72,"score_demande":45.9,"pop_ghs_2030":824,"forages_indicatifs":2,"dist_riviere_km":6.46,"prod_aquifere":2,"phase":1},"geometry":{"type":"Point","coordinates":[19.81871,3.14244]}},{"type":"Feature","properties":{"village":"Bogoro TP V","rang":73,"score_demande":45.9,"pop_ghs_2030":642,"forages_indicatifs":2,"dist_riviere_km":9.43,"prod_aquifere":3,"phase":1},"geometry":{"type":"Point","coordinates":[19.88633,3.05726]}},{"type":"Feature","properties":{"village":"Bososalo","rang":74,"score_demande":45.7,"pop_ghs_2030":1009,"forages_indicatifs":3,"dist_riviere_km":9.11,"prod_aquifere":2,"phase":3},"geometry":{"type":"Point","coordinates":[18.76219,3.70338]}},{"type":"Feature","properties":{"village":"Kambe (Campement des PA)","rang":75,"score_demande":44.4,"pop_ghs_2030":789,"forages_indicatifs":2,"dist_riviere_km":5.11,"prod_aquifere":2,"phase":3},"geometry":{"type":"Point","coordinates":[18.63969,3.68969]}},{"type":"Feature","properties":{"village":"Bogdasiko","rang":76,"score_demande":43.8,"pop_ghs_2030":1161,"forages_indicatifs":3,"dist_riviere_km":5.42,"prod_aquifere":2,"phase":2},"geometry":{"type":"Point","coordinates":[18.86247,3.76823]}},{"type":"Feature","properties":{"village":"Boketa","rang":77,"score_demande":42.9,"pop_ghs_2030":1482,"forages_indicatifs":3,"dist_riviere_km":4.97,"prod_aquifere":2,"phase":2},"geometry":{"type":"Point","coordinates":[18.87113,3.77204]}},{"type":"Feature","properties":{"village":"Buka","rang":78,"score_demande":42.8,"pop_ghs_2030":812,"forages_indicatifs":2,"dist_riviere_km":9.46,"prod_aquifere":2,"phase":3},"geometry":{"type":"Point","coordinates":[18.75262,3.69765]}},{"type":"Feature","properties":{"village":"Nduma","rang":79,"score_demande":42.4,"pop_ghs_2030":448,"forages_indicatifs":1,"dist_riviere_km":8.77,"prod_aquifere":2,"phase":2},"geometry":{"type":"Point","coordinates":[18.68259,3.87877]}},{"type":"Feature","properties":{"village":"Ngbonga Mukie","rang":80,"score_demande":42.3,"pop_ghs_2030":704,"forages_indicatifs":2,"dist_riviere_km":18.89,"prod_aquifere":3,"phase":1},"geometry":{"type":"Point","coordinates":[20.00399,2.64642]}},{"type":"Feature","properties":{"village":"Ngbonga Munene","rang":81,"score_demande":41.9,"pop_ghs_2030":494,"forages_indicatifs":1,"dist_riviere_km":17.12,"prod_aquifere":3,"phase":1},"geometry":{"type":"Point","coordinates":[19.99297,2.67594]}},{"type":"Feature","properties":{"village":"Kpagwa","rang":82,"score_demande":41.8,"pop_ghs_2030":717,"forages_indicatifs":2,"dist_riviere_km":4.73,"prod_aquifere":2,"phase":2},"geometry":{"type":"Point","coordinates":[18.71749,3.75461]}},{"type":"Feature","properties":{"village":"Bongidi II","rang":83,"score_demande":41.3,"pop_ghs_2030":828,"forages_indicatifs":2,"dist_riviere_km":1.1,"prod_aquifere":2,"phase":2},"geometry":{"type":"Point","coordinates":[19.37970,3.50616]}},{"type":"Feature","properties":{"village":"Sakasa","rang":84,"score_demande":40.9,"pop_ghs_2030":838,"forages_indicatifs":2,"dist_riviere_km":4.55,"prod_aquifere":2,"phase":3},"geometry":{"type":"Point","coordinates":[18.63467,3.69704]}},{"type":"Feature","properties":{"village":"Mase Gova","rang":85,"score_demande":38.9,"pop_ghs_2030":658,"forages_indicatifs":2,"dist_riviere_km":2.58,"prod_aquifere":2,"phase":2},"geometry":{"type":"Point","coordinates":[18.69532,3.82268]}},{"type":"Feature","properties":{"village":"Mase Kolande","rang":86,"score_demande":38.9,"pop_ghs_2030":658,"forages_indicatifs":2,"dist_riviere_km":2.58,"prod_aquifere":2,"phase":2},"geometry":{"type":"Point","coordinates":[18.69532,3.82268]}},{"type":"Feature","properties":{"village":"Bogoro TP IV","rang":87,"score_demande":38.8,"pop_ghs_2030":874,"forages_indicatifs":2,"dist_riviere_km":10.17,"prod_aquifere":3,"phase":1},"geometry":{"type":"Point","coordinates":[19.88878,3.0458]}},{"type":"Feature","properties":{"village":"Kolongo","rang":88,"score_demande":38.8,"pop_ghs_2030":797,"forages_indicatifs":2,"dist_riviere_km":16.22,"prod_aquifere":3,"phase":1},"geometry":{"type":"Point","coordinates":[19.98545,2.68895]}},{"type":"Feature","properties":{"village":"Mase Muda","rang":89,"score_demande":38.3,"pop_ghs_2030":662,"forages_indicatifs":2,"dist_riviere_km":1.67,"prod_aquifere":2,"phase":2},"geometry":{"type":"Point","coordinates":[18.70000,3.81582]}},{"type":"Feature","properties":{"village":"Bokadae","rang":90,"score_demande":38.0,"pop_ghs_2030":626,"forages_indicatifs":2,"dist_riviere_km":10.55,"prod_aquifere":3,"phase":1},"geometry":{"type":"Point","coordinates":[19.89012,3.04069]}},{"type":"Feature","properties":{"village":"Gbulu","rang":91,"score_demande":35.9,"pop_ghs_2030":395,"forages_indicatifs":1,"dist_riviere_km":16.18,"prod_aquifere":3,"phase":1},"geometry":{"type":"Point","coordinates":[19.99296,2.74851]}},{"type":"Feature","properties":{"village":"Badza","rang":92,"score_demande":35.7,"pop_ghs_2030":368,"forages_indicatifs":1,"dist_riviere_km":7.75,"prod_aquifere":2,"phase":2},"geometry":{"type":"Point","coordinates":[18.79034,3.74868]}},{"type":"Feature","properties":{"village":"Bondolo","rang":93,"score_demande":34.8,"pop_ghs_2030":570,"forages_indicatifs":2,"dist_riviere_km":11.6,"prod_aquifere":2,"phase":2},"geometry":{"type":"Point","coordinates":[19.00216,3.76945]}},{"type":"Feature","properties":{"village":"Yabaza III","rang":94,"score_demande":32.6,"pop_ghs_2030":183,"forages_indicatifs":1,"dist_riviere_km":15.53,"prod_aquifere":3,"phase":1},"geometry":{"type":"Point","coordinates":[19.98951,2.77682]}},{"type":"Feature","properties":{"village":"Yongala pâturage","rang":95,"score_demande":32.5,"pop_ghs_2030":523,"forages_indicatifs":2,"dist_riviere_km":2.19,"prod_aquifere":2,"phase":2},"geometry":{"type":"Point","coordinates":[18.78528,4.12435]}},{"type":"Feature","properties":{"village":"Wenze II","rang":96,"score_demande":32.2,"pop_ghs_2030":326,"forages_indicatifs":1,"dist_riviere_km":6.11,"prod_aquifere":2,"phase":2},"geometry":{"type":"Point","coordinates":[18.63920,4.24668]}},{"type":"Feature","properties":{"village":"Yongalu pâturage","rang":97,"score_demande":32.2,"pop_ghs_2030":523,"forages_indicatifs":2,"dist_riviere_km":1.91,"prod_aquifere":2,"phase":2},"geometry":{"type":"Point","coordinates":[18.78755,4.12766]}},{"type":"Feature","properties":{"village":"Wangara II","rang":98,"score_demande":32.2,"pop_ghs_2030":616,"forages_indicatifs":2,"dist_riviere_km":4.61,"prod_aquifere":2,"phase":2},"geometry":{"type":"Point","coordinates":[18.74789,4.02377]}},{"type":"Feature","properties":{"village":"Libenge Kete","rang":99,"score_demande":31.9,"pop_ghs_2030":357,"forages_indicatifs":1,"dist_riviere_km":8.5,"prod_aquifere":2,"phase":3},"geometry":{"type":"Point","coordinates":[18.67347,3.66421]}},{"type":"Feature","properties":{"village":"Yu","rang":100,"score_demande":31.4,"pop_ghs_2030":327,"forages_indicatifs":1,"dist_riviere_km":7.71,"prod_aquifere":2,"phase":2},"geometry":{"type":"Point","coordinates":[18.73218,3.99158]}},{"type":"Feature","properties":{"village":"Boduko","rang":101,"score_demande":31.2,"pop_ghs_2030":223,"forages_indicatifs":1,"dist_riviere_km":9.45,"prod_aquifere":2,"phase":3},"geometry":{"type":"Point","coordinates":[18.71701,3.69335]}},{"type":"Feature","properties":{"village":"Bongidi I","rang":102,"score_demande":31.0,"pop_ghs_2030":377,"forages_indicatifs":1,"dist_riviere_km":3.07,"prod_aquifere":2,"phase":2},"geometry":{"type":"Point","coordinates":[19.36243,3.52389]}},{"type":"Feature","properties":{"village":"Su","rang":103,"score_demande":29.4,"pop_ghs_2030":578,"forages_indicatifs":2,"dist_riviere_km":1.11,"prod_aquifere":2,"phase":2},"geometry":{"type":"Point","coordinates":[18.70437,3.78608]}},{"type":"Feature","properties":{"village":"Yamangu","rang":104,"score_demande":27.9,"pop_ghs_2030":424,"forages_indicatifs":1,"dist_riviere_km":5.88,"prod_aquifere":2,"phase":2},"geometry":{"type":"Point","coordinates":[18.67821,3.84711]}},{"type":"Feature","properties":{"village":"Bositolo","rang":105,"score_demande":27.0,"pop_ghs_2030":349,"forages_indicatifs":1,"dist_riviere_km":6.52,"prod_aquifere":2,"phase":2},"geometry":{"type":"Point","coordinates":[18.67625,3.85275]}},{"type":"Feature","properties":{"village":"Mbako","rang":106,"score_demande":26.8,"pop_ghs_2030":287,"forages_indicatifs":1,"dist_riviere_km":16.84,"prod_aquifere":3,"phase":1},"geometry":{"type":"Point","coordinates":[20.03436,2.60939]}},{"type":"Feature","properties":{"village":"Yanga I","rang":107,"score_demande":25.9,"pop_ghs_2030":247,"forages_indicatifs":1,"dist_riviere_km":16.5,"prod_aquifere":1,"phase":1},"geometry":{"type":"Point","coordinates":[20.04202,2.55694]}},{"type":"Feature","properties":{"village":"Bogose","rang":108,"score_demande":25.8,"pop_ghs_2030":535,"forages_indicatifs":2,"dist_riviere_km":0.9,"prod_aquifere":2,"phase":2},"geometry":{"type":"Point","coordinates":[19.28034,3.56367]}},{"type":"Feature","properties":{"village":"Bomuntu Mukie","rang":109,"score_demande":25.5,"pop_ghs_2030":241,"forages_indicatifs":1,"dist_riviere_km":8.54,"prod_aquifere":2,"phase":2},"geometry":{"type":"Point","coordinates":[18.97010,3.77544]}},{"type":"Feature","properties":{"village":"Yabaza II","rang":110,"score_demande":24.7,"pop_ghs_2030":223,"forages_indicatifs":1,"dist_riviere_km":13.41,"prod_aquifere":3,"phase":1},"geometry":{"type":"Point","coordinates":[19.97506,2.80647]}},{"type":"Feature","properties":{"village":"Bozomo","rang":111,"score_demande":24.3,"pop_ghs_2030":621,"forages_indicatifs":2,"dist_riviere_km":4.53,"prod_aquifere":3,"phase":1},"geometry":{"type":"Point","coordinates":[19.84583,3.09503]}},{"type":"Feature","properties":{"village":"Po","rang":112,"score_demande":24.0,"pop_ghs_2030":307,"forages_indicatifs":1,"dist_riviere_km":7.44,"prod_aquifere":2,"phase":2},"geometry":{"type":"Point","coordinates":[18.71906,3.97217]}},{"type":"Feature","properties":{"village":"Bosapkana","rang":113,"score_demande":23.8,"pop_ghs_2030":161,"forages_indicatifs":1,"dist_riviere_km":3.13,"prod_aquifere":2,"phase":2},"geometry":{"type":"Point","coordinates":[19.48846,3.29768]}},{"type":"Feature","properties":{"village":"Katako","rang":114,"score_demande":23.0,"pop_ghs_2030":105,"forages_indicatifs":1,"dist_riviere_km":6.44,"prod_aquifere":2,"phase":2},"geometry":{"type":"Point","coordinates":[18.70289,3.94070]}},{"type":"Feature","properties":{"village":"Ndokpa","rang":115,"score_demande":22.9,"pop_ghs_2030":203,"forages_indicatifs":1,"dist_riviere_km":7.07,"prod_aquifere":2,"phase":2},"geometry":{"type":"Point","coordinates":[18.69428,3.91746]}},{"type":"Feature","properties":{"village":"Gbakombo","rang":116,"score_demande":21.1,"pop_ghs_2030":57,"forages_indicatifs":1,"dist_riviere_km":6.17,"prod_aquifere":2,"phase":2},"geometry":{"type":"Point","coordinates":[19.33596,3.53309]}},{"type":"Feature","properties":{"village":"Bogbali","rang":117,"score_demande":20.9,"pop_ghs_2030":292,"forages_indicatifs":1,"dist_riviere_km":2.99,"prod_aquifere":2,"phase":2},"geometry":{"type":"Point","coordinates":[19.15047,3.61597]}},{"type":"Feature","properties":{"village":"Gbubu","rang":118,"score_demande":20.1,"pop_ghs_2030":204,"forages_indicatifs":1,"dist_riviere_km":7.69,"prod_aquifere":2,"phase":2},"geometry":{"type":"Point","coordinates":[18.82107,3.75684]}},{"type":"Feature","properties":{"village":"Bondugwa","rang":119,"score_demande":20.1,"pop_ghs_2030":271,"forages_indicatifs":1,"dist_riviere_km":4.2,"prod_aquifere":2,"phase":2},"geometry":{"type":"Point","coordinates":[19.31069,3.56032]}},{"type":"Feature","properties":{"village":"Gbala","rang":120,"score_demande":20.0,"pop_ghs_2030":97,"forages_indicatifs":1,"dist_riviere_km":3.91,"prod_aquifere":2,"phase":2},"geometry":{"type":"Point","coordinates":[18.61845,4.29422]}},{"type":"Feature","properties":{"village":"Yanga II","rang":121,"score_demande":20.0,"pop_ghs_2030":152,"forages_indicatifs":1,"dist_riviere_km":16.46,"prod_aquifere":1,"phase":1},"geometry":{"type":"Point","coordinates":[20.04447,2.54320]}},{"type":"Feature","properties":{"village":"Yambere I","rang":122,"score_demande":19.8,"pop_ghs_2030":148,"forages_indicatifs":1,"dist_riviere_km":7.24,"prod_aquifere":2,"phase":2},"geometry":{"type":"Point","coordinates":[18.71643,3.95859]}},{"type":"Feature","properties":{"village":"Mase Dima","rang":123,"score_demande":17.9,"pop_ghs_2030":376,"forages_indicatifs":1,"dist_riviere_km":4.26,"prod_aquifere":2,"phase":2},"geometry":{"type":"Point","coordinates":[18.68663,3.83518]}},{"type":"Feature","properties":{"village":"Yanga III","rang":124,"score_demande":17.4,"pop_ghs_2030":109,"forages_indicatifs":1,"dist_riviere_km":15.94,"prod_aquifere":1,"phase":1},"geometry":{"type":"Point","coordinates":[20.05187,2.53269]}},{"type":"Feature","properties":{"village":"Bosuma","rang":125,"score_demande":17.3,"pop_ghs_2030":149,"forages_indicatifs":1,"dist_riviere_km":4.97,"prod_aquifere":2,"phase":2},"geometry":{"type":"Point","coordinates":[19.14005,3.63144]}},{"type":"Feature","properties":{"village":"Bumbala","rang":126,"score_demande":15.4,"pop_ghs_2030":11,"forages_indicatifs":1,"dist_riviere_km":3.27,"prod_aquifere":2,"phase":2},"geometry":{"type":"Point","coordinates":[18.75709,4.08884]}},{"type":"Feature","properties":{"village":"Dakamba","rang":127,"score_demande":14.9,"pop_ghs_2030":205,"forages_indicatifs":1,"dist_riviere_km":1.49,"prod_aquifere":2,"phase":2},"geometry":{"type":"Point","coordinates":[18.75126,4.05790]}},{"type":"Feature","properties":{"village":"Gbamundema I","rang":128,"score_demande":14.7,"pop_ghs_2030":95,"forages_indicatifs":1,"dist_riviere_km":3.93,"prod_aquifere":2,"phase":2},"geometry":{"type":"Point","coordinates":[18.75722,4.17555]}},{"type":"Feature","properties":{"village":"Ligudu","rang":129,"score_demande":14.1,"pop_ghs_2030":96,"forages_indicatifs":1,"dist_riviere_km":8.18,"prod_aquifere":2,"phase":2},"geometry":{"type":"Point","coordinates":[18.67896,3.87100]}},{"type":"Feature","properties":{"village":"Bogbokozo","rang":130,"score_demande":13.7,"pop_ghs_2030":162,"forages_indicatifs":1,"dist_riviere_km":6.95,"prod_aquifere":2,"phase":2},"geometry":{"type":"Point","coordinates":[18.73766,3.74519]}},{"type":"Feature","properties":{"village":"Wudawu","rang":131,"score_demande":13.1,"pop_ghs_2030":144,"forages_indicatifs":1,"dist_riviere_km":7.4,"prod_aquifere":2,"phase":2},"geometry":{"type":"Point","coordinates":[18.80703,3.75415]}},{"type":"Feature","properties":{"village":"Nganda","rang":132,"score_demande":12.8,"pop_ghs_2030":13,"forages_indicatifs":1,"dist_riviere_km":11.63,"prod_aquifere":3,"phase":1},"geometry":{"type":"Point","coordinates":[19.98080,2.82222]}},{"type":"Feature","properties":{"village":"Oro","rang":133,"score_demande":11.9,"pop_ghs_2030":105,"forages_indicatifs":1,"dist_riviere_km":6.51,"prod_aquifere":2,"phase":2},"geometry":{"type":"Point","coordinates":[18.70825,3.95207]}},{"type":"Feature","properties":{"village":"Wangara I","rang":134,"score_demande":9.0,"pop_ghs_2030":197,"forages_indicatifs":1,"dist_riviere_km":1.83,"prod_aquifere":2,"phase":2},"geometry":{"type":"Point","coordinates":[18.74605,4.04932]}},{"type":"Feature","properties":{"village":"Soma","rang":135,"score_demande":9.0,"pop_ghs_2030":11,"forages_indicatifs":1,"dist_riviere_km":8.04,"prod_aquifere":2,"phase":2},"geometry":{"type":"Point","coordinates":[18.69402,3.90397]}},{"type":"Feature","properties":{"village":"Village deux kilo (Motanga)","rang":136,"score_demande":6.6,"pop_ghs_2030":134,"forages_indicatifs":1,"dist_riviere_km":2.38,"prod_aquifere":2,"phase":3},"geometry":{"type":"Point","coordinates":[18.61119,3.71454]}},{"type":"Feature","properties":{"village":"Yambele","rang":137,"score_demande":4.0,"pop_ghs_2030":57,"forages_indicatifs":1,"dist_riviere_km":2.4,"prod_aquifere":2,"phase":2},"geometry":{"type":"Point","coordinates":[18.75783,4.07613]}}]}