{"type":"FeatureCollection","features":[{"type":"Feature","properties":{"nom":"Gbala - 1 ecole(s)","type_ecole":"Cycle non renseigné (déclaration village)","nb":1,"localite_proche":"Gbala","phase":2,"source_courte":"Terrain"},"geometry":{"type":"Point","coordinates":[18.61845,4.29422]}},{"type":"Feature","properties":{"nom":"Wenze II - 1 ecole(s)","type_ecole":"Cycle non renseigné (déclaration village)","nb":1,"localite_proche":"Wenze II","phase":2,"source_courte":"Terrain"},"geometry":{"type":"Point","coordinates":[18.63920,4.24668]}},{"type":"Feature","properties":{"nom":"Wenze I - 1 ecole(s)","type_ecole":"Cycle non renseigné (déclaration village)","nb":1,"localite_proche":"Wenze I","phase":2,"source_courte":"Terrain"},"geometry":{"type":"Point","coordinates":[18.66490,4.23238]}},{"type":"Feature","properties":{"nom":"Bondolo - 1 ecole(s)","type_ecole":"Cycle non renseigné (déclaration village)","nb":1,"localite_proche":"Bondolo","phase":2,"source_courte":"Terrain"},"geometry":{"type":"Point","coordinates":[18.655,4.23555]}},{"type":"Feature","properties":{"nom":"Sekia - 1 ecole(s)","type_ecole":"Cycle non renseigné (déclaration village)","nb":1,"localite_proche":"Sekia","phase":2,"source_courte":"Terrain"},"geometry":{"type":"Point","coordinates":[18.62943,4.27438]}},{"type":"Feature","properties":{"nom":"Yakiri - 1 ecole(s)","type_ecole":"Cycle non renseigné (déclaration village)","nb":1,"localite_proche":"Yakiri","phase":2,"source_courte":"Terrain"},"geometry":{"type":"Point","coordinates":[18.70398,4.21302]}},{"type":"Feature","properties":{"nom":"Babenga - 1 ecole(s)","type_ecole":"Cycle non renseigné (déclaration village)","nb":1,"localite_proche":"Babenga","phase":2,"source_courte":"Terrain"},"geometry":{"type":"Point","coordinates":[18.68166,4.22012]}},{"type":"Feature","properties":{"nom":"Molin 2kilo - 1 ecole(s)","type_ecole":"Cycle non renseigné (déclaration village)","nb":1,"localite_proche":"Molin 2kilo","phase":2,"source_courte":"Terrain"},"geometry":{"type":"Point","coordinates":[18.77305,4.15555]}},{"type":"Feature","properties":{"nom":"Molin ingonge - 1 ecole(s)","type_ecole":"Cycle non renseigné (déclaration village)","nb":1,"localite_proche":"Molin ingonge","phase":2,"source_courte":"Terrain"},"geometry":{"type":"Point","coordinates":[18.78871,4.15005]}},{"type":"Feature","properties":{"nom":"Yongala pâturage - 1 ecole(s)","type_ecole":"Cycle non renseigné (déclaration village)","nb":1,"localite_proche":"Yongala pâturage","phase":2,"source_courte":"Terrain"},"geometry":{"type":"Point","coordinates":[18.78528,4.12435]}},{"type":"Feature","properties":{"nom":"Yongalu pâturage - 1 ecole(s)","type_ecole":"Cycle non renseigné (déclaration village)","nb":1,"localite_proche":"Yongalu pâturage","phase":2,"source_courte":"Terrain"},"geometry":{"type":"Point","coordinates":[18.78755,4.12766]}},{"type":"Feature","properties":{"nom":"Bumbala - 1 ecole(s)","type_ecole":"Cycle non renseigné (déclaration village)","nb":1,"localite_proche":"Bumbala","phase":2,"source_courte":"Terrain"},"geometry":{"type":"Point","coordinates":[18.75709,4.08884]}},{"type":"Feature","properties":{"nom":"Dakamba - 1 ecole(s)","type_ecole":"Cycle non renseigné (déclaration village)","nb":1,"localite_proche":"Dakamba","phase":2,"source_courte":"Terrain"},"geometry":{"type":"Point","coordinates":[18.75126,4.05790]}},{"type":"Feature","properties":{"nom":"Bungba - 2 ecole(s)","type_ecole":"Cycle non renseigné (déclaration village)","nb":2,"localite_proche":"Bungba","phase":2,"source_courte":"Terrain"},"geometry":{"type":"Point","coordinates":[18.74568,4.02014]}},{"type":"Feature","properties":{"nom":"Yu - 1 ecole(s)","type_ecole":"Cycle non renseigné (déclaration village)","nb":1,"localite_proche":"Yu","phase":2,"source_courte":"Terrain"},"geometry":{"type":"Point","coordinates":[18.73218,3.99158]}},{"type":"Feature","properties":{"nom":"Katako - 1 ecole(s)","type_ecole":"Cycle non renseigné (déclaration village)","nb":1,"localite_proche":"Katako","phase":2,"source_courte":"Terrain"},"geometry":{"type":"Point","coordinates":[18.70289,3.94070]}},{"type":"Feature","properties":{"nom":"Udawu - 1 ecole(s)","type_ecole":"Cycle non renseigné (déclaration village)","nb":1,"localite_proche":"Udawu","phase":2,"source_courte":"Terrain"},"geometry":{"type":"Point","coordinates":[18.69638,3.92390]}},{"type":"Feature","properties":{"nom":"Nduma - 1 ecole(s)","type_ecole":"Cycle non renseigné (déclaration village)","nb":1,"localite_proche":"Nduma","phase":2,"source_courte":"Terrain"},"geometry":{"type":"Point","coordinates":[18.68259,3.87877]}},{"type":"Feature","properties":{"nom":"Kpagwa - 1 ecole(s)","type_ecole":"Cycle non renseigné (déclaration village)","nb":1,"localite_proche":"Kpagwa","phase":2,"source_courte":"Terrain"},"geometry":{"type":"Point","coordinates":[18.71749,3.75461]}},{"type":"Feature","properties":{"nom":"Boyabo - 1 ecole(s)","type_ecole":"Cycle non renseigné (déclaration village)","nb":1,"localite_proche":"Boyabo","phase":2,"source_courte":"Terrain"},"geometry":{"type":"Point","coordinates":[18.77000,3.71748]}},{"type":"Feature","properties":{"nom":"Ndoroka - 2 ecole(s)","type_ecole":"Cycle non renseigné (déclaration village)","nb":2,"localite_proche":"Ndoroka","phase":2,"source_courte":"Terrain"},"geometry":{"type":"Point","coordinates":[18.77185,3.72634]}},{"type":"Feature","properties":{"nom":"Badza - 1 ecole(s)","type_ecole":"Cycle non renseigné (déclaration village)","nb":1,"localite_proche":"Badza","phase":2,"source_courte":"Terrain"},"geometry":{"type":"Point","coordinates":[18.79034,3.74868]}},{"type":"Feature","properties":{"nom":"Bodala - 2 ecole(s)","type_ecole":"Cycle non renseigné (déclaration village)","nb":2,"localite_proche":"Bodala","phase":2,"source_courte":"Terrain"},"geometry":{"type":"Point","coordinates":[18.83418,3.75996]}},{"type":"Feature","properties":{"nom":"Bomuntu Munene - 1 ecole(s)","type_ecole":"Cycle non renseigné (déclaration village)","nb":1,"localite_proche":"Bomuntu Munene","phase":2,"source_courte":"Terrain"},"geometry":{"type":"Point","coordinates":[18.91628,3.77948]}},{"type":"Feature","properties":{"nom":"Bondolo - 1 ecole(s)","type_ecole":"Cycle non renseigné (déclaration village)","nb":1,"localite_proche":"Bondolo","phase":2,"source_courte":"Terrain"},"geometry":{"type":"Point","coordinates":[19.00216,3.76945]}},{"type":"Feature","properties":{"nom":"Bongiliyo - 2 ecole(s)","type_ecole":"Cycle non renseigné (déclaration village)","nb":2,"localite_proche":"Bongiliyo","phase":2,"source_courte":"Terrain"},"geometry":{"type":"Point","coordinates":[19.02127,3.76665]}},{"type":"Feature","properties":{"nom":"Bokiliyo - 1 ecole(s)","type_ecole":"Cycle non renseigné (déclaration village)","nb":1,"localite_proche":"Bokiliyo","phase":2,"source_courte":"Terrain"},"geometry":{"type":"Point","coordinates":[19.03295,3.7658]}},{"type":"Feature","properties":{"nom":"Bogbali Boyikama - 1 ecole(s)","type_ecole":"Cycle non renseigné (déclaration village)","nb":1,"localite_proche":"Bogbali Boyikama","phase":2,"source_courte":"Terrain"},"geometry":{"type":"Point","coordinates":[19.04704,3.76343]}},{"type":"Feature","properties":{"nom":"Bau - 1 ecole(s)","type_ecole":"Cycle non renseigné (déclaration village)","nb":1,"localite_proche":"Bau","phase":2,"source_courte":"Terrain"},"geometry":{"type":"Point","coordinates":[19.06966,3.74855]}},{"type":"Feature","properties":{"nom":"Ngbodenge - 1 ecole(s)","type_ecole":"Cycle non renseigné (déclaration village)","nb":1,"localite_proche":"Ngbodenge","phase":2,"source_courte":"Terrain"},"geometry":{"type":"Point","coordinates":[19.08118,3.74166]}},{"type":"Feature","properties":{"nom":"Bokembe - 2 ecole(s)","type_ecole":"Cycle non renseigné (déclaration village)","nb":2,"localite_proche":"Bokembe","phase":2,"source_courte":"Terrain"},"geometry":{"type":"Point","coordinates":[19.08906,3.72291]}},{"type":"Feature","properties":{"nom":"Bozoko - 1 ecole(s)","type_ecole":"Cycle non renseigné (déclaration village)","nb":1,"localite_proche":"Bozoko","phase":2,"source_courte":"Terrain"},"geometry":{"type":"Point","coordinates":[19.09422,3.69145]}},{"type":"Feature","properties":{"nom":"Boduli - 1 ecole(s)","type_ecole":"Cycle non renseigné (déclaration village)","nb":1,"localite_proche":"Boduli","phase":2,"source_courte":"Terrain"},"geometry":{"type":"Point","coordinates":[19.10992,3.66310]}},{"type":"Feature","properties":{"nom":"Bombaolo - 1 ecole(s)","type_ecole":"Cycle non renseigné (déclaration village)","nb":1,"localite_proche":"Bombaolo","phase":2,"source_courte":"Terrain"},"geometry":{"type":"Point","coordinates":[19.18319,3.60261]}},{"type":"Feature","properties":{"nom":"Bagilima - 2 ecole(s)","type_ecole":"Cycle non renseigné (déclaration village)","nb":2,"localite_proche":"Bagilima","phase":2,"source_courte":"Terrain"},"geometry":{"type":"Point","coordinates":[19.25516,3.57572]}},{"type":"Feature","properties":{"nom":"Bondugwa - 1 ecole(s)","type_ecole":"Cycle non renseigné (déclaration village)","nb":1,"localite_proche":"Bondugwa","phase":2,"source_courte":"Terrain"},"geometry":{"type":"Point","coordinates":[19.31069,3.56032]}},{"type":"Feature","properties":{"nom":"Bobise - 1 ecole(s)","type_ecole":"Cycle non renseigné (déclaration village)","nb":1,"localite_proche":"Bobise","phase":2,"source_courte":"Terrain"},"geometry":{"type":"Point","coordinates":[19.33596,3.54749]}},{"type":"Feature","properties":{"nom":"Bongidi I - 1 ecole(s)","type_ecole":"Cycle non renseigné (déclaration village)","nb":1,"localite_proche":"Bongidi I","phase":2,"source_courte":"Terrain"},"geometry":{"type":"Point","coordinates":[19.36243,3.52389]}},{"type":"Feature","properties":{"nom":"Bongidi II - 2 ecole(s)","type_ecole":"Cycle non renseigné (déclaration village)","nb":2,"localite_proche":"Bongidi II","phase":2,"source_courte":"Terrain"},"geometry":{"type":"Point","coordinates":[19.37970,3.50616]}},{"type":"Feature","properties":{"nom":"Bowazi - 2 ecole(s)","type_ecole":"Cycle non renseigné (déclaration village)","nb":2,"localite_proche":"Bowazi","phase":2,"source_courte":"Terrain"},"geometry":{"type":"Point","coordinates":[19.39121,3.47680]}},{"type":"Feature","properties":{"nom":"Boboyo - 1 ecole(s)","type_ecole":"Cycle non renseigné (déclaration village)","nb":1,"localite_proche":"Boboyo","phase":2,"source_courte":"Terrain"},"geometry":{"type":"Point","coordinates":[19.39280,3.47680]}},{"type":"Feature","properties":{"nom":"Bokembe II - 2 ecole(s)","type_ecole":"Cycle non renseigné (déclaration village)","nb":2,"localite_proche":"Bokembe II","phase":2,"source_courte":"Terrain"},"geometry":{"type":"Point","coordinates":[19.38612,3.42829]}},{"type":"Feature","properties":{"nom":"Bokembe I - 1 ecole(s)","type_ecole":"Cycle non renseigné (déclaration village)","nb":1,"localite_proche":"Bongbada II","phase":2,"source_courte":"Terrain"},"geometry":{"type":"Point","coordinates":[19.38320,3.41680]}},{"type":"Feature","properties":{"nom":"Mbari - 2 ecole(s)","type_ecole":"Cycle non renseigné (déclaration village)","nb":2,"localite_proche":"Mbari","phase":2,"source_courte":"Terrain"},"geometry":{"type":"Point","coordinates":[19.39065,3.31895]}},{"type":"Feature","properties":{"nom":"Bodebe - 1 ecole(s)","type_ecole":"Cycle non renseigné (déclaration village)","nb":1,"localite_proche":"Bodebe","phase":2,"source_courte":"Terrain"},"geometry":{"type":"Point","coordinates":[19.41361,3.32055]}},{"type":"Feature","properties":{"nom":"Bongbada II - 1 ecole(s)","type_ecole":"Cycle non renseigné (déclaration village)","nb":1,"localite_proche":"Bongbada II","phase":2,"source_courte":"Terrain"},"geometry":{"type":"Point","coordinates":[19.38320,3.41680]}},{"type":"Feature","properties":{"nom":"Bongbada I - 1 ecole(s)","type_ecole":"Cycle non renseigné (déclaration village)","nb":1,"localite_proche":"Bongbada I","phase":2,"source_courte":"Terrain"},"geometry":{"type":"Point","coordinates":[19.46549,3.3009]}},{"type":"Feature","properties":{"nom":"Bosapkana - 1 ecole(s)","type_ecole":"Cycle non renseigné (déclaration village)","nb":1,"localite_proche":"Bosapkana","phase":2,"source_courte":"Terrain"},"geometry":{"type":"Point","coordinates":[19.48846,3.29768]}},{"type":"Feature","properties":{"nom":"Bozoko V - 1 ecole(s)","type_ecole":"Cycle non renseigné (déclaration village)","nb":1,"localite_proche":"Bozoko V","phase":2,"source_courte":"Terrain"},"geometry":{"type":"Point","coordinates":[19.50763,3.29369]}},{"type":"Feature","properties":{"nom":"Bozoko II - 2 ecole(s)","type_ecole":"Cycle non renseigné (déclaration village)","nb":2,"localite_proche":"Bozoko II","phase":2,"source_courte":"Terrain"},"geometry":{"type":"Point","coordinates":[19.53497,3.28289]}},{"type":"Feature","properties":{"nom":"Bozoko I - 2 ecole(s)","type_ecole":"Cycle non renseigné (déclaration village)","nb":2,"localite_proche":"Bozoko I","phase":2,"source_courte":"Terrain"},"geometry":{"type":"Point","coordinates":[19.54742,3.28201]}},{"type":"Feature","properties":{"nom":"Bodeme I - 1 ecole(s)","type_ecole":"Cycle non renseigné (déclaration village)","nb":1,"localite_proche":"Bodeme I","phase":2,"source_courte":"Terrain"},"geometry":{"type":"Point","coordinates":[19.58858,3.27248]}},{"type":"Feature","properties":{"nom":"Boduli I - 2 ecole(s)","type_ecole":"Cycle non renseigné (déclaration village)","nb":2,"localite_proche":"Boduli I","phase":2,"source_courte":"Terrain"},"geometry":{"type":"Point","coordinates":[19.60051,3.27276]}},{"type":"Feature","properties":{"nom":"Bodenge - 1 ecole(s)","type_ecole":"Cycle non renseigné (déclaration village)","nb":1,"localite_proche":"Bodenge","phase":2,"source_courte":"Terrain"},"geometry":{"type":"Point","coordinates":[19.61968,3.27008]}},{"type":"Feature","properties":{"nom":"Boyambi mbalina III - 1 ecole(s)","type_ecole":"Cycle non renseigné (déclaration village)","nb":1,"localite_proche":"Boyambi mbalina III","phase":2,"source_courte":"Terrain"},"geometry":{"type":"Point","coordinates":[19.67174,3.24409]}},{"type":"Feature","properties":{"nom":"Boyambi II - 1 ecole(s)","type_ecole":"Cycle non renseigné (déclaration village)","nb":1,"localite_proche":"Boyambi II","phase":2,"source_courte":"Terrain"},"geometry":{"type":"Point","coordinates":[19.70111,3.22972]}},{"type":"Feature","properties":{"nom":"Boyambi I - 1 ecole(s)","type_ecole":"Cycle non renseigné (déclaration village)","nb":1,"localite_proche":"Boyambi I","phase":2,"source_courte":"Terrain"},"geometry":{"type":"Point","coordinates":[19.71638,3.24111]}},{"type":"Feature","properties":{"nom":"Bokuda - 1 ecole(s)","type_ecole":"Cycle non renseigné (déclaration village)","nb":1,"localite_proche":"Bokuda","phase":1,"source_courte":"Terrain"},"geometry":{"type":"Point","coordinates":[19.77829,3.22171]}},{"type":"Feature","properties":{"nom":"Boketa Salongo - 1 ecole(s)","type_ecole":"Cycle non renseigné (déclaration village)","nb":1,"localite_proche":"Boketa Salongo","phase":1,"source_courte":"Terrain"},"geometry":{"type":"Point","coordinates":[19.81134,3.18791]}},{"type":"Feature","properties":{"nom":"Bodiawa Monene - 1 ecole(s)","type_ecole":"Cycle non renseigné (déclaration village)","nb":1,"localite_proche":"Bodiawa Monene","phase":1,"source_courte":"Terrain"},"geometry":{"type":"Point","coordinates":[19.81871,3.14244]}},{"type":"Feature","properties":{"nom":"Bogeze - 1 ecole(s)","type_ecole":"Cycle non renseigné (déclaration village)","nb":1,"localite_proche":"Bogeze","phase":1,"source_courte":"Terrain"},"geometry":{"type":"Point","coordinates":[19.83318,3.10906]}},{"type":"Feature","properties":{"nom":"Bomele - 1 ecole(s)","type_ecole":"Cycle non renseigné (déclaration village)","nb":1,"localite_proche":"Bomele","phase":1,"source_courte":"Terrain"},"geometry":{"type":"Point","coordinates":[19.85780,3.08564]}},{"type":"Feature","properties":{"nom":"Bozagba - 1 ecole(s)","type_ecole":"Cycle non renseigné (déclaration village)","nb":1,"localite_proche":"Bozagba","phase":1,"source_courte":"Terrain"},"geometry":{"type":"Point","coordinates":[19.88349,3.07282]}},{"type":"Feature","properties":{"nom":"Bogoro TP V - 1 ecole(s)","type_ecole":"Cycle non renseigné (déclaration village)","nb":1,"localite_proche":"Bogoro TP V","phase":1,"source_courte":"Terrain"},"geometry":{"type":"Point","coordinates":[19.88633,3.05726]}},{"type":"Feature","properties":{"nom":"Bogoro TP III - 1 ecole(s)","type_ecole":"Cycle non renseigné (déclaration village)","nb":1,"localite_proche":"Bogoro TP III","phase":1,"source_courte":"Terrain"},"geometry":{"type":"Point","coordinates":[19.89348,3.02972]}},{"type":"Feature","properties":{"nom":"Bodongodale II TP - 1 ecole(s)","type_ecole":"Cycle non renseigné (déclaration village)","nb":1,"localite_proche":"Bodongodale II TP","phase":1,"source_courte":"Terrain"},"geometry":{"type":"Point","coordinates":[19.89579,3.01931]}},{"type":"Feature","properties":{"nom":"Gbatikombo - 1 ecole(s)","type_ecole":"Cycle non renseigné (déclaration village)","nb":1,"localite_proche":"Gbatikombo","phase":1,"source_courte":"Terrain"},"geometry":{"type":"Point","coordinates":[19.89891,2.99870]}},{"type":"Feature","properties":{"nom":"Bogalegba III - 1 ecole(s)","type_ecole":"Cycle non renseigné (déclaration village)","nb":1,"localite_proche":"Bogalegba III","phase":1,"source_courte":"Terrain"},"geometry":{"type":"Point","coordinates":[19.90057,2.96735]}},{"type":"Feature","properties":{"nom":"Bogalegba II - 1 ecole(s)","type_ecole":"Cycle non renseigné (déclaration village)","nb":1,"localite_proche":"Bogalegba II","phase":1,"source_courte":"Terrain"},"geometry":{"type":"Point","coordinates":[19.90180,2.94146]}},{"type":"Feature","properties":{"nom":"Boguaka - 2 ecole(s)","type_ecole":"Cycle non renseigné (déclaration village)","nb":2,"localite_proche":"Boguaka","phase":1,"source_courte":"Terrain"},"geometry":{"type":"Point","coordinates":[19.90655,2.92322]}},{"type":"Feature","properties":{"nom":"Bozagba sua - 2 ecole(s)","type_ecole":"Cycle non renseigné (déclaration village)","nb":2,"localite_proche":"Bozagba sua","phase":1,"source_courte":"Terrain"},"geometry":{"type":"Point","coordinates":[19.94165,2.86098]}},{"type":"Feature","properties":{"nom":"Talasua - 1 ecole(s)","type_ecole":"Cycle non renseigné (déclaration village)","nb":1,"localite_proche":"Talasua","phase":1,"source_courte":"Terrain"},"geometry":{"type":"Point","coordinates":[19.94548,2.85445]}},{"type":"Feature","properties":{"nom":"Yabaza I - 1 ecole(s)","type_ecole":"Cycle non renseigné (déclaration village)","nb":1,"localite_proche":"Yabaza I","phase":1,"source_courte":"Terrain"},"geometry":{"type":"Point","coordinates":[19.96721,2.82084]}},{"type":"Feature","properties":{"nom":"Gbulu - 1 ecole(s)","type_ecole":"Cycle non renseigné (déclaration village)","nb":1,"localite_proche":"Gbulu","phase":1,"source_courte":"Terrain"},"geometry":{"type":"Point","coordinates":[19.99296,2.74851]}},{"type":"Feature","properties":{"nom":"Kuma - 1 ecole(s)","type_ecole":"Cycle non renseigné (déclaration village)","nb":1,"localite_proche":"Kuma","phase":1,"source_courte":"Terrain"},"geometry":{"type":"Point","coordinates":[20.13991,2.43145]}},{"type":"Feature","properties":{"nom":"Akula - 1 ecole(s)","type_ecole":"Cycle non renseigné (déclaration village)","nb":1,"localite_proche":"Akula","phase":1,"source_courte":"Terrain"},"geometry":{"type":"Point","coordinates":[20.18416,2.37363]}},{"type":"Feature","properties":{"nom":"Bosombuma - 1 ecole(s)","type_ecole":"Cycle non renseigné (déclaration village)","nb":1,"localite_proche":"Bosombuma","phase":3,"source_courte":"Terrain"},"geometry":{"type":"Point","coordinates":[18.75880,3.70118]}},{"type":"Feature","properties":{"nom":"Boduko - 1 ecole(s)","type_ecole":"Cycle non renseigné (déclaration village)","nb":1,"localite_proche":"Boduko","phase":3,"source_courte":"Terrain"},"geometry":{"type":"Point","coordinates":[18.71701,3.69335]}},{"type":"Feature","properties":{"nom":"Boso Nzimbelo - 1 ecole(s)","type_ecole":"Cycle non renseigné (déclaration village)","nb":1,"localite_proche":"Boso Nzimbelo","phase":3,"source_courte":"Terrain"},"geometry":{"type":"Point","coordinates":[18.65149,3.65236]}},{"type":"Feature","properties":{"nom":"Libenge - 2 ecole(s)","type_ecole":"Cycle non renseigné (déclaration village)","nb":2,"localite_proche":"Libenge","phase":3,"source_courte":"Terrain"},"geometry":{"type":"Point","coordinates":[18.63166,3.64472]}},{"type":"Feature","properties":{"nom":"Ecole primaire Ngombe Poswa","type_ecole":"Primaire","nb":1,"localite_proche":"Boyabo","phase":2,"source_courte":"OSM"},"geometry":{"type":"Point","coordinates":[18.77361,3.72066]}},{"type":"Feature","properties":{"nom":"École primaire Kpindima","type_ecole":"Primaire","nb":1,"localite_proche":"Mbari","phase":2,"source_courte":"OSM"},"geometry":{"type":"Point","coordinates":[19.40688,3.32369]}},{"type":"Feature","properties":{"nom":"École primaire Nika","type_ecole":"Primaire","nb":1,"localite_proche":"Zongo","phase":2,"source_courte":"OSM"},"geometry":{"type":"Point","coordinates":[18.59322,4.34821]}},{"type":"Feature","properties":{"nom":"","type_ecole":"Secondaire (collège / lycée)","nb":1,"localite_proche":"Lisala","phase":4,"source_courte":"OSM"},"geometry":{"type":"Point","coordinates":[21.51651,2.15141]}},{"type":"Feature","properties":{"nom":"","type_ecole":"Cycle non précisé","nb":1,"localite_proche":"Boyabo","phase":2,"source_courte":"OSM"},"geometry":{"type":"Point","coordinates":[18.77076,3.71909]}},{"type":"Feature","properties":{"nom":"","type_ecole":"Cycle non précisé","nb":1,"localite_proche":"Molin ingonge","phase":2,"source_courte":"OSM"},"geometry":{"type":"Point","coordinates":[18.78099,4.14743]}},{"type":"Feature","properties":{"nom":"","type_ecole":"Cycle non précisé","nb":1,"localite_proche":"Molin 2kilo","phase":2,"source_courte":"OSM"},"geometry":{"type":"Point","coordinates":[18.77516,4.15513]}},{"type":"Feature","properties":{"nom":"Collège STM","type_ecole":"Secondaire (collège / lycée)","nb":1,"localite_proche":"Lisala","phase":4,"source_courte":"OSM"},"geometry":{"type":"Point","coordinates":[21.51146,2.15399]}}]}