{"type":"FeatureCollection","features":[{"type":"Feature","properties":{},"geometry":{"type":"Polygon","coordinates":[[[18.59217,4.33656],[18.59182,4.34619],[18.59243,4.35062],[18.59464,4.35446],[18.59525,4.35617],[18.59596,4.35708],[18.59612,4.35889],[18.59658,4.36029],[18.59746,4.36146],[18.59926,4.36285],[18.60591,4.36542],[18.60878,4.36555],[18.61083,4.36511],[18.61566,4.36282],[18.61703,4.36134],[18.61789,4.35870],[18.62318,4.35509],[18.62404,4.35734],[18.62509,4.35837],[18.62614,4.35891],[18.62758,4.35917],[18.62875,4.35904],[18.63079,4.35790],[18.63166,4.35672],[18.63247,4.35448],[18.63288,4.35121],[18.63276,4.34866],[18.63224,4.34733],[18.63107,4.34585],[18.62982,4.34508],[18.62814,4.34462],[18.62690,4.34465],[18.62304,4.34556],[18.61818,4.34736],[18.61586,4.34935],[18.61098,4.35245],[18.60996,4.35381],[18.60938,4.35567],[18.60765,4.35639],[18.60496,4.35535],[18.60442,4.35300],[18.60104,4.34781],[18.60083,4.34593],[18.60107,4.33796],[18.60180,4.33588],[18.60563,4.32839],[18.60986,4.32299],[18.61325,4.31960],[18.61586,4.31604],[18.61681,4.31419],[18.61902,4.31147],[18.61964,4.31008],[18.62032,4.30672],[18.62397,4.30502],[18.62552,4.30316],[18.62602,4.30078],[18.62550,4.29807],[18.62475,4.29645],[18.62307,4.29421],[18.62717,4.28533],[18.62815,4.27875],[18.63160,4.27530],[18.63597,4.26766],[18.63641,4.26534],[18.63570,4.26049],[18.63607,4.25921],[18.64056,4.25319],[18.64524,4.24621],[18.64613,4.24420],[18.65285,4.24072],[18.66153,4.23908],[18.66366,4.23827],[18.66865,4.23548],[18.67055,4.23377],[18.67339,4.22995],[18.67695,4.22819],[18.68148,4.22458],[18.68835,4.22203],[18.69222,4.22107],[18.69457,4.22099],[18.69633,4.22055],[18.69886,4.21893],[18.69997,4.21750],[18.70106,4.21731],[18.70378,4.21750],[18.70599,4.21686],[18.71034,4.21470],[18.71442,4.21002],[18.71799,4.20873],[18.72446,4.20522],[18.72962,4.20647],[18.73965,4.20765],[18.74144,4.20754],[18.74310,4.20686],[18.74466,4.20523],[18.74634,4.20162],[18.74743,4.19674],[18.75050,4.18914],[18.76193,4.17760],[18.76471,4.17543],[18.76894,4.17323],[18.77151,4.17000],[18.77570,4.16814],[18.77759,4.16664],[18.77867,4.16470],[18.77907,4.16233],[18.77881,4.16049],[18.77763,4.15739],[18.77785,4.15688],[18.78213,4.15354],[18.78543,4.15478],[18.78751,4.15498],[18.79062,4.15431],[18.79285,4.15273],[18.79394,4.15101],[18.79566,4.14647],[18.79643,4.14359],[18.79856,4.14040],[18.79927,4.13856],[18.79951,4.13680],[18.79921,4.13494],[18.79576,4.12900],[18.79444,4.12752],[18.79130,4.12514],[18.78925,4.12276],[18.78431,4.11456],[18.77856,4.10703],[18.77745,4.10608],[18.77319,4.10379],[18.77192,4.10267],[18.76796,4.09660],[18.76244,4.09055],[18.76132,4.08803],[18.76045,4.08524],[18.76258,4.07431],[18.76242,4.07220],[18.76153,4.07021],[18.76288,4.06739],[18.76304,4.06541],[18.76280,4.06372],[18.76172,4.06149],[18.75923,4.05871],[18.75649,4.05632],[18.75186,4.05315],[18.75012,4.04769],[18.75028,4.04560],[18.75285,4.04104],[18.75413,4.03682],[18.75347,4.03165],[18.75334,4.02634],[18.75277,4.02407],[18.74729,4.01251],[18.74483,4.00636],[18.74273,4.00298],[18.74057,4.00023],[18.73913,3.99614],[18.73874,3.99328],[18.73794,3.99156],[18.73606,3.98924],[18.73436,3.98787],[18.73234,3.98694],[18.73000,3.98645],[18.72935,3.98345],[18.72810,3.98063],[18.72678,3.97826],[18.72466,3.97576],[18.72374,3.97360],[18.72323,3.96253],[18.72267,3.96054],[18.72113,3.95709],[18.71824,3.95356],[18.70997,3.94788],[18.70994,3.94554],[18.70827,3.94078],[18.70325,3.93423],[18.70159,3.92484],[18.69848,3.91885],[18.69995,3.91354],[18.70021,3.90846],[18.69653,3.89592],[18.69428,3.89086],[18.68903,3.88504],[18.68708,3.87713],[18.68041,3.86285],[18.68131,3.85462],[18.68084,3.85157],[18.68101,3.85124],[18.68474,3.84603],[18.68912,3.83892],[18.69998,3.82357],[18.70741,3.81242],[18.70842,3.81043],[18.70939,3.80522],[18.70970,3.79788],[18.70881,3.77435],[18.71334,3.76593],[18.71870,3.75869],[18.75785,3.74167],[18.75976,3.73981],[18.76760,3.72866],[18.76922,3.73156],[18.78224,3.74896],[18.78506,3.75098],[18.78804,3.75233],[18.80312,3.75852],[18.80699,3.75908],[18.81294,3.75938],[18.82567,3.76197],[18.83030,3.76345],[18.83819,3.76712],[18.84013,3.76728],[18.84451,3.76670],[18.85142,3.76729],[18.85615,3.77083],[18.87103,3.77726],[18.87341,3.77798],[18.87820,3.77869],[18.88743,3.78078],[18.91324,3.78344],[18.91743,3.78371],[18.92291,3.78347],[18.92428,3.78317],[18.93055,3.78030],[18.93674,3.77835],[18.95913,3.77512],[18.96112,3.77522],[18.96950,3.77883],[18.97221,3.77966],[18.98417,3.78048],[18.98698,3.77999],[18.99776,3.77699],[19.00723,3.77226],[19.01185,3.77129],[19.03104,3.77041],[19.04153,3.77154],[19.04360,3.77148],[19.04531,3.77101],[19.04832,3.76906],[19.05066,3.76574],[19.05481,3.76127],[19.06112,3.75670],[19.06353,3.75533],[19.06725,3.75399],[19.07009,3.75361],[19.07182,3.75301],[19.08046,3.74864],[19.08251,3.74744],[19.08404,3.74594],[19.08706,3.73828],[19.09007,3.73366],[19.09278,3.72543],[19.09460,3.71696],[19.09856,3.69057],[19.09904,3.68864],[19.10243,3.68074],[19.10924,3.67037],[19.11689,3.66191],[19.12233,3.65329],[19.12845,3.64441],[19.13165,3.64207],[19.13903,3.63851],[19.14389,3.63442],[19.14636,3.63155],[19.15567,3.61668],[19.15919,3.61816],[19.16077,3.61834],[19.16243,3.61810],[19.16415,3.61728],[19.17087,3.61297],[19.17966,3.60977],[19.18767,3.60548],[19.19758,3.60164],[19.21937,3.59393],[19.24592,3.58634],[19.24937,3.58473],[19.25983,3.57829],[19.26653,3.57366],[19.26756,3.57260],[19.26836,3.57122],[19.27139,3.57091],[19.28087,3.56840],[19.28888,3.56678],[19.31097,3.56484],[19.31632,3.56543],[19.32486,3.56380],[19.32738,3.56256],[19.32969,3.56075],[19.33093,3.55935],[19.33449,3.55399],[19.35745,3.53409],[19.36793,3.52541],[19.37690,3.51595],[19.38200,3.51008],[19.38679,3.50321],[19.38824,3.49921],[19.38866,3.49720],[19.39057,3.49348],[19.39372,3.48505],[19.39600,3.47488],[19.39849,3.46582],[19.39870,3.46388],[19.39844,3.45607],[19.39652,3.44328],[19.39082,3.42709],[19.38799,3.41745],[19.38975,3.41057],[19.39142,3.39571],[19.39136,3.39363],[19.38977,3.38578],[19.38600,3.37771],[19.38353,3.37349],[19.38178,3.36836],[19.38110,3.35757],[19.38449,3.34660],[19.38477,3.34475],[19.38128,3.32979],[19.38293,3.32868],[19.38785,3.32434],[19.38944,3.32359],[19.39099,3.32359],[19.39296,3.32439],[19.39662,3.32525],[19.40757,3.32672],[19.40971,3.32664],[19.41473,3.32488],[19.41687,3.32336],[19.42108,3.32170],[19.42541,3.31936],[19.42875,3.32015],[19.43071,3.32025],[19.43619,3.31915],[19.43856,3.31824],[19.44098,3.31662],[19.44626,3.31237],[19.44903,3.31099],[19.45218,3.30862],[19.45576,3.30720],[19.46404,3.30511],[19.47108,3.30529],[19.47584,3.30494],[19.48209,3.30385],[19.48686,3.30224],[19.49152,3.30149],[19.49327,3.30086],[19.49532,3.29964],[19.50851,3.29843],[19.51821,3.29474],[19.52625,3.29383],[19.52895,3.29303],[19.53183,3.29128],[19.53512,3.28717],[19.54034,3.28770],[19.54438,3.28677],[19.55115,3.28600],[19.56227,3.28819],[19.56581,3.28778],[19.56839,3.28686],[19.57384,3.28373],[19.57673,3.28159],[19.58239,3.28113],[19.58576,3.28043],[19.58851,3.27884],[19.59336,3.27545],[19.59417,3.27520],[19.59882,3.27678],[19.60285,3.27740],[19.60513,3.27862],[19.60742,3.27936],[19.61309,3.28062],[19.61533,3.28040],[19.62211,3.27825],[19.62747,3.27736],[19.63824,3.27255],[19.65220,3.26501],[19.65523,3.26243],[19.65707,3.26014],[19.66189,3.25545],[19.66364,3.25219],[19.66519,3.24800],[19.66670,3.24759],[19.66750,3.24767],[19.66996,3.24854],[19.67388,3.25058],[19.67593,3.25106],[19.67839,3.25074],[19.68126,3.24946],[19.68307,3.24769],[19.68433,3.24559],[19.68832,3.23486],[19.68965,3.23408],[19.69129,3.23357],[19.69493,3.23418],[19.69945,3.23386],[19.70079,3.23440],[19.70236,3.23532],[19.70369,3.23933],[19.70449,3.24086],[19.70732,3.24344],[19.70946,3.24426],[19.71296,3.24463],[19.71759,3.24615],[19.72209,3.24693],[19.73012,3.24703],[19.73813,3.24547],[19.74149,3.24367],[19.74306,3.24216],[19.74403,3.24054],[19.74513,3.24013],[19.74788,3.24055],[19.74935,3.24299],[19.75155,3.24477],[19.75704,3.24664],[19.75939,3.24660],[19.76260,3.24543],[19.76618,3.24478],[19.77149,3.24618],[19.78008,3.24907],[19.78237,3.24893],[19.78409,3.24787],[19.78518,3.24617],[19.78571,3.24368],[19.78563,3.24147],[19.78487,3.23778],[19.78633,3.23573],[19.78663,3.23311],[19.78603,3.23081],[19.78527,3.22943],[19.78384,3.22812],[19.78158,3.22735],[19.78055,3.22535],[19.79294,3.21563],[19.81239,3.19900],[19.81368,3.19761],[19.81448,3.19596],[19.81856,3.16385],[19.82328,3.14900],[19.82357,3.14690],[19.82323,3.13870],[19.82626,3.13333],[19.82850,3.12607],[19.82870,3.12314],[19.82814,3.11684],[19.82898,3.11538],[19.83150,3.11454],[19.83364,3.11326],[19.83961,3.10682],[19.84110,3.10483],[19.84246,3.10232],[19.84445,3.10059],[19.84686,3.09969],[19.84882,3.09821],[19.85053,3.09590],[19.85175,3.09212],[19.85211,3.09177],[19.85531,3.09145],[19.85782,3.09040],[19.86057,3.08996],[19.86463,3.08840],[19.86698,3.08686],[19.86852,3.08518],[19.87171,3.08304],[19.87504,3.07905],[19.87880,3.07723],[19.88230,3.07693],[19.88368,3.07653],[19.88528,3.07533],[19.88640,3.07351],[19.90177,3.01468],[19.90226,3.01202],[19.90651,2.93293],[19.91790,2.90996],[19.92463,2.89557],[19.93332,2.88140],[19.95690,2.84558],[19.96249,2.83753],[19.96835,2.82766],[19.97395,2.81898],[19.98422,2.79936],[19.98936,2.78883],[19.99154,2.78348],[20.00065,2.76516],[20.00127,2.76281],[20.00117,2.76075],[19.99625,2.74504],[19.98528,2.69807],[19.99839,2.67451],[20.00263,2.64986],[20.01730,2.64562],[20.01959,2.64463],[20.02108,2.64336],[20.04193,2.60535],[20.04390,2.59794],[20.04875,2.58810],[20.04940,2.58569],[20.04940,2.58414],[20.04896,2.58220],[20.04477,2.57075],[20.04663,2.55654],[20.04975,2.53931],[20.05548,2.53565],[20.06445,2.52936],[20.07038,2.52473],[20.07697,2.51890],[20.08154,2.51404],[20.08899,2.50538],[20.13252,2.45910],[20.13369,2.45702],[20.13440,2.45198],[20.13549,2.45001],[20.13705,2.44413],[20.13707,2.44110],[20.14349,2.43379],[20.14443,2.43189],[20.14497,2.42941],[20.15415,2.42314],[20.16107,2.41772],[20.16391,2.41337],[20.17051,2.39605],[20.17675,2.39078],[20.18188,2.38595],[20.18555,2.38029],[20.18878,2.37667],[20.19001,2.37626],[20.19226,2.37492],[20.19468,2.37305],[20.19539,2.37211],[20.19847,2.36583],[20.19984,2.36566],[20.20139,2.36503],[20.20285,2.36410],[20.20385,2.36300],[20.20481,2.36088],[20.20568,2.35721],[20.20762,2.35480],[20.20860,2.35216],[20.20823,2.34955],[20.20668,2.34654],[20.20596,2.34421],[20.20583,2.34136],[20.20673,2.33912],[20.20681,2.33639],[20.20857,2.33553],[20.21001,2.33399],[20.21322,2.32843],[20.21373,2.32600],[20.21322,2.32367],[20.21044,2.31745],[20.20965,2.31492],[20.20649,2.31033],[20.20636,2.30777],[20.20532,2.30310],[20.20927,2.29607],[20.21317,2.29257],[20.22775,2.29125],[20.23378,2.29099],[20.24206,2.29002],[20.24781,2.29073],[20.25176,2.29053],[20.25320,2.29004],[20.25623,2.28835],[20.25977,2.28489],[20.26435,2.28298],[20.26931,2.28364],[20.27280,2.28348],[20.28629,2.28006],[20.29023,2.27784],[20.29360,2.27647],[20.29834,2.27523],[20.30246,2.27280],[20.30637,2.26931],[20.30986,2.26790],[20.31495,2.26772],[20.31812,2.27042],[20.32035,2.27186],[20.32462,2.27357],[20.32613,2.27377],[20.32768,2.27353],[20.32978,2.27249],[20.33127,2.27052],[20.33172,2.26884],[20.33169,2.26699],[20.33248,2.26373],[20.33245,2.26198],[20.33527,2.26217],[20.33935,2.26343],[20.34532,2.26475],[20.34833,2.26427],[20.35129,2.26255],[20.35392,2.26332],[20.35608,2.26351],[20.36111,2.26675],[20.36472,2.26829],[20.37016,2.26959],[20.37566,2.27048],[20.37780,2.27049],[20.38013,2.26967],[20.38517,2.26940],[20.39472,2.27007],[20.39694,2.27205],[20.39847,2.27297],[20.40100,2.27362],[20.40849,2.27665],[20.41061,2.27702],[20.41199,2.27685],[20.41699,2.27504],[20.42349,2.27338],[20.42562,2.27360],[20.42767,2.27431],[20.42946,2.27450],[20.43659,2.27322],[20.43805,2.27255],[20.44418,2.26844],[20.45489,2.26212],[20.45701,2.26171],[20.46348,2.26441],[20.46967,2.26647],[20.47454,2.26686],[20.48030,2.26652],[20.48200,2.26545],[20.48307,2.26373],[20.48413,2.25639],[20.48702,2.25421],[20.48803,2.25279],[20.48884,2.25086],[20.49093,2.24861],[20.49372,2.24675],[20.49635,2.24567],[20.50093,2.24237],[20.50529,2.24221],[20.50747,2.24134],[20.51096,2.23879],[20.51348,2.23584],[20.51701,2.23295],[20.52032,2.23094],[20.52293,2.22823],[20.52728,2.22569],[20.52893,2.22421],[20.53087,2.22030],[20.53171,2.21606],[20.53172,2.21299],[20.53271,2.20983],[20.53253,2.20712],[20.53345,2.19674],[20.53574,2.19264],[20.53784,2.19145],[20.53973,2.18922],[20.54453,2.18603],[20.54649,2.18574],[20.54808,2.18509],[20.55164,2.18180],[20.55292,2.17963],[20.55387,2.17648],[20.55480,2.17448],[20.55545,2.17175],[20.56106,2.17461],[20.56586,2.17626],[20.56864,2.17650],[20.57164,2.17609],[20.57472,2.17489],[20.57668,2.17348],[20.58211,2.17054],[20.58609,2.17085],[20.58812,2.17060],[20.58997,2.16999],[20.59226,2.16835],[20.59462,2.16710],[20.59723,2.16653],[20.59868,2.16579],[20.59985,2.16473],[20.60100,2.16265],[20.60299,2.16145],[20.60408,2.16152],[20.60792,2.16497],[20.60991,2.16738],[20.61187,2.16865],[20.61363,2.16904],[20.61712,2.16927],[20.62076,2.16907],[20.62485,2.17111],[20.62952,2.17233],[20.63413,2.17683],[20.63641,2.17839],[20.63875,2.18090],[20.64213,2.18349],[20.64433,2.18454],[20.64765,2.18532],[20.65034,2.18540],[20.65195,2.18498],[20.65684,2.18285],[20.65806,2.18319],[20.66076,2.18773],[20.66304,2.19003],[20.66931,2.19385],[20.67295,2.19551],[20.67538,2.19554],[20.68287,2.19707],[20.68620,2.19717],[20.69886,2.19487],[20.70241,2.19581],[20.70966,2.19964],[20.71540,2.20048],[20.71837,2.20162],[20.72057,2.20193],[20.72631,2.20105],[20.72790,2.20027],[20.72950,2.19860],[20.73312,2.19921],[20.73587,2.19859],[20.73894,2.19845],[20.75019,2.19921],[20.75261,2.19983],[20.75841,2.19941],[20.76081,2.19901],[20.76324,2.19824],[20.76674,2.19637],[20.77000,2.19650],[20.77371,2.19511],[20.78106,2.19787],[20.79275,2.20050],[20.80137,2.20379],[20.80430,2.20373],[20.80652,2.20308],[20.80954,2.20279],[20.81383,2.20403],[20.82040,2.20466],[20.82336,2.20612],[20.82539,2.20658],[20.82799,2.20644],[20.83080,2.20572],[20.83368,2.20707],[20.83646,2.20779],[20.83991,2.20978],[20.84271,2.21013],[20.84528,2.21001],[20.84747,2.21178],[20.84909,2.21251],[20.85286,2.21293],[20.85588,2.21417],[20.86295,2.21475],[20.86581,2.21562],[20.86928,2.21861],[20.87192,2.21982],[20.87787,2.22113],[20.88322,2.22108],[20.88665,2.22389],[20.89200,2.22534],[20.89415,2.22684],[20.89615,2.22716],[20.89773,2.22697],[20.89941,2.22770],[20.90169,2.22786],[20.90405,2.22911],[20.90560,2.22953],[20.90779,2.22971],[20.91271,2.22872],[20.92117,2.23076],[20.92391,2.23092],[20.92616,2.23046],[20.92954,2.22920],[20.93316,2.22691],[20.93708,2.22551],[20.93917,2.22443],[20.94135,2.22414],[20.95043,2.22868],[20.96056,2.23162],[20.96455,2.23375],[20.96698,2.23411],[20.96937,2.23593],[20.97140,2.23693],[20.97420,2.23765],[20.97594,2.23777],[20.98524,2.23633],[20.99051,2.23715],[20.99628,2.23674],[20.99969,2.23551],[21.00270,2.23478],[21.00639,2.23484],[21.00907,2.23437],[21.01144,2.23436],[21.01367,2.23362],[21.01631,2.23225],[21.02207,2.23169],[21.02508,2.23154],[21.02827,2.23180],[21.03150,2.23157],[21.03422,2.23181],[21.03818,2.23140],[21.04211,2.23142],[21.04752,2.23222],[21.05173,2.23199],[21.05412,2.23142],[21.05673,2.23166],[21.05942,2.23148],[21.06116,2.23119],[21.06386,2.23024],[21.06799,2.23119],[21.06980,2.23121],[21.07548,2.22976],[21.08299,2.22639],[21.09710,2.22632],[21.10062,2.22537],[21.10325,2.22548],[21.10623,2.22485],[21.10850,2.22397],[21.11081,2.22266],[21.11410,2.22228],[21.11615,2.22251],[21.11817,2.22216],[21.12063,2.22313],[21.12264,2.22328],[21.12440,2.22281],[21.12731,2.22139],[21.13144,2.22022],[21.13591,2.22095],[21.14022,2.22109],[21.14293,2.22047],[21.14573,2.22098],[21.15049,2.22111],[21.15204,2.22069],[21.15465,2.21946],[21.15793,2.21934],[21.16116,2.21845],[21.16223,2.21798],[21.16334,2.21704],[21.16533,2.21669],[21.16850,2.21540],[21.17238,2.21475],[21.17505,2.21358],[21.17799,2.21166],[21.17973,2.20916],[21.18027,2.20786],[21.18280,2.20592],[21.18351,2.20551],[21.18547,2.20532],[21.18731,2.20460],[21.18949,2.20293],[21.19281,2.20169],[21.19543,2.19953],[21.19897,2.19850],[21.20158,2.19850],[21.20952,2.19771],[21.21504,2.19654],[21.21991,2.19634],[21.23268,2.19739],[21.23446,2.19708],[21.23934,2.19540],[21.24535,2.19436],[21.24814,2.19330],[21.24995,2.19225],[21.25379,2.19246],[21.25772,2.19179],[21.26453,2.19257],[21.27050,2.19195],[21.27432,2.19017],[21.27787,2.18605],[21.27992,2.18508],[21.28143,2.18314],[21.28538,2.18164],[21.28913,2.17912],[21.29053,2.17887],[21.29680,2.17653],[21.30021,2.17793],[21.30246,2.17830],[21.30686,2.18112],[21.31194,2.18330],[21.31444,2.18397],[21.31690,2.18426],[21.32190,2.18322],[21.32371,2.18314],[21.32798,2.18431],[21.33110,2.18473],[21.33363,2.18587],[21.33670,2.18651],[21.33918,2.18653],[21.34063,2.18606],[21.34287,2.18458],[21.34408,2.18225],[21.34678,2.17933],[21.34854,2.17606],[21.35055,2.17514],[21.35325,2.17441],[21.35541,2.17332],[21.35802,2.17255],[21.36172,2.17265],[21.36409,2.17214],[21.36507,2.17223],[21.36956,2.17400],[21.37679,2.17444],[21.37919,2.17391],[21.38133,2.17278],[21.38801,2.17312],[21.39204,2.17282],[21.39631,2.17134],[21.40353,2.17068],[21.41371,2.16773],[21.42504,2.16766],[21.44153,2.16282],[21.44372,2.16130],[21.44583,2.15827],[21.45013,2.15571],[21.45146,2.15439],[21.45789,2.15489],[21.46074,2.15481],[21.46495,2.15366],[21.46964,2.15321],[21.49078,2.14775],[21.49394,2.14860],[21.49470,2.15047],[21.49562,2.15165],[21.49904,2.15347],[21.50279,2.15403],[21.51457,2.15397],[21.51595,2.15436],[21.51713,2.15435],[21.51928,2.15343],[21.52010,2.15259],[21.52101,2.15100],[21.52266,2.15034],[21.52391,2.14911],[21.52444,2.14805],[21.52470,2.14660],[21.52448,2.14514],[21.52380,2.14384],[21.52298,2.14299],[21.52170,2.14228],[21.51849,2.14202],[21.51610,2.14284],[21.51406,2.14493],[21.50253,2.14494],[21.50213,2.14480],[21.50064,2.14205],[21.49883,2.14067],[21.49268,2.13890],[21.49039,2.13865],[21.46775,2.14436],[21.46355,2.14472],[21.45929,2.14586],[21.44914,2.14530],[21.44681,2.14624],[21.44470,2.14841],[21.44010,2.15125],[21.43809,2.15342],[21.43734,2.15477],[21.42334,2.15878],[21.41248,2.15874],[21.40159,2.16178],[21.39433,2.16246],[21.39035,2.16390],[21.38794,2.16407],[21.38027,2.16376],[21.37829,2.16423],[21.37601,2.16542],[21.37131,2.16509],[21.36867,2.16385],[21.36654,2.16328],[21.36441,2.16309],[21.36090,2.16359],[21.35748,2.16350],[21.35591,2.16375],[21.35224,2.16483],[21.34992,2.16598],[21.34768,2.16654],[21.34372,2.16840],[21.34134,2.17054],[21.33921,2.17445],[21.33649,2.17707],[21.33341,2.17597],[21.32995,2.17548],[21.32790,2.17471],[21.32443,2.17408],[21.32069,2.17422],[21.31657,2.17518],[21.31487,2.17473],[21.31097,2.17305],[21.30562,2.16975],[21.30239,2.16914],[21.29852,2.16750],[21.29541,2.16749],[21.28813,2.17012],[21.28559,2.17073],[21.28125,2.17356],[21.27575,2.17570],[21.27369,2.17754],[21.27183,2.17862],[21.27026,2.18118],[21.26832,2.18313],[21.26422,2.18352],[21.25747,2.18271],[21.25309,2.18344],[21.24825,2.18322],[21.24690,2.18358],[21.24290,2.18563],[21.23705,2.18664],[21.23215,2.18832],[21.21994,2.18727],[21.21413,2.18749],[21.20840,2.18873],[21.20305,2.18905],[21.20094,2.18947],[21.19762,2.18952],[21.19242,2.19099],[21.19029,2.19207],[21.18823,2.19379],[21.18540,2.19487],[21.18319,2.19646],[21.18046,2.19694],[21.17774,2.19841],[21.17337,2.20184],[21.17240,2.20324],[21.17178,2.20488],[21.17124,2.20539],[21.16969,2.20609],[21.16661,2.20651],[21.16269,2.20801],[21.16029,2.20844],[21.15867,2.20921],[21.15757,2.21008],[21.15653,2.21038],[21.15261,2.21061],[21.14906,2.21211],[21.14318,2.21140],[21.14157,2.21147],[21.13964,2.21205],[21.13724,2.21195],[21.13542,2.21141],[21.13076,2.21115],[21.12440,2.21282],[21.12196,2.21396],[21.12053,2.21334],[21.11845,2.21302],[21.11590,2.21341],[21.11410,2.21320],[21.11050,2.21353],[21.10755,2.21416],[21.10387,2.21611],[21.10230,2.21647],[21.09954,2.21628],[21.09608,2.21731],[21.08466,2.21720],[21.08123,2.21746],[21.07240,2.22124],[21.06888,2.22212],[21.06430,2.22117],[21.06157,2.22139],[21.05832,2.22250],[21.05359,2.22238],[21.05036,2.22301],[21.04742,2.22316],[21.04230,2.22235],[21.03798,2.22234],[21.03409,2.22274],[21.03147,2.22252],[21.02148,2.22266],[21.01432,2.22338],[21.01004,2.22534],[21.00819,2.22535],[21.00605,2.22578],[21.00084,2.22593],[20.99694,2.22686],[20.99478,2.22780],[20.99079,2.22810],[20.98807,2.22744],[20.98455,2.22730],[20.97589,2.22871],[20.97400,2.22816],[20.97197,2.22651],[20.97041,2.22564],[20.96708,2.22504],[20.96559,2.22394],[20.96331,2.22300],[20.95745,2.22142],[20.95543,2.22050],[20.95368,2.22020],[20.94615,2.21634],[20.94275,2.21517],[20.94045,2.21513],[20.93660,2.21572],[20.93363,2.21715],[20.92917,2.21880],[20.92580,2.22096],[20.92306,2.22187],[20.91369,2.21967],[20.91205,2.21964],[20.90730,2.22064],[20.90460,2.21921],[20.90278,2.21884],[20.90164,2.21710],[20.89990,2.21598],[20.89730,2.21579],[20.89521,2.21677],[20.89088,2.21577],[20.88863,2.21367],[20.88605,2.21229],[20.88150,2.21197],[20.87883,2.21213],[20.87434,2.21108],[20.87111,2.20818],[20.86932,2.20720],[20.86484,2.20590],[20.85769,2.20529],[20.85492,2.20400],[20.85185,2.20382],[20.85060,2.20250],[20.84888,2.20149],[20.84576,2.20096],[20.84262,2.20106],[20.84012,2.19944],[20.83628,2.19832],[20.83263,2.19674],[20.83029,2.19654],[20.82638,2.19752],[20.82276,2.19577],[20.81524,2.19508],[20.81045,2.19372],[20.80522,2.19406],[20.80322,2.19466],[20.79969,2.19363],[20.79509,2.19176],[20.78340,2.18913],[20.77690,2.18660],[20.77409,2.18598],[20.77140,2.18621],[20.76882,2.18744],[20.76480,2.18753],[20.76242,2.18836],[20.75929,2.19005],[20.75607,2.19056],[20.75339,2.19072],[20.75114,2.19019],[20.73922,2.18940],[20.73456,2.18963],[20.73274,2.19007],[20.73009,2.18955],[20.72764,2.18958],[20.72512,2.19038],[20.72269,2.19259],[20.72068,2.19286],[20.71751,2.19168],[20.71231,2.19099],[20.70874,2.18880],[20.70569,2.18739],[20.70326,2.18655],[20.69978,2.18585],[20.69765,2.18586],[20.68583,2.18812],[20.68401,2.18808],[20.67653,2.18655],[20.67470,2.18649],[20.66811,2.18249],[20.66679,2.18039],[20.66668,2.17890],[20.66611,2.17749],[20.66480,2.17585],[20.66342,2.17492],[20.66215,2.17447],[20.66040,2.17441],[20.65824,2.17375],[20.65635,2.17358],[20.65400,2.17412],[20.64913,2.17637],[20.64746,2.17604],[20.64460,2.17403],[20.64216,2.17139],[20.64000,2.16995],[20.63554,2.16558],[20.63368,2.16428],[20.62812,2.16267],[20.62537,2.16114],[20.62276,2.16024],[20.62098,2.15998],[20.61774,2.16020],[20.61552,2.16003],[20.61214,2.15643],[20.60807,2.15328],[20.60588,2.15257],[20.60151,2.15239],[20.59968,2.15288],[20.59786,2.15402],[20.59527,2.15478],[20.59368,2.15633],[20.59287,2.15822],[20.59087,2.15883],[20.58784,2.16035],[20.58601,2.16176],[20.58207,2.16143],[20.57916,2.16195],[20.57510,2.16398],[20.56968,2.16725],[20.56801,2.16746],[20.56582,2.16679],[20.56294,2.16556],[20.55780,2.16272],[20.55620,2.16220],[20.55279,2.16186],[20.55038,2.16295],[20.54920,2.16427],[20.54759,2.16722],[20.54458,2.17616],[20.54372,2.17701],[20.54131,2.17754],[20.53787,2.17938],[20.53391,2.18232],[20.53202,2.18437],[20.52999,2.18540],[20.52857,2.18699],[20.52540,2.19266],[20.52459,2.19514],[20.52353,2.20688],[20.52369,2.20891],[20.52268,2.21169],[20.52284,2.21452],[20.52199,2.21833],[20.51740,2.22107],[20.51437,2.22410],[20.51167,2.22566],[20.50766,2.22890],[20.50508,2.23193],[20.50323,2.23330],[20.49960,2.23340],[20.49772,2.23385],[20.49542,2.23515],[20.49183,2.23781],[20.48996,2.23851],[20.48706,2.24015],[20.48517,2.24167],[20.48163,2.24540],[20.48023,2.24817],[20.47791,2.24980],[20.47638,2.25162],[20.47537,2.25431],[20.47481,2.25780],[20.47069,2.25739],[20.45935,2.25288],[20.45783,2.25258],[20.45625,2.25266],[20.45261,2.25330],[20.45049,2.25423],[20.43956,2.26067],[20.43366,2.26464],[20.42945,2.26538],[20.42607,2.26449],[20.42226,2.26440],[20.41454,2.26634],[20.41056,2.26778],[20.40382,2.26501],[20.40219,2.26463],[20.39906,2.26210],[20.39644,2.26113],[20.38516,2.26035],[20.37869,2.26070],[20.37647,2.26141],[20.37217,2.26076],[20.36745,2.25961],[20.36521,2.25866],[20.35937,2.25498],[20.35759,2.25451],[20.35577,2.25446],[20.35284,2.25360],[20.34920,2.25368],[20.34711,2.25453],[20.34538,2.25562],[20.33660,2.25321],[20.32996,2.25301],[20.32839,2.25341],[20.32687,2.25434],[20.32427,2.25759],[20.32355,2.25893],[20.32323,2.26027],[20.32337,2.26299],[20.31926,2.25971],[20.31724,2.25892],[20.31542,2.25866],[20.30828,2.25895],[20.30254,2.26107],[20.30044,2.26250],[20.29722,2.26543],[20.29444,2.26706],[20.29030,2.26804],[20.28634,2.26968],[20.28315,2.27158],[20.27149,2.27451],[20.26935,2.27457],[20.26528,2.27386],[20.26168,2.27434],[20.25490,2.27725],[20.25253,2.27922],[20.25089,2.28102],[20.24972,2.28168],[20.24117,2.28101],[20.23295,2.28198],[20.22719,2.28222],[20.21308,2.28344],[20.21013,2.28400],[20.20805,2.28511],[20.20298,2.28959],[20.20180,2.29101],[20.19682,2.29966],[20.19632,2.30127],[20.19623,2.30310],[20.19745,2.30919],[20.19781,2.31304],[20.19962,2.31650],[20.20148,2.31881],[20.20208,2.32085],[20.20431,2.32575],[20.20316,2.32773],[20.20129,2.32834],[20.19980,2.32949],[20.19892,2.33082],[20.19835,2.33241],[20.19782,2.33721],[20.19689,2.33951],[20.19683,2.34219],[20.19710,2.34595],[20.19896,2.35120],[20.19716,2.35367],[20.19668,2.35648],[20.19412,2.35719],[20.19199,2.35907],[20.19107,2.36042],[20.18791,2.36693],[20.18519,2.36867],[20.18408,2.36996],[20.18275,2.37043],[20.18180,2.37113],[20.17847,2.37471],[20.17520,2.37988],[20.16459,2.38924],[20.16319,2.39077],[20.16222,2.39254],[20.15567,2.40974],[20.15437,2.41169],[20.14783,2.41657],[20.13905,2.42252],[20.13768,2.42386],[20.13670,2.42565],[20.13589,2.42892],[20.12923,2.43621],[20.12790,2.43855],[20.12744,2.44085],[20.12793,2.44308],[20.12698,2.44674],[20.12577,2.44912],[20.12515,2.45371],[20.08243,2.49919],[20.07073,2.51238],[20.06468,2.51774],[20.05885,2.52227],[20.04393,2.53238],[20.04267,2.53353],[20.04170,2.53489],[20.04106,2.53679],[20.03776,2.55503],[20.03580,2.56942],[20.03580,2.57149],[20.03641,2.57464],[20.04034,2.58480],[20.03548,2.59474],[20.03367,2.60176],[20.01442,2.63704],[19.99787,2.64188],[19.99594,2.64295],[19.99475,2.64441],[19.99401,2.64653],[19.98990,2.67149],[19.97722,2.69404],[19.97632,2.69650],[19.97624,2.69849],[19.97650,2.70005],[19.98753,2.74727],[19.99219,2.76203],[19.98346,2.77949],[19.98121,2.78500],[19.97628,2.79511],[19.96605,2.81465],[19.96069,2.82292],[19.95496,2.83257],[19.94941,2.84056],[19.92579,2.87645],[19.91693,2.89089],[19.89789,2.93021],[19.89751,2.93234],[19.89332,3.01093],[19.87856,3.06817],[19.87563,3.06876],[19.86987,3.07163],[19.86814,3.07322],[19.86561,3.07638],[19.86318,3.07787],[19.86060,3.08030],[19.85802,3.08127],[19.85471,3.08186],[19.85318,3.08265],[19.84999,3.08287],[19.84673,3.08450],[19.84499,3.08615],[19.84386,3.08768],[19.84255,3.09172],[19.83959,3.09298],[19.83618,3.09584],[19.83475,3.09751],[19.83305,3.10057],[19.82799,3.10620],[19.82562,3.10690],[19.82373,3.10788],[19.82265,3.10881],[19.82143,3.11044],[19.81963,3.11356],[19.81917,3.11528],[19.81973,3.12402],[19.81798,3.12977],[19.81551,3.13400],[19.81441,3.13669],[19.81418,3.13870],[19.81456,3.14664],[19.80970,3.16223],[19.80601,3.19257],[19.78722,3.20864],[19.77333,3.21940],[19.77223,3.22055],[19.77148,3.22238],[19.77120,3.22480],[19.77132,3.22643],[19.77406,3.23296],[19.77500,3.23436],[19.77495,3.23587],[19.77545,3.23798],[19.76954,3.23627],[19.76663,3.23574],[19.76405,3.23587],[19.76025,3.23670],[19.75804,3.23751],[19.75611,3.23686],[19.75483,3.23439],[19.75241,3.23240],[19.75085,3.23184],[19.74504,3.23096],[19.74289,3.23132],[19.73935,3.23275],[19.73746,3.23421],[19.73596,3.23654],[19.73547,3.23683],[19.72980,3.23797],[19.72365,3.23801],[19.71971,3.23736],[19.71510,3.23583],[19.71200,3.23543],[19.71057,3.23149],[19.70912,3.22933],[19.70656,3.22724],[19.70322,3.22561],[19.70010,3.22483],[19.69451,3.22512],[19.69211,3.22446],[19.69006,3.22444],[19.68495,3.22633],[19.68266,3.22778],[19.68109,3.22930],[19.68010,3.23097],[19.67622,3.24165],[19.67211,3.23967],[19.66955,3.23884],[19.66760,3.23858],[19.66502,3.23870],[19.66029,3.24022],[19.65866,3.24150],[19.65728,3.24340],[19.65625,3.24659],[19.65472,3.24989],[19.65067,3.25377],[19.64775,3.25702],[19.64623,3.25813],[19.63434,3.26440],[19.62489,3.26869],[19.62028,3.26938],[19.61332,3.27152],[19.60854,3.27025],[19.60534,3.26867],[19.60099,3.26799],[19.59572,3.26627],[19.59315,3.26619],[19.58902,3.26752],[19.58248,3.27198],[19.57588,3.27257],[19.57325,3.27323],[19.57143,3.27424],[19.56889,3.27618],[19.56418,3.27886],[19.56297,3.27914],[19.55407,3.27718],[19.55143,3.27696],[19.54754,3.27716],[19.54267,3.27789],[19.53995,3.27863],[19.53567,3.27814],[19.53296,3.27816],[19.53136,3.27865],[19.52960,3.27990],[19.52554,3.28463],[19.52364,3.28509],[19.51609,3.28592],[19.50643,3.28963],[19.49443,3.29061],[19.49182,3.29125],[19.48931,3.29272],[19.48477,3.29344],[19.48038,3.29495],[19.47207,3.29622],[19.46428,3.29602],[19.46121,3.29633],[19.45299,3.29859],[19.44750,3.30089],[19.44414,3.30339],[19.44132,3.30479],[19.43479,3.30996],[19.43008,3.31118],[19.42645,3.31036],[19.42327,3.31051],[19.42046,3.31165],[19.41622,3.31400],[19.41295,3.31522],[19.41070,3.31672],[19.40813,3.31764],[19.39799,3.31630],[19.39573,3.31578],[19.39359,3.31491],[19.39066,3.31452],[19.38722,3.31480],[19.38469,3.31569],[19.38268,3.31694],[19.37729,3.32163],[19.37323,3.32423],[19.37214,3.32550],[19.37151,3.32700],[19.37149,3.32943],[19.37316,3.33407],[19.37566,3.34468],[19.37241,3.35521],[19.37207,3.35765],[19.37304,3.37068],[19.37532,3.37723],[19.37801,3.38189],[19.38123,3.38874],[19.38244,3.39493],[19.38083,3.40937],[19.37925,3.41506],[19.37900,3.41842],[19.38224,3.42983],[19.38773,3.44525],[19.38947,3.45700],[19.38969,3.46383],[19.38728,3.47266],[19.38516,3.48225],[19.38226,3.48998],[19.38016,3.49412],[19.37877,3.49910],[19.37481,3.50464],[19.36176,3.51881],[19.35162,3.52720],[19.32844,3.54726],[19.32750,3.54827],[19.32361,3.55408],[19.32151,3.55539],[19.31566,3.55639],[19.31305,3.55586],[19.31038,3.55581],[19.28765,3.55782],[19.27894,3.55956],[19.26971,3.56201],[19.26450,3.56261],[19.26305,3.56329],[19.26218,3.56403],[19.26046,3.56688],[19.25470,3.57086],[19.24485,3.57691],[19.24272,3.57788],[19.21667,3.58531],[19.19435,3.59320],[19.18394,3.59723],[19.17614,3.60144],[19.16714,3.60471],[19.16043,3.60893],[19.15663,3.60736],[19.15489,3.60699],[19.15299,3.60722],[19.15098,3.60830],[19.14848,3.61120],[19.13884,3.62658],[19.13756,3.62799],[19.13427,3.63084],[19.12741,3.63408],[19.12445,3.63594],[19.12141,3.63872],[19.11493,3.64813],[19.10971,3.65644],[19.10219,3.66475],[19.09471,3.67599],[19.09068,3.68529],[19.08997,3.68771],[19.08569,3.71566],[19.08411,3.72295],[19.08194,3.72974],[19.07885,3.73452],[19.07665,3.74041],[19.06829,3.74469],[19.06553,3.74510],[19.06178,3.74633],[19.05898,3.74749],[19.05627,3.74908],[19.05231,3.75172],[19.04864,3.75467],[19.04376,3.75992],[19.04201,3.76250],[19.03116,3.76137],[19.01048,3.76235],[19.00392,3.76384],[18.99468,3.76848],[18.98352,3.77145],[18.97416,3.77083],[18.96357,3.76650],[18.96078,3.76612],[18.95767,3.76615],[18.93559,3.76935],[18.92739,3.77184],[18.92143,3.77449],[18.91765,3.77467],[18.90182,3.77333],[18.88872,3.77183],[18.88001,3.76984],[18.87529,3.76913],[18.86009,3.76269],[18.85595,3.75940],[18.85392,3.75852],[18.84438,3.75764],[18.84009,3.75816],[18.83364,3.75505],[18.82776,3.75317],[18.81423,3.75043],[18.80559,3.74980],[18.78877,3.74268],[18.77644,3.72617],[18.77545,3.72405],[18.77501,3.72221],[18.77464,3.71808],[18.77460,3.71494],[18.77512,3.71023],[18.77497,3.70790],[18.77437,3.70606],[18.77354,3.70466],[18.77041,3.70177],[18.76006,3.69707],[18.75664,3.69468],[18.75459,3.69377],[18.75035,3.69323],[18.74656,3.69456],[18.74393,3.69434],[18.74040,3.69357],[18.73914,3.69176],[18.73782,3.69045],[18.73484,3.68911],[18.73046,3.68828],[18.72726,3.68886],[18.72442,3.68859],[18.72302,3.68886],[18.72015,3.69009],[18.71090,3.68555],[18.71030,3.68396],[18.70944,3.68270],[18.70812,3.68145],[18.70628,3.68032],[18.70188,3.67836],[18.69671,3.67741],[18.69537,3.67523],[18.69405,3.67398],[18.69273,3.67329],[18.69118,3.67300],[18.68826,3.67103],[18.68548,3.66998],[18.68279,3.66833],[18.68163,3.66632],[18.68048,3.66496],[18.67633,3.66098],[18.67073,3.65818],[18.66576,3.65626],[18.65919,3.65078],[18.65544,3.64883],[18.65167,3.64744],[18.64449,3.64656],[18.64039,3.64550],[18.63733,3.64436],[18.63375,3.64412],[18.63414,3.63932],[18.63376,3.63790],[18.63273,3.63647],[18.63124,3.63554],[18.62951,3.63526],[18.62780,3.63566],[18.62618,3.63691],[18.62523,3.63905],[18.62444,3.64857],[18.62509,3.65084],[18.62679,3.65247],[18.62848,3.65299],[18.63532,3.65323],[18.63780,3.65416],[18.64273,3.65543],[18.64969,3.65627],[18.65155,3.65699],[18.65491,3.65877],[18.66133,3.66416],[18.66719,3.66650],[18.67117,3.66844],[18.67429,3.67160],[18.67541,3.67353],[18.67705,3.67536],[18.68104,3.67786],[18.68390,3.67900],[18.68735,3.68123],[18.68881,3.68175],[18.69008,3.68375],[18.69178,3.68530],[18.69385,3.68624],[18.69692,3.68647],[18.69930,3.68704],[18.70219,3.68837],[18.70357,3.69102],[18.70554,3.69293],[18.71734,3.69877],[18.72003,3.69924],[18.72271,3.69876],[18.72533,3.69772],[18.72762,3.69793],[18.73015,3.69742],[18.73247,3.69790],[18.73429,3.70044],[18.73728,3.70217],[18.74222,3.70328],[18.74638,3.70362],[18.74863,3.70340],[18.75138,3.70233],[18.75200,3.70245],[18.75571,3.70502],[18.76060,3.70738],[18.76234,3.70786],[18.76612,3.70987],[18.76556,3.71593],[18.75275,3.73411],[18.71411,3.75085],[18.71211,3.75249],[18.70560,3.76132],[18.70110,3.76961],[18.69988,3.77292],[18.70016,3.78830],[18.70069,3.79762],[18.70045,3.80422],[18.69990,3.80744],[18.69255,3.81847],[18.68170,3.83380],[18.67725,3.84100],[18.67288,3.84733],[18.67171,3.85060],[18.67227,3.85458],[18.67138,3.86335],[18.67204,3.86624],[18.67859,3.88018],[18.68087,3.88909],[18.68179,3.89049],[18.68675,3.89588],[18.68795,3.89864],[18.69121,3.90943],[18.69105,3.91211],[18.68932,3.91807],[18.68933,3.92053],[18.68983,3.92203],[18.69298,3.92750],[18.69383,3.93333],[18.69511,3.93816],[18.69590,3.93949],[18.70024,3.94488],[18.70099,3.94702],[18.70087,3.94867],[18.70117,3.95069],[18.70247,3.95304],[18.70482,3.95544],[18.71253,3.96059],[18.71335,3.96166],[18.71440,3.96442],[18.71444,3.96982],[18.71508,3.97611],[18.71678,3.98017],[18.71930,3.98330],[18.72074,3.98610],[18.72107,3.98765],[18.72096,3.98990],[18.72147,3.99166],[18.72253,3.99319],[18.72363,3.99402],[18.72527,3.99465],[18.72959,3.99557],[18.73008,3.99609],[18.73054,3.99888],[18.73238,4.00398],[18.73352,4.00599],[18.73539,4.00823],[18.73677,4.01040],[18.73907,4.01619],[18.74426,4.02701],[18.74447,4.03257],[18.74510,4.03603],[18.74169,4.04287],[18.74120,4.04563],[18.74117,4.04904],[18.74299,4.05530],[18.74485,4.05898],[18.74594,4.06004],[18.75117,4.06361],[18.75361,4.06588],[18.75286,4.06721],[18.75241,4.06923],[18.75251,4.07197],[18.75344,4.07419],[18.75142,4.08526],[18.75170,4.08738],[18.75306,4.09163],[18.75496,4.09563],[18.76093,4.10226],[18.76483,4.10826],[18.76614,4.10972],[18.76800,4.11118],[18.77215,4.11348],[18.77682,4.11958],[18.78207,4.12822],[18.78531,4.13192],[18.78837,4.13420],[18.79003,4.13694],[18.78806,4.14005],[18.78715,4.14352],[18.78627,4.14549],[18.78271,4.14422],[18.78127,4.14415],[18.77969,4.14445],[18.77763,4.14558],[18.77095,4.15094],[18.76974,4.15289],[18.76846,4.15650],[18.76852,4.15855],[18.76939,4.16105],[18.76610,4.16268],[18.76491,4.16378],[18.76322,4.16614],[18.75990,4.16778],[18.75610,4.17070],[18.74373,4.18316],[18.74238,4.18513],[18.73882,4.19399],[18.73792,4.19831],[18.73094,4.19752],[18.72492,4.19596],[18.72332,4.19600],[18.72186,4.19644],[18.71557,4.19987],[18.71156,4.20133],[18.70904,4.20274],[18.70667,4.20494],[18.70488,4.20739],[18.70263,4.20839],[18.70062,4.20826],[18.69636,4.20901],[18.69418,4.21023],[18.69273,4.21202],[18.69058,4.21218],[18.68566,4.21340],[18.67710,4.21666],[18.67367,4.21901],[18.67195,4.22066],[18.66873,4.22220],[18.66745,4.22311],[18.66372,4.22784],[18.66297,4.22841],[18.65941,4.23029],[18.65185,4.23158],[18.64956,4.23230],[18.64174,4.23628],[18.63889,4.23843],[18.63797,4.23976],[18.63736,4.24173],[18.63321,4.24796],[18.62818,4.25477],[18.62733,4.25681],[18.62669,4.25976],[18.62710,4.26491],[18.62443,4.26978],[18.62114,4.27299],[18.61982,4.27501],[18.61928,4.27702],[18.61855,4.28267],[18.61491,4.29022],[18.61397,4.29355],[18.61410,4.29620],[18.61542,4.29901],[18.61378,4.30050],[18.61229,4.30237],[18.61170,4.30381],[18.61109,4.30706],[18.60918,4.30931],[18.60771,4.31198],[18.60588,4.31433],[18.60310,4.31701],[18.59778,4.32394],[18.59293,4.33360],[18.59217,4.33656]]]}}]}