{"type":"FeatureCollection","features":[{"type":"Feature","properties":{"sous_theme":"Marché","nom":"Marché de Zongo","localite_proche":"Zongo","phase":2},"geometry":{"type":"Point","coordinates":[18.59601,4.34112]}},{"type":"Feature","properties":{"sous_theme":"Marché","nom":"","localite_proche":"Zongo","phase":2},"geometry":{"type":"Point","coordinates":[18.59480,4.34982]}},{"type":"Feature","properties":{"sous_theme":"Marché","nom":"Petit Marché de Lisala","localite_proche":"Lisala","phase":4},"geometry":{"type":"Point","coordinates":[21.50793,2.15366]}},{"type":"Feature","properties":{"sous_theme":"Marché","nom":"","localite_proche":"Libenge","phase":3},"geometry":{"type":"Point","coordinates":[18.62887,3.64349]}},{"type":"Feature","properties":{"sous_theme":"Marché","nom":"","localite_proche":"Boyabo","phase":2},"geometry":{"type":"Point","coordinates":[18.76956,3.71761]}},{"type":"Feature","properties":{"sous_theme":"Marché","nom":"Grand Marché de Lisala","localite_proche":"Lisala","phase":4},"geometry":{"type":"Point","coordinates":[21.52038,2.14734]}},{"type":"Feature","properties":{"sous_theme":"Marché","nom":"","localite_proche":"Makomu","phase":4},"geometry":{"type":"Point","coordinates":[21.15923,2.21390]}},{"type":"Feature","properties":{"sous_theme":"Marché","nom":"","localite_proche":"Likengo","phase":4},"geometry":{"type":"Point","coordinates":[21.27425,2.18243]}},{"type":"Feature","properties":{"sous_theme":"Marché","nom":"","localite_proche":"Mbokutu","phase":4},"geometry":{"type":"Point","coordinates":[20.72332,2.19674]}},{"type":"Feature","properties":{"sous_theme":"Stockage / silo","nom":"","localite_proche":"Zongo","phase":2},"geometry":{"type":"Point","coordinates":[18.60468,4.32474]}},{"type":"Feature","properties":{"sous_theme":"Stockage / silo","nom":"","localite_proche":"Zongo","phase":2},"geometry":{"type":"Point","coordinates":[18.60278,4.32536]}}]}