{"type":"FeatureCollection","features":[{"type":"Feature","properties":{"rang_500m":86,"nom":"CS Bokonzi","niveau":"Centre de santé","localite_proche":"Mbokutu","score_service":57.3,"pop_desservie_2030":4275,"charge_hab_structure":2137,"dist_structure_km":3.93,"rayon_desserte_m":5000,"phase":4},"geometry":{"type":"Point","coordinates":[20.76608,2.19207]}},{"type":"Feature","properties":{"rang_500m":184,"nom":"SSC Kaipande","niveau":"Site de soins communautaires","localite_proche":"Mbokutu","score_service":26.8,"pop_desservie_2030":517,"charge_hab_structure":517,"dist_structure_km":3.93,"rayon_desserte_m":2000,"phase":4},"geometry":{"type":"Point","coordinates":[20.80078,2.19868]}},{"type":"Feature","properties":{"rang_500m":115,"nom":"CS Bobila","niveau":"Centre de santé","localite_proche":"Bobila","score_service":48.4,"pop_desservie_2030":4458,"charge_hab_structure":1115,"dist_structure_km":2.83,"rayon_desserte_m":5000,"phase":4},"geometry":{"type":"Point","coordinates":[21.08858,2.22228]}},{"type":"Feature","properties":{"rang_500m":157,"nom":"PS Lingobo","niveau":"Poste de santé","localite_proche":"Lingobo","score_service":35.6,"pop_desservie_2030":815,"charge_hab_structure":815,"dist_structure_km":5.62,"rayon_desserte_m":3000,"phase":4},"geometry":{"type":"Point","coordinates":[20.95084,2.22359]}},{"type":"Feature","properties":{"rang_500m":165,"nom":"PS Epesa","niveau":"Poste de santé","localite_proche":"Epesa","score_service":31.9,"pop_desservie_2030":686,"charge_hab_structure":686,"dist_structure_km":4.88,"rayon_desserte_m":3000,"phase":4},"geometry":{"type":"Point","coordinates":[21.01838,2.22706]}},{"type":"Feature","properties":{"rang_500m":101,"nom":"CS Sambo","niveau":"Centre de santé","localite_proche":"Sambo","score_service":53.0,"pop_desservie_2030":1894,"charge_hab_structure":1894,"dist_structure_km":5.62,"rayon_desserte_m":5000,"phase":4},"geometry":{"type":"Point","coordinates":[20.90026,2.22344]}},{"type":"Feature","properties":{"rang_500m":13,"nom":"CS Bokutu","niveau":"Centre de santé","localite_proche":"Mbokutu","score_service":74.6,"pop_desservie_2030":12117,"charge_hab_structure":3029,"dist_structure_km":3.76,"rayon_desserte_m":5000,"phase":4},"geometry":{"type":"Point","coordinates":[20.70180,2.19133]}},{"type":"Feature","properties":{"rang_500m":135,"nom":"PS Cite Salongo","niveau":"Poste de santé","localite_proche":"Cite Salongo","score_service":41.8,"pop_desservie_2030":2736,"charge_hab_structure":1368,"dist_structure_km":1.06,"rayon_desserte_m":3000,"phase":4},"geometry":{"type":"Point","coordinates":[21.12320,2.21877]}},{"type":"Feature","properties":{"rang_500m":114,"nom":"PS Mbelo","niveau":"Poste de santé","localite_proche":"Mbelo 1","score_service":49.1,"pop_desservie_2030":2822,"charge_hab_structure":1411,"dist_structure_km":2.96,"rayon_desserte_m":3000,"phase":4},"geometry":{"type":"Point","coordinates":[21.06229,2.22631]}},{"type":"Feature","properties":{"rang_500m":161,"nom":"PS Mgr Nganga","niveau":"Poste de santé","localite_proche":"Mabela Lisala","score_service":34.1,"pop_desservie_2030":2145,"charge_hab_structure":1073,"dist_structure_km":1.09,"rayon_desserte_m":3000,"phase":4},"geometry":{"type":"Point","coordinates":[21.22589,2.19252]}},{"type":"Feature","properties":{"rang_500m":132,"nom":"CS Bongonde","niveau":"Centre de santé","localite_proche":"Bokemo 2","score_service":42.0,"pop_desservie_2030":2088,"charge_hab_structure":1044,"dist_structure_km":4.96,"rayon_desserte_m":5000,"phase":4},"geometry":{"type":"Point","coordinates":[20.84481,2.20573]}},{"type":"Feature","properties":{"rang_500m":181,"nom":"SSC Makungu","niveau":"Site de soins communautaires","localite_proche":"Makungu","score_service":28.2,"pop_desservie_2030":1593,"charge_hab_structure":796,"dist_structure_km":1.06,"rayon_desserte_m":2000,"phase":4},"geometry":{"type":"Point","coordinates":[21.11367,2.21809]}},{"type":"Feature","properties":{"rang_500m":94,"nom":"CS Makomu","niveau":"Centre de santé","localite_proche":"Makomu","score_service":55.3,"pop_desservie_2030":2938,"charge_hab_structure":1469,"dist_structure_km":4.55,"rayon_desserte_m":5000,"phase":4},"geometry":{"type":"Point","coordinates":[21.16357,2.21210]}},{"type":"Feature","properties":{"rang_500m":48,"nom":"CS Bosamboda","niveau":"Centre de santé","localite_proche":"Bosamboda","score_service":68.1,"pop_desservie_2030":12256,"charge_hab_structure":1751,"dist_structure_km":3.65,"rayon_desserte_m":5000,"phase":4},"geometry":{"type":"Point","coordinates":[21.29431,2.17332]}},{"type":"Feature","properties":{"rang_500m":209,"nom":"SSC Bosangu","niveau":"Site de soins communautaires","localite_proche":"Gundji","score_service":16.6,"pop_desservie_2030":1327,"charge_hab_structure":442,"dist_structure_km":0.72,"rayon_desserte_m":2000,"phase":4},"geometry":{"type":"Point","coordinates":[21.35081,2.17073]}},{"type":"Feature","properties":{"rang_500m":173,"nom":"PS Gbaka","niveau":"Poste de santé","localite_proche":"Ngwaka","score_service":30.3,"pop_desservie_2030":2116,"charge_hab_structure":529,"dist_structure_km":1.86,"rayon_desserte_m":3000,"phase":4},"geometry":{"type":"Point","coordinates":[21.33878,2.18244]}},{"type":"Feature","properties":{"rang_500m":208,"nom":"SSC Bongbaka","niveau":"Site de soins communautaires","localite_proche":"Gundji","score_service":17.9,"pop_desservie_2030":1151,"charge_hab_structure":575,"dist_structure_km":0.72,"rayon_desserte_m":2000,"phase":4},"geometry":{"type":"Point","coordinates":[21.35684,2.16835]}},{"type":"Feature","properties":{"rang_500m":44,"nom":"CS Mondingili","niveau":"Centre de santé","localite_proche":"Lisala","score_service":69.3,"pop_desservie_2030":9664,"charge_hab_structure":2416,"dist_structure_km":3.02,"rayon_desserte_m":5000,"phase":4},"geometry":{"type":"Point","coordinates":[21.38401,2.16847]}},{"type":"Feature","properties":{"rang_500m":80,"nom":"CS Diobo Ville","niveau":"Centre de santé","localite_proche":"Diobo","score_service":59.8,"pop_desservie_2030":4625,"charge_hab_structure":2312,"dist_structure_km":3.11,"rayon_desserte_m":5000,"phase":4},"geometry":{"type":"Point","coordinates":[20.47865,2.26050]}},{"type":"Feature","properties":{"rang_500m":111,"nom":"PS Diobo","niveau":"Poste de santé","localite_proche":"Diobo","score_service":50.6,"pop_desservie_2030":1570,"charge_hab_structure":1570,"dist_structure_km":4.73,"rayon_desserte_m":3000,"phase":4},"geometry":{"type":"Point","coordinates":[20.52597,2.22093]}},{"type":"Feature","properties":{"rang_500m":152,"nom":"PS Nzongo Boso Gope","niveau":"Poste de santé","localite_proche":"Diobo","score_service":37.0,"pop_desservie_2030":914,"charge_hab_structure":914,"dist_structure_km":5.18,"rayon_desserte_m":3000,"phase":4},"geometry":{"type":"Point","coordinates":[20.55598,2.16659]}},{"type":"Feature","properties":{"rang_500m":105,"nom":"PS Nzongo May","niveau":"Poste de santé","localite_proche":"Mbokutu","score_service":52.2,"pop_desservie_2030":5011,"charge_hab_structure":1670,"dist_structure_km":2.21,"rayon_desserte_m":3000,"phase":4},"geometry":{"type":"Point","coordinates":[20.66224,2.17974]}},{"type":"Feature","properties":{"rang_500m":66,"nom":"CS Boso Ngumoni","niveau":"Centre de santé","localite_proche":"Mbokutu","score_service":62.5,"pop_desservie_2030":8922,"charge_hab_structure":1784,"dist_structure_km":2.54,"rayon_desserte_m":5000,"phase":4},"geometry":{"type":"Point","coordinates":[20.63668,2.17279]}},{"type":"Feature","properties":{"rang_500m":140,"nom":"DISP Bismilay","niveau":"Dispensaire","localite_proche":"Diobo","score_service":39.9,"pop_desservie_2030":5524,"charge_hab_structure":1841,"dist_structure_km":0.24,"rayon_desserte_m":5000,"phase":4},"geometry":{"type":"Point","coordinates":[20.40307,2.26783]}},{"type":"Feature","properties":{"rang_500m":99,"nom":"CS Boso Kolo","niveau":"Centre de santé","localite_proche":"Mbokutu","score_service":53.5,"pop_desservie_2030":5361,"charge_hab_structure":1340,"dist_structure_km":3.22,"rayon_desserte_m":5000,"phase":4},"geometry":{"type":"Point","coordinates":[20.61026,2.16079]}},{"type":"Feature","properties":{"rang_500m":185,"nom":"PS Mobima","niveau":"Poste de santé","localite_proche":"Mobima","score_service":26.6,"pop_desservie_2030":1744,"charge_hab_structure":581,"dist_structure_km":1.62,"rayon_desserte_m":3000,"phase":4},"geometry":{"type":"Point","coordinates":[20.34178,2.25914]}},{"type":"Feature","properties":{"rang_500m":83,"nom":"PS Boso Ngindola","niveau":"Poste de santé","localite_proche":"Akula","score_service":58.6,"pop_desservie_2030":4786,"charge_hab_structure":2393,"dist_structure_km":2.39,"rayon_desserte_m":3000,"phase":4},"geometry":{"type":"Point","coordinates":[20.26468,2.27854]}},{"type":"Feature","properties":{"rang_500m":90,"nom":"CS Mondunga","niveau":"Centre de santé","localite_proche":"Boso Nongoni 2","score_service":56.3,"pop_desservie_2030":6551,"charge_hab_structure":1638,"dist_structure_km":2.39,"rayon_desserte_m":5000,"phase":4},"geometry":{"type":"Point","coordinates":[20.28593,2.27512]}},{"type":"Feature","properties":{"rang_500m":144,"nom":"CS Mombangi","niveau":"Centre de santé","localite_proche":"Diobo","score_service":39.1,"pop_desservie_2030":5442,"charge_hab_structure":1814,"dist_structure_km":0.24,"rayon_desserte_m":5000,"phase":4},"geometry":{"type":"Point","coordinates":[20.40305,2.27003]}},{"type":"Feature","properties":{"rang_500m":196,"nom":"PS Molala","niveau":"Poste de santé","localite_proche":"Molala 1","score_service":23.6,"pop_desservie_2030":1961,"charge_hab_structure":654,"dist_structure_km":0.75,"rayon_desserte_m":3000,"phase":4},"geometry":{"type":"Point","coordinates":[20.32793,2.26365]}},{"type":"Feature","properties":{"rang_500m":183,"nom":"SSC Ngomba","niveau":"Site de soins communautaires","localite_proche":"Ngomba","score_service":27.3,"pop_desservie_2030":1568,"charge_hab_structure":784,"dist_structure_km":1.09,"rayon_desserte_m":2000,"phase":4},"geometry":{"type":"Point","coordinates":[21.23567,2.19225]}},{"type":"Feature","properties":{"rang_500m":160,"nom":"CS Akula","niveau":"Centre de santé","localite_proche":"Akula","score_service":35.1,"pop_desservie_2030":4899,"charge_hab_structure":980,"dist_structure_km":0.63,"rayon_desserte_m":5000,"phase":4},"geometry":{"type":"Point","coordinates":[20.18865,2.37198]}},{"type":"Feature","properties":{"rang_500m":133,"nom":"PS Mbata","niveau":"Poste de santé","localite_proche":"Akula","score_service":42.0,"pop_desservie_2030":1322,"charge_hab_structure":1322,"dist_structure_km":3.55,"rayon_desserte_m":3000,"phase":4},"geometry":{"type":"Point","coordinates":[20.20141,2.34259]}},{"type":"Feature","properties":{"rang_500m":8,"nom":"CS Boso Mokalu","niveau":"Centre de santé","localite_proche":"Akula","score_service":75.9,"pop_desservie_2030":8581,"charge_hab_structure":4290,"dist_structure_km":4.31,"rayon_desserte_m":5000,"phase":4},"geometry":{"type":"Point","coordinates":[20.22692,2.28727]}},{"type":"Feature","properties":{"rang_500m":34,"nom":"PS Telema","niveau":"Poste de santé","localite_proche":"Lisala","score_service":71.1,"pop_desservie_2030":222498,"charge_hab_structure":6013,"dist_structure_km":0.22,"rayon_desserte_m":3000,"phase":4},"geometry":{"type":"Point","coordinates":[21.51503,2.15278]}},{"type":"Feature","properties":{"rang_500m":24,"nom":"CSR Bokula","niveau":"Centre de santé de référence","localite_proche":"Lisala","score_service":72.2,"pop_desservie_2030":256581,"charge_hab_structure":5578,"dist_structure_km":0.31,"rayon_desserte_m":10000,"phase":4},"geometry":{"type":"Point","coordinates":[21.51277,2.15055]}},{"type":"Feature","properties":{"rang_500m":45,"nom":"PS Tosalisana","niveau":"Poste de santé","localite_proche":"Lisala","score_service":69.1,"pop_desservie_2030":210660,"charge_hab_structure":5544,"dist_structure_km":0.23,"rayon_desserte_m":3000,"phase":4},"geometry":{"type":"Point","coordinates":[21.51021,2.14949]}},{"type":"Feature","properties":{"rang_500m":17,"nom":"HGR Lisala","niveau":"Hôpital général de référence","localite_proche":"Lisala","score_service":73.7,"pop_desservie_2030":253993,"charge_hab_structure":5522,"dist_structure_km":0.37,"rayon_desserte_m":10000,"phase":4},"geometry":{"type":"Point","coordinates":[21.52010,2.14975]}},{"type":"Feature","properties":{"rang_500m":46,"nom":"PS Libota Bomoi","niveau":"Poste de santé","localite_proche":"Lisala","score_service":68.8,"pop_desservie_2030":209959,"charge_hab_structure":5525,"dist_structure_km":0.23,"rayon_desserte_m":3000,"phase":4},"geometry":{"type":"Point","coordinates":[21.50826,2.15019]}},{"type":"Feature","properties":{"rang_500m":20,"nom":"PS Lisanga","niveau":"Poste de santé","localite_proche":"Lisala","score_service":72.8,"pop_desservie_2030":192526,"charge_hab_structure":5663,"dist_structure_km":0.34,"rayon_desserte_m":3000,"phase":4},"geometry":{"type":"Point","coordinates":[21.50379,2.14703]}},{"type":"Feature","properties":{"rang_500m":2,"nom":"CS Pecheur","niveau":"Centre de santé","localite_proche":"Lisala","score_service":81.9,"pop_desservie_2030":238495,"charge_hab_structure":5678,"dist_structure_km":0.79,"rayon_desserte_m":5000,"phase":4},"geometry":{"type":"Point","coordinates":[21.52076,2.14259]}},{"type":"Feature","properties":{"rang_500m":136,"nom":"PS Boso Godo","niveau":"Poste de santé","localite_proche":"Lisala","score_service":40.9,"pop_desservie_2030":1165,"charge_hab_structure":1165,"dist_structure_km":4.08,"rayon_desserte_m":3000,"phase":4},"geometry":{"type":"Point","coordinates":[21.44233,2.15662]}},{"type":"Feature","properties":{"rang_500m":41,"nom":"CH La Victoire","niveau":"Centre hospitalier","localite_proche":"Upoto","score_service":70.0,"pop_desservie_2030":262702,"charge_hab_structure":5589,"dist_structure_km":0.2,"rayon_desserte_m":10000,"phase":4},"geometry":{"type":"Point","coordinates":[21.49361,2.14373]}},{"type":"Feature","properties":{"rang_500m":55,"nom":"SSC Mbonzo","niveau":"Site de soins communautaires","localite_proche":"Upoto","score_service":66.7,"pop_desservie_2030":30837,"charge_hab_structure":3855,"dist_structure_km":0.57,"rayon_desserte_m":2000,"phase":4},"geometry":{"type":"Point","coordinates":[21.49037,2.13907]}},{"type":"Feature","properties":{"rang_500m":71,"nom":"SSC Moweya","niveau":"Site de soins communautaires","localite_proche":"Lisala","score_service":61.1,"pop_desservie_2030":10638,"charge_hab_structure":2128,"dist_structure_km":1.64,"rayon_desserte_m":2000,"phase":4},"geometry":{"type":"Point","coordinates":[21.47752,2.14628]}},{"type":"Feature","properties":{"rang_500m":53,"nom":"CS Upoto","niveau":"Centre de santé","localite_proche":"Upoto","score_service":67.4,"pop_desservie_2030":229106,"charge_hab_structure":5455,"dist_structure_km":0.2,"rayon_desserte_m":5000,"phase":4},"geometry":{"type":"Point","coordinates":[21.49452,2.14215]}},{"type":"Feature","properties":{"rang_500m":69,"nom":"SSC Bonguma","niveau":"Site de soins communautaires","localite_proche":"Bonguma","score_service":61.4,"pop_desservie_2030":6168,"charge_hab_structure":3084,"dist_structure_km":1.24,"rayon_desserte_m":2000,"phase":4},"geometry":{"type":"Point","coordinates":[21.26203,2.18764]}},{"type":"Feature","properties":{"rang_500m":206,"nom":"SSC Molala 2","niveau":"Site de soins communautaires","localite_proche":"Molala 2","score_service":18.8,"pop_desservie_2030":1096,"charge_hab_structure":548,"dist_structure_km":0.75,"rayon_desserte_m":2000,"phase":4},"geometry":{"type":"Point","coordinates":[20.32358,2.26883]}},{"type":"Feature","properties":{"rang_500m":30,"nom":"CS Ville","niveau":"Centre de santé","localite_proche":"Gemena","score_service":71.7,"pop_desservie_2030":436137,"charge_hab_structure":5013,"dist_structure_km":0.35,"rayon_desserte_m":5000,"phase":1},"geometry":{"type":"Point","coordinates":[19.78376,3.23767]}},{"type":"Feature","properties":{"rang_500m":37,"nom":"CH Dpt Developpement Pour Tous","niveau":"Centre hospitalier","localite_proche":"Gemena","score_service":70.6,"pop_desservie_2030":463679,"charge_hab_structure":4416,"dist_structure_km":0.33,"rayon_desserte_m":10000,"phase":1},"geometry":{"type":"Point","coordinates":[19.78629,3.23503]}},{"type":"Feature","properties":{"rang_500m":35,"nom":"CH Alpha","niveau":"Centre hospitalier","localite_proche":"Gemena","score_service":71.0,"pop_desservie_2030":463915,"charge_hab_structure":4418,"dist_structure_km":0.33,"rayon_desserte_m":10000,"phase":1},"geometry":{"type":"Point","coordinates":[19.78341,3.23412]}},{"type":"Feature","properties":{"rang_500m":36,"nom":"CM Ange De Guerison","niveau":"Centre médical","localite_proche":"Bokuda","score_service":70.7,"pop_desservie_2030":389855,"charge_hab_structure":5415,"dist_structure_km":0.25,"rayon_desserte_m":5000,"phase":1},"geometry":{"type":"Point","coordinates":[19.77595,3.22440]}},{"type":"Feature","properties":{"rang_500m":1,"nom":"CS Ange Et Guerison","niveau":"Centre de santé","localite_proche":"Boyambi I","score_service":88.4,"pop_desservie_2030":161943,"charge_hab_structure":5584,"dist_structure_km":2.97,"rayon_desserte_m":5000,"phase":2},"geometry":{"type":"Point","coordinates":[19.72642,3.24212]}},{"type":"Feature","properties":{"rang_500m":153,"nom":"CM Ange De Guerison B","niveau":"Centre médical","localite_proche":"Gbatikombo","score_service":37.0,"pop_desservie_2030":6688,"charge_hab_structure":1115,"dist_structure_km":0.36,"rayon_desserte_m":5000,"phase":1},"geometry":{"type":"Point","coordinates":[19.89655,3.00239]}},{"type":"Feature","properties":{"rang_500m":123,"nom":"CS Ange De Guerison","niveau":"Centre de santé","localite_proche":"Boguaka","score_service":45.4,"pop_desservie_2030":8267,"charge_hab_structure":1378,"dist_structure_km":0.51,"rayon_desserte_m":5000,"phase":1},"geometry":{"type":"Point","coordinates":[19.91507,2.90131]}},{"type":"Feature","properties":{"rang_500m":156,"nom":"CM Espoir","niveau":"Centre médical","localite_proche":"Bozagba","score_service":35.9,"pop_desservie_2030":11491,"charge_hab_structure":676,"dist_structure_km":0.38,"rayon_desserte_m":5000,"phase":1},"geometry":{"type":"Point","coordinates":[19.87788,3.07009]}},{"type":"Feature","properties":{"rang_500m":138,"nom":"CM Espoir","niveau":"Centre médical","localite_proche":"Bomele","score_service":40.2,"pop_desservie_2030":10779,"charge_hab_structure":719,"dist_structure_km":0.57,"rayon_desserte_m":5000,"phase":1},"geometry":{"type":"Point","coordinates":[19.85486,3.08741]}},{"type":"Feature","properties":{"rang_500m":4,"nom":"PS Mbilinga","niveau":"Poste de santé","localite_proche":"Gemena","score_service":77.7,"pop_desservie_2030":302782,"charge_hab_structure":6308,"dist_structure_km":0.41,"rayon_desserte_m":3000,"phase":2},"geometry":{"type":"Point","coordinates":[19.76191,3.24545]}},{"type":"Feature","properties":{"rang_500m":10,"nom":"CS Libenge Moke","niveau":"Centre de santé","localite_proche":"Gemena","score_service":75.1,"pop_desservie_2030":433893,"charge_hab_structure":5105,"dist_structure_km":0.45,"rayon_desserte_m":5000,"phase":2},"geometry":{"type":"Point","coordinates":[19.76495,3.24253]}},{"type":"Feature","properties":{"rang_500m":39,"nom":"CSR Papa Kisolokele","niveau":"Centre de santé de référence","localite_proche":"Gemena","score_service":70.4,"pop_desservie_2030":464519,"charge_hab_structure":4382,"dist_structure_km":0.32,"rayon_desserte_m":10000,"phase":2},"geometry":{"type":"Point","coordinates":[19.76847,3.24453]}},{"type":"Feature","properties":{"rang_500m":91,"nom":"CS Dieu Seul Sait","niveau":"Centre de santé","localite_proche":"Boyambi II","score_service":56.2,"pop_desservie_2030":8912,"charge_hab_structure":1782,"dist_structure_km":0.94,"rayon_desserte_m":5000,"phase":2},"geometry":{"type":"Point","coordinates":[19.68502,3.23145]}},{"type":"Feature","properties":{"rang_500m":12,"nom":"CH Jmc","niveau":"Centre hospitalier","localite_proche":"Gemena","score_service":74.7,"pop_desservie_2030":463336,"charge_hab_structure":4455,"dist_structure_km":0.44,"rayon_desserte_m":10000,"phase":1},"geometry":{"type":"Point","coordinates":[19.77841,3.24715]}},{"type":"Feature","properties":{"rang_500m":32,"nom":"CM Libenge Moke","niveau":"Centre médical","localite_proche":"Gemena","score_service":71.6,"pop_desservie_2030":392490,"charge_hab_structure":5377,"dist_structure_km":0.32,"rayon_desserte_m":5000,"phase":2},"geometry":{"type":"Point","coordinates":[19.75298,3.23890]}},{"type":"Feature","properties":{"rang_500m":9,"nom":"CLIN Misericordia Congo","niveau":"Clinique","localite_proche":"Gemena","score_service":75.7,"pop_desservie_2030":438991,"charge_hab_structure":5046,"dist_structure_km":0.48,"rayon_desserte_m":5000,"phase":1},"geometry":{"type":"Point","coordinates":[19.78316,3.24419]}},{"type":"Feature","properties":{"rang_500m":43,"nom":"HGR Gemena","niveau":"Hôpital général de référence","localite_proche":"Gemena","score_service":69.4,"pop_desservie_2030":464567,"charge_hab_structure":4424,"dist_structure_km":0.24,"rayon_desserte_m":10000,"phase":2},"geometry":{"type":"Point","coordinates":[19.77158,3.24184]}},{"type":"Feature","properties":{"rang_500m":28,"nom":"CLIN Mondiale","niveau":"Clinique","localite_proche":"Gemena","score_service":71.8,"pop_desservie_2030":438626,"charge_hab_structure":5222,"dist_structure_km":0.26,"rayon_desserte_m":5000,"phase":2},"geometry":{"type":"Point","coordinates":[19.77365,3.24300]}},{"type":"Feature","properties":{"rang_500m":146,"nom":"PS Boketa Salongo","niveau":"Poste de santé","localite_proche":"Boketa Salongo","score_service":38.3,"pop_desservie_2030":2171,"charge_hab_structure":1086,"dist_structure_km":1.75,"rayon_desserte_m":3000,"phase":1},"geometry":{"type":"Point","coordinates":[19.81348,3.18953]}},{"type":"Feature","properties":{"rang_500m":54,"nom":"PS William Booth","niveau":"Poste de santé","localite_proche":"Bokuda","score_service":67.0,"pop_desservie_2030":102899,"charge_hab_structure":3811,"dist_structure_km":0.39,"rayon_desserte_m":3000,"phase":1},"geometry":{"type":"Point","coordinates":[19.77617,3.21911]}},{"type":"Feature","properties":{"rang_500m":19,"nom":"CM Maman Accacia En Action","niveau":"Centre médical","localite_proche":"Bokuda","score_service":73.0,"pop_desservie_2030":386903,"charge_hab_structure":5607,"dist_structure_km":0.25,"rayon_desserte_m":5000,"phase":1},"geometry":{"type":"Point","coordinates":[19.77755,3.22286]}},{"type":"Feature","properties":{"rang_500m":15,"nom":"CS Bokuda","niveau":"Centre de santé","localite_proche":"Bokuda","score_service":74.5,"pop_desservie_2030":364395,"charge_hab_structure":5439,"dist_structure_km":0.39,"rayon_desserte_m":5000,"phase":1},"geometry":{"type":"Point","coordinates":[19.77959,3.21984]}},{"type":"Feature","properties":{"rang_500m":57,"nom":"CM Beford","niveau":"Centre médical","localite_proche":"Gemena","score_service":65.0,"pop_desservie_2030":284760,"charge_hab_structure":4593,"dist_structure_km":0.2,"rayon_desserte_m":5000,"phase":1},"geometry":{"type":"Point","coordinates":[19.78907,3.21438]}},{"type":"Feature","properties":{"rang_500m":75,"nom":"PS Liboso","niveau":"Poste de santé","localite_proche":"Gemena","score_service":60.2,"pop_desservie_2030":61992,"charge_hab_structure":4133,"dist_structure_km":0.2,"rayon_desserte_m":3000,"phase":1},"geometry":{"type":"Point","coordinates":[19.78727,3.21443]}},{"type":"Feature","properties":{"rang_500m":158,"nom":"CM La Main De Dieu","niveau":"Centre médical","localite_proche":"Bozagba","score_service":35.6,"pop_desservie_2030":11458,"charge_hab_structure":674,"dist_structure_km":0.38,"rayon_desserte_m":5000,"phase":1},"geometry":{"type":"Point","coordinates":[19.87987,3.07291]}},{"type":"Feature","properties":{"rang_500m":141,"nom":"PS Ngolu","niveau":"Poste de santé","localite_proche":"Bozagba","score_service":39.9,"pop_desservie_2030":7870,"charge_hab_structure":874,"dist_structure_km":0.63,"rayon_desserte_m":3000,"phase":1},"geometry":{"type":"Point","coordinates":[19.88249,3.06572]}},{"type":"Feature","properties":{"rang_500m":155,"nom":"CS Bozagba 25","niveau":"Centre de santé","localite_proche":"Bozagba","score_service":36.7,"pop_desservie_2030":11915,"charge_hab_structure":701,"dist_structure_km":0.38,"rayon_desserte_m":5000,"phase":1},"geometry":{"type":"Point","coordinates":[19.88299,3.07136]}},{"type":"Feature","properties":{"rang_500m":147,"nom":"CM Eben Ezer","niveau":"Centre médical","localite_proche":"Bozagba","score_service":38.1,"pop_desservie_2030":11991,"charge_hab_structure":749,"dist_structure_km":0.38,"rayon_desserte_m":5000,"phase":1},"geometry":{"type":"Point","coordinates":[19.88579,3.07332]}},{"type":"Feature","properties":{"rang_500m":95,"nom":"CS Boyambi","niveau":"Centre de santé","localite_proche":"Boyambi II","score_service":54.2,"pop_desservie_2030":9049,"charge_hab_structure":1508,"dist_structure_km":0.94,"rayon_desserte_m":5000,"phase":2},"geometry":{"type":"Point","coordinates":[19.69336,3.22984]}},{"type":"Feature","properties":{"rang_500m":82,"nom":"PS Bodanu","niveau":"Poste de santé","localite_proche":"Bodanu","score_service":59.5,"pop_desservie_2030":4786,"charge_hab_structure":2393,"dist_structure_km":2.69,"rayon_desserte_m":3000,"phase":1},"geometry":{"type":"Point","coordinates":[19.83449,3.10652]}},{"type":"Feature","properties":{"rang_500m":126,"nom":"PS Bogoro Moke","niveau":"Poste de santé","localite_proche":"Bogoko II","score_service":43.7,"pop_desservie_2030":8172,"charge_hab_structure":817,"dist_structure_km":0.99,"rayon_desserte_m":3000,"phase":1},"geometry":{"type":"Point","coordinates":[19.87171,3.07649]}},{"type":"Feature","properties":{"rang_500m":106,"nom":"CM Station Boketa","niveau":"Centre médical","localite_proche":"Boketa Salongo","score_service":51.9,"pop_desservie_2030":6899,"charge_hab_structure":1150,"dist_structure_km":1.75,"rayon_desserte_m":5000,"phase":1},"geometry":{"type":"Point","coordinates":[19.81206,3.17376]}},{"type":"Feature","properties":{"rang_500m":102,"nom":"CM La Promesse 2","niveau":"Centre médical","localite_proche":"Boketa Ligidi","score_service":53.0,"pop_desservie_2030":11796,"charge_hab_structure":1685,"dist_structure_km":0.56,"rayon_desserte_m":5000,"phase":1},"geometry":{"type":"Point","coordinates":[19.81678,3.15322]}},{"type":"Feature","properties":{"rang_500m":150,"nom":"PS Boketa Ligili","niveau":"Poste de santé","localite_proche":"Boketa Ligidi","score_service":37.5,"pop_desservie_2030":3941,"charge_hab_structure":1314,"dist_structure_km":0.56,"rayon_desserte_m":3000,"phase":1},"geometry":{"type":"Point","coordinates":[19.81647,3.15829]}},{"type":"Feature","properties":{"rang_500m":130,"nom":"PS Bomele Mbari","niveau":"Poste de santé","localite_proche":"Bomele","score_service":42.5,"pop_desservie_2030":6918,"charge_hab_structure":1153,"dist_structure_km":0.57,"rayon_desserte_m":3000,"phase":1},"geometry":{"type":"Point","coordinates":[19.85973,3.08581]}},{"type":"Feature","properties":{"rang_500m":60,"nom":"CS Bodiawa","niveau":"Centre de santé","localite_proche":"Bodiawa Moke","score_service":64.5,"pop_desservie_2030":11986,"charge_hab_structure":1712,"dist_structure_km":2.69,"rayon_desserte_m":5000,"phase":1},"geometry":{"type":"Point","coordinates":[19.82280,3.12782]}},{"type":"Feature","properties":{"rang_500m":42,"nom":"CM La Croix","niveau":"Centre médical","localite_proche":"Gemena","score_service":69.7,"pop_desservie_2030":438286,"charge_hab_structure":5096,"dist_structure_km":0.24,"rayon_desserte_m":5000,"phase":2},"geometry":{"type":"Point","coordinates":[19.77134,3.24398]}},{"type":"Feature","properties":{"rang_500m":65,"nom":"PS Bogalengba 3 Tp","niveau":"Poste de santé","localite_proche":"Bogalegba III","score_service":62.9,"pop_desservie_2030":3302,"charge_hab_structure":3302,"dist_structure_km":3.92,"rayon_desserte_m":3000,"phase":1},"geometry":{"type":"Point","coordinates":[19.90010,2.96421]}},{"type":"Feature","properties":{"rang_500m":148,"nom":"CS Gbatikombo","niveau":"Centre de santé","localite_proche":"Gbatikombo","score_service":37.7,"pop_desservie_2030":6856,"charge_hab_structure":1143,"dist_structure_km":0.36,"rayon_desserte_m":5000,"phase":1},"geometry":{"type":"Point","coordinates":[19.89825,2.99959]}},{"type":"Feature","properties":{"rang_500m":128,"nom":"PS Bogoro Tp 3","niveau":"Poste de santé","localite_proche":"Bokadae","score_service":43.5,"pop_desservie_2030":2483,"charge_hab_structure":1241,"dist_structure_km":2.5,"rayon_desserte_m":3000,"phase":1},"geometry":{"type":"Point","coordinates":[19.89254,3.03559]}},{"type":"Feature","properties":{"rang_500m":134,"nom":"PS Boyademele","niveau":"Poste de santé","localite_proche":"Bogoro TP V","score_service":41.9,"pop_desservie_2030":8106,"charge_hab_structure":737,"dist_structure_km":1.01,"rayon_desserte_m":3000,"phase":1},"geometry":{"type":"Point","coordinates":[19.88557,3.05710]}},{"type":"Feature","properties":{"rang_500m":109,"nom":"CS Bogwaka","niveau":"Centre de santé","localite_proche":"Boguaka","score_service":51.3,"pop_desservie_2030":8249,"charge_hab_structure":2062,"dist_structure_km":0.51,"rayon_desserte_m":5000,"phase":1},"geometry":{"type":"Point","coordinates":[19.91545,2.90588]}},{"type":"Feature","properties":{"rang_500m":118,"nom":"PS Bogwaka 3","niveau":"Poste de santé","localite_proche":"Boguaka","score_service":47.1,"pop_desservie_2030":5817,"charge_hab_structure":1454,"dist_structure_km":0.92,"rayon_desserte_m":3000,"phase":1},"geometry":{"type":"Point","coordinates":[19.92199,2.89676]}},{"type":"Feature","properties":{"rang_500m":164,"nom":"PS Bozagba Soa 1","niveau":"Poste de santé","localite_proche":"Bozagba sua","score_service":32.5,"pop_desservie_2030":3062,"charge_hab_structure":765,"dist_structure_km":1.11,"rayon_desserte_m":3000,"phase":1},"geometry":{"type":"Point","coordinates":[19.93877,2.86352]}},{"type":"Feature","properties":{"rang_500m":170,"nom":"PS Bozagba Woa 2","niveau":"Poste de santé","localite_proche":"Bozagba sua","score_service":30.5,"pop_desservie_2030":2768,"charge_hab_structure":692,"dist_structure_km":1.28,"rayon_desserte_m":3000,"phase":1},"geometry":{"type":"Point","coordinates":[19.93152,2.87254]}},{"type":"Feature","properties":{"rang_500m":11,"nom":"CS Gemena 1","niveau":"Centre de santé","localite_proche":"Gemena","score_service":74.8,"pop_desservie_2030":427183,"charge_hab_structure":5274,"dist_structure_km":0.41,"rayon_desserte_m":5000,"phase":2},"geometry":{"type":"Point","coordinates":[19.75884,3.24336]}},{"type":"Feature","properties":{"rang_500m":25,"nom":"CM Ley","niveau":"Centre médical","localite_proche":"Gemena","score_service":71.9,"pop_desservie_2030":410231,"charge_hab_structure":5398,"dist_structure_km":0.32,"rayon_desserte_m":5000,"phase":2},"geometry":{"type":"Point","coordinates":[19.75462,3.24131]}},{"type":"Feature","properties":{"rang_500m":6,"nom":"CH Bau","niveau":"Centre hospitalier","localite_proche":"Bau","score_service":76.7,"pop_desservie_2030":20660,"charge_hab_structure":3443,"dist_structure_km":2.89,"rayon_desserte_m":10000,"phase":2},"geometry":{"type":"Point","coordinates":[19.06968,3.74959]}},{"type":"Feature","properties":{"rang_500m":89,"nom":"SSC Bodenge","niveau":"Site de soins communautaires","localite_proche":"Bokembe","score_service":56.5,"pop_desservie_2030":5874,"charge_hab_structure":2937,"dist_structure_km":0.59,"rayon_desserte_m":2000,"phase":2},"geometry":{"type":"Point","coordinates":[19.08676,3.72939]}},{"type":"Feature","properties":{"rang_500m":63,"nom":"CS Bau Bokembe","niveau":"Centre de santé","localite_proche":"Bokembe","score_service":63.4,"pop_desservie_2030":10599,"charge_hab_structure":3533,"dist_structure_km":0.59,"rayon_desserte_m":5000,"phase":2},"geometry":{"type":"Point","coordinates":[19.08890,3.72446]}},{"type":"Feature","properties":{"rang_500m":120,"nom":"PS Bodala","niveau":"Poste de santé","localite_proche":"Budu","score_service":46.2,"pop_desservie_2030":3502,"charge_hab_structure":1751,"dist_structure_km":0.78,"rayon_desserte_m":3000,"phase":2},"geometry":{"type":"Point","coordinates":[18.84451,3.76198]}},{"type":"Feature","properties":{"rang_500m":137,"nom":"SSC Bodala","niveau":"Site de soins communautaires","localite_proche":"Budu","score_service":40.6,"pop_desservie_2030":2835,"charge_hab_structure":1418,"dist_structure_km":0.78,"rayon_desserte_m":2000,"phase":2},"geometry":{"type":"Point","coordinates":[18.85140,3.76306]}},{"type":"Feature","properties":{"rang_500m":67,"nom":"CS Bozoko","niveau":"Centre de santé","localite_proche":"Boduli","score_service":61.7,"pop_desservie_2030":5785,"charge_hab_structure":1928,"dist_structure_km":3.09,"rayon_desserte_m":5000,"phase":2},"geometry":{"type":"Point","coordinates":[19.09923,3.67745]}},{"type":"Feature","properties":{"rang_500m":204,"nom":"SSC Bosuma","niveau":"Site de soins communautaires","localite_proche":"Bosuma","score_service":20.5,"pop_desservie_2030":224,"charge_hab_structure":224,"dist_structure_km":2.64,"rayon_desserte_m":2000,"phase":2},"geometry":{"type":"Point","coordinates":[19.14177,3.62981]}},{"type":"Feature","properties":{"rang_500m":154,"nom":"SSC Buduli","niveau":"Site de soins communautaires","localite_proche":"Boduli","score_service":37.0,"pop_desservie_2030":2178,"charge_hab_structure":1089,"dist_structure_km":1.38,"rayon_desserte_m":2000,"phase":2},"geometry":{"type":"Point","coordinates":[19.11581,3.65505]}},{"type":"Feature","properties":{"rang_500m":171,"nom":"PS Dks","niveau":"Poste de santé","localite_proche":"Bosuma","score_service":30.4,"pop_desservie_2030":2135,"charge_hab_structure":712,"dist_structure_km":1.38,"rayon_desserte_m":3000,"phase":2},"geometry":{"type":"Point","coordinates":[19.12402,3.64569]}},{"type":"Feature","properties":{"rang_500m":49,"nom":"CS Bomutu","niveau":"Centre de santé","localite_proche":"Bomotu","score_service":67.8,"pop_desservie_2030":10021,"charge_hab_structure":2505,"dist_structure_km":2.3,"rayon_desserte_m":5000,"phase":2},"geometry":{"type":"Point","coordinates":[18.92909,3.77566]}},{"type":"Feature","properties":{"rang_500m":47,"nom":"SSC Bomanga Mafwa","niveau":"Site de soins communautaires","localite_proche":"Bomuntu Munene","score_service":68.5,"pop_desservie_2030":5469,"charge_hab_structure":5469,"dist_structure_km":2.3,"rayon_desserte_m":2000,"phase":2},"geometry":{"type":"Point","coordinates":[18.90857,3.77810]}},{"type":"Feature","properties":{"rang_500m":64,"nom":"PS Bogbali","niveau":"Poste de santé","localite_proche":"Bogbali Boyikama","score_service":63.1,"pop_desservie_2030":8098,"charge_hab_structure":2699,"dist_structure_km":1.87,"rayon_desserte_m":3000,"phase":2},"geometry":{"type":"Point","coordinates":[19.04711,3.76251]}},{"type":"Feature","properties":{"rang_500m":23,"nom":"CM Papa Jannot Bemba","niveau":"Centre médical","localite_proche":"Libenge","score_service":72.3,"pop_desservie_2030":71850,"charge_hab_structure":6532,"dist_structure_km":0.35,"rayon_desserte_m":5000,"phase":3},"geometry":{"type":"Point","coordinates":[18.63809,3.66114]}},{"type":"Feature","properties":{"rang_500m":186,"nom":"SSC Katako","niveau":"Site de soins communautaires","localite_proche":"Wodaw","score_service":26.5,"pop_desservie_2030":1788,"charge_hab_structure":894,"dist_structure_km":0.7,"rayon_desserte_m":2000,"phase":2},"geometry":{"type":"Point","coordinates":[18.69861,3.93205]}},{"type":"Feature","properties":{"rang_500m":167,"nom":"PS Wudawu","niveau":"Poste de santé","localite_proche":"Udawu","score_service":31.5,"pop_desservie_2030":2044,"charge_hab_structure":1022,"dist_structure_km":0.7,"rayon_desserte_m":3000,"phase":2},"geometry":{"type":"Point","coordinates":[18.69668,3.92604]}},{"type":"Feature","properties":{"rang_500m":131,"nom":"CS Nduma","niveau":"Centre de santé","localite_proche":"Duma","score_service":42.4,"pop_desservie_2030":3825,"charge_hab_structure":765,"dist_structure_km":3.12,"rayon_desserte_m":5000,"phase":2},"geometry":{"type":"Point","coordinates":[18.68889,3.89209]}},{"type":"Feature","properties":{"rang_500m":5,"nom":"CS Sango","niveau":"Centre de santé","localite_proche":"Libenge","score_service":77.3,"pop_desservie_2030":71854,"charge_hab_structure":5988,"dist_structure_km":0.6,"rayon_desserte_m":5000,"phase":3},"geometry":{"type":"Point","coordinates":[18.63490,3.65675]}},{"type":"Feature","properties":{"rang_500m":88,"nom":"CS Nzulu","niveau":"Centre de santé","localite_proche":"Zongo","score_service":57.2,"pop_desservie_2030":56488,"charge_hab_structure":2568,"dist_structure_km":0.21,"rayon_desserte_m":5000,"phase":2},"geometry":{"type":"Point","coordinates":[18.59674,4.33722]}},{"type":"Feature","properties":{"rang_500m":51,"nom":"CS Bokilio","niveau":"Centre de santé","localite_proche":"Bokiliyo","score_service":67.7,"pop_desservie_2030":10168,"charge_hab_structure":3389,"dist_structure_km":1.87,"rayon_desserte_m":5000,"phase":2},"geometry":{"type":"Point","coordinates":[19.03056,3.76579]}},{"type":"Feature","properties":{"rang_500m":202,"nom":"SSC Bomutu Moke","niveau":"Site de soins communautaires","localite_proche":"Bomotu-Moke","score_service":21.7,"pop_desservie_2030":339,"charge_hab_structure":339,"dist_structure_km":2.72,"rayon_desserte_m":2000,"phase":2},"geometry":{"type":"Point","coordinates":[18.97406,3.77586]}},{"type":"Feature","properties":{"rang_500m":50,"nom":"CS Zingazinga","niveau":"Centre de santé","localite_proche":"Libenge","score_service":67.8,"pop_desservie_2030":72066,"charge_hab_structure":5544,"dist_structure_km":0.26,"rayon_desserte_m":5000,"phase":3},"geometry":{"type":"Point","coordinates":[18.63050,3.64540]}},{"type":"Feature","properties":{"rang_500m":56,"nom":"CS Pnc Libenge","niveau":"Centre de santé","localite_proche":"Libenge","score_service":65.4,"pop_desservie_2030":72292,"charge_hab_structure":5164,"dist_structure_km":0.26,"rayon_desserte_m":5000,"phase":3},"geometry":{"type":"Point","coordinates":[18.63234,3.64399]}},{"type":"Feature","properties":{"rang_500m":31,"nom":"CSR Pilote","niveau":"Centre de santé de référence","localite_proche":"Libenge","score_service":71.7,"pop_desservie_2030":78414,"charge_hab_structure":5601,"dist_structure_km":0.36,"rayon_desserte_m":10000,"phase":3},"geometry":{"type":"Point","coordinates":[18.63401,3.64119]}},{"type":"Feature","properties":{"rang_500m":14,"nom":"CS Cecu Libenge","niveau":"Centre de santé","localite_proche":"Libenge","score_service":74.6,"pop_desservie_2030":71953,"charge_hab_structure":5139,"dist_structure_km":0.81,"rayon_desserte_m":5000,"phase":3},"geometry":{"type":"Point","coordinates":[18.63708,3.64956]}},{"type":"Feature","properties":{"rang_500m":149,"nom":"CS Wenze","niveau":"Centre de santé","localite_proche":"Bondolo","score_service":37.6,"pop_desservie_2030":5332,"charge_hab_structure":667,"dist_structure_km":1.0,"rayon_desserte_m":5000,"phase":2},"geometry":{"type":"Point","coordinates":[18.65502,4.23527]}},{"type":"Feature","properties":{"rang_500m":210,"nom":"CS Bambenga","niveau":"Centre de santé","localite_proche":"Gbamundema II","score_service":13.3,"pop_desservie_2030":2509,"charge_hab_structure":418,"dist_structure_km":0.32,"rayon_desserte_m":5000,"phase":2},"geometry":{"type":"Point","coordinates":[18.72974,4.20250]}},{"type":"Feature","properties":{"rang_500m":70,"nom":"CS Gbakode Cecu","niveau":"Centre de santé","localite_proche":"Zongo","score_service":61.4,"pop_desservie_2030":55259,"charge_hab_structure":2512,"dist_structure_km":0.43,"rayon_desserte_m":5000,"phase":2},"geometry":{"type":"Point","coordinates":[18.60144,4.36087]}},{"type":"Feature","properties":{"rang_500m":211,"nom":"DISP Maman Therese","niveau":"Dispensaire","localite_proche":"Bambenga","score_service":12.4,"pop_desservie_2030":2461,"charge_hab_structure":410,"dist_structure_km":0.32,"rayon_desserte_m":5000,"phase":2},"geometry":{"type":"Point","coordinates":[18.73166,4.20468]}},{"type":"Feature","properties":{"rang_500m":198,"nom":"CM La Main De Dieu","niveau":"Centre médical","localite_proche":"Gbamundema II","score_service":23.2,"pop_desservie_2030":3040,"charge_hab_structure":507,"dist_structure_km":0.57,"rayon_desserte_m":5000,"phase":2},"geometry":{"type":"Point","coordinates":[18.71990,4.20262]}},{"type":"Feature","properties":{"rang_500m":194,"nom":"SSC Tosalisana","niveau":"Site de soins communautaires","localite_proche":"Yakiri","score_service":24.6,"pop_desservie_2030":1832,"charge_hab_structure":611,"dist_structure_km":1.12,"rayon_desserte_m":2000,"phase":2},"geometry":{"type":"Point","coordinates":[18.71099,4.20732]}},{"type":"Feature","properties":{"rang_500m":78,"nom":"PS Papa Ngelo","niveau":"Poste de santé","localite_proche":"Zongo","score_service":60.1,"pop_desservie_2030":37500,"charge_hab_structure":2500,"dist_structure_km":0.43,"rayon_desserte_m":3000,"phase":2},"geometry":{"type":"Point","coordinates":[18.60532,4.36036]}},{"type":"Feature","properties":{"rang_500m":26,"nom":"CS Cite Libenge","niveau":"Centre de santé","localite_proche":"Libenge","score_service":71.9,"pop_desservie_2030":71629,"charge_hab_structure":6512,"dist_structure_km":0.35,"rayon_desserte_m":5000,"phase":3},"geometry":{"type":"Point","coordinates":[18.63863,3.66421]}},{"type":"Feature","properties":{"rang_500m":72,"nom":"DISP Bikisa","niveau":"Dispensaire","localite_proche":"Zongo","score_service":61.1,"pop_desservie_2030":56466,"charge_hab_structure":2353,"dist_structure_km":0.44,"rayon_desserte_m":5000,"phase":2},"geometry":{"type":"Point","coordinates":[18.59482,4.34068]}},{"type":"Feature","properties":{"rang_500m":117,"nom":"PS Bikisa","niveau":"Poste de santé","localite_proche":"Molin ingonge","score_service":47.4,"pop_desservie_2030":7986,"charge_hab_structure":1597,"dist_structure_km":0.57,"rayon_desserte_m":3000,"phase":2},"geometry":{"type":"Point","coordinates":[18.78412,4.14983]}},{"type":"Feature","properties":{"rang_500m":201,"nom":"SSC Gbamundema","niveau":"Site de soins communautaires","localite_proche":"Gbamundema I","score_service":21.9,"pop_desservie_2030":134,"charge_hab_structure":134,"dist_structure_km":3.24,"rayon_desserte_m":2000,"phase":2},"geometry":{"type":"Point","coordinates":[18.75475,4.17824]}},{"type":"Feature","properties":{"rang_500m":129,"nom":"CS Molet","niveau":"Centre de santé","localite_proche":"Molin ingonge","score_service":43.3,"pop_desservie_2030":8847,"charge_hab_structure":1264,"dist_structure_km":0.5,"rayon_desserte_m":5000,"phase":2},"geometry":{"type":"Point","coordinates":[18.78922,4.15040]}},{"type":"Feature","properties":{"rang_500m":113,"nom":"CS Dieu Merci","niveau":"Centre de santé","localite_proche":"Molin 2kilo","score_service":50.2,"pop_desservie_2030":8788,"charge_hab_structure":1255,"dist_structure_km":1.37,"rayon_desserte_m":5000,"phase":2},"geometry":{"type":"Point","coordinates":[18.77324,4.15562]}},{"type":"Feature","properties":{"rang_500m":97,"nom":"CS Du Camp Mole","niveau":"Centre de santé","localite_proche":"Yongalu pâturage","score_service":53.8,"pop_desservie_2030":8885,"charge_hab_structure":1481,"dist_structure_km":1.24,"rayon_desserte_m":5000,"phase":2},"geometry":{"type":"Point","coordinates":[18.79642,4.13654]}},{"type":"Feature","properties":{"rang_500m":74,"nom":"PS Bondeko","niveau":"Poste de santé","localite_proche":"Zongo","score_service":60.5,"pop_desservie_2030":54009,"charge_hab_structure":4155,"dist_structure_km":0.24,"rayon_desserte_m":3000,"phase":2},"geometry":{"type":"Point","coordinates":[18.59354,4.34926]}},{"type":"Feature","properties":{"rang_500m":76,"nom":"PS De Secours Bikisa","niveau":"Poste de santé","localite_proche":"Zongo","score_service":60.2,"pop_desservie_2030":53878,"charge_hab_structure":4144,"dist_structure_km":0.24,"rayon_desserte_m":3000,"phase":2},"geometry":{"type":"Point","coordinates":[18.59540,4.35033]}},{"type":"Feature","properties":{"rang_500m":104,"nom":"CS Pnc Ciat Urb Zongo","niveau":"Centre de santé","localite_proche":"Zongo","score_service":52.5,"pop_desservie_2030":55259,"charge_hab_structure":2302,"dist_structure_km":0.2,"rayon_desserte_m":5000,"phase":2},"geometry":{"type":"Point","coordinates":[18.59886,4.35125]}},{"type":"Feature","properties":{"rang_500m":98,"nom":"CS Pilote","niveau":"Centre de santé","localite_proche":"Zongo","score_service":53.8,"pop_desservie_2030":55269,"charge_hab_structure":2403,"dist_structure_km":0.2,"rayon_desserte_m":5000,"phase":2},"geometry":{"type":"Point","coordinates":[18.59822,4.34954]}},{"type":"Feature","properties":{"rang_500m":61,"nom":"CS Saint Joseph","niveau":"Centre de santé","localite_proche":"Zongo","score_service":64.1,"pop_desservie_2030":55279,"charge_hab_structure":2513,"dist_structure_km":0.55,"rayon_desserte_m":5000,"phase":2},"geometry":{"type":"Point","coordinates":[18.59807,4.34449]}},{"type":"Feature","properties":{"rang_500m":205,"nom":"SSC Monzo","niveau":"Site de soins communautaires","localite_proche":"Wangara","score_service":20.4,"pop_desservie_2030":371,"charge_hab_structure":371,"dist_structure_km":2.27,"rayon_desserte_m":2000,"phase":2},"geometry":{"type":"Point","coordinates":[18.74833,4.04029]}},{"type":"Feature","properties":{"rang_500m":166,"nom":"SSC Paturage","niveau":"Site de soins communautaires","localite_proche":"Yongala pâturage","score_service":31.8,"pop_desservie_2030":954,"charge_hab_structure":954,"dist_structure_km":2.22,"rayon_desserte_m":2000,"phase":2},"geometry":{"type":"Point","coordinates":[18.78385,4.12090]}},{"type":"Feature","properties":{"rang_500m":192,"nom":"PS Bungba","niveau":"Poste de santé","localite_proche":"Bungba","score_service":24.7,"pop_desservie_2030":1012,"charge_hab_structure":506,"dist_structure_km":2.27,"rayon_desserte_m":3000,"phase":2},"geometry":{"type":"Point","coordinates":[18.74559,4.01997]}},{"type":"Feature","properties":{"rang_500m":179,"nom":"DISP Akula Bomoko","niveau":"Dispensaire","localite_proche":"Akula","score_service":28.8,"pop_desservie_2030":4742,"charge_hab_structure":948,"dist_structure_km":0.37,"rayon_desserte_m":5000,"phase":1},"geometry":{"type":"Point","coordinates":[20.18369,2.37478]}},{"type":"Feature","properties":{"rang_500m":59,"nom":"CM Dieu Fera","niveau":"Centre médical","localite_proche":"Saratumba","score_service":64.9,"pop_desservie_2030":56518,"charge_hab_structure":2691,"dist_structure_km":0.49,"rayon_desserte_m":5000,"phase":2},"geometry":{"type":"Point","coordinates":[18.59879,4.33121]}},{"type":"Feature","properties":{"rang_500m":87,"nom":"CS El Rapha","niveau":"Centre de santé","localite_proche":"Zongo","score_service":57.3,"pop_desservie_2030":56500,"charge_hab_structure":2568,"dist_structure_km":0.21,"rayon_desserte_m":5000,"phase":2},"geometry":{"type":"Point","coordinates":[18.59732,4.33537]}},{"type":"Feature","properties":{"rang_500m":40,"nom":"CM De Maman Mwilu","niveau":"Centre médical","localite_proche":"Zongo","score_service":70.3,"pop_desservie_2030":55402,"charge_hab_structure":3078,"dist_structure_km":0.91,"rayon_desserte_m":5000,"phase":2},"geometry":{"type":"Point","coordinates":[18.60320,4.32427]}},{"type":"Feature","properties":{"rang_500m":110,"nom":"PS Boduku","niveau":"Poste de santé","localite_proche":"Boduko","score_service":50.9,"pop_desservie_2030":1391,"charge_hab_structure":1391,"dist_structure_km":7.26,"rayon_desserte_m":3000,"phase":3},"geometry":{"type":"Point","coordinates":[18.71034,3.68999]}},{"type":"Feature","properties":{"rang_500m":112,"nom":"PS Mase","niveau":"Poste de santé","localite_proche":"Mase Muda","score_service":50.4,"pop_desservie_2030":1440,"charge_hab_structure":1440,"dist_structure_km":4.86,"rayon_desserte_m":3000,"phase":2},"geometry":{"type":"Point","coordinates":[18.69914,3.81711]}},{"type":"Feature","properties":{"rang_500m":92,"nom":"PS Mbalasa","niveau":"Poste de santé","localite_proche":"Bombaolo","score_service":56.1,"pop_desservie_2030":2207,"charge_hab_structure":2207,"dist_structure_km":5.13,"rayon_desserte_m":3000,"phase":2},"geometry":{"type":"Point","coordinates":[19.18005,3.60385]}},{"type":"Feature","properties":{"rang_500m":96,"nom":"CS Bogilima","niveau":"Centre de santé","localite_proche":"Bagilima","score_service":53.9,"pop_desservie_2030":3475,"charge_hab_structure":1738,"dist_structure_km":3.78,"rayon_desserte_m":5000,"phase":2},"geometry":{"type":"Point","coordinates":[19.25510,3.57626]}},{"type":"Feature","properties":{"rang_500m":121,"nom":"CS Mole","niveau":"Centre de santé","localite_proche":"Molin ingonge","score_service":46.1,"pop_desservie_2030":8810,"charge_hab_structure":1468,"dist_structure_km":0.5,"rayon_desserte_m":5000,"phase":2},"geometry":{"type":"Point","coordinates":[18.79039,4.14603]}},{"type":"Feature","properties":{"rang_500m":3,"nom":"CS Boyabu","niveau":"Centre de santé","localite_proche":"Boyabo","score_service":81.7,"pop_desservie_2030":19977,"charge_hab_structure":9989,"dist_structure_km":1.39,"rayon_desserte_m":5000,"phase":3},"geometry":{"type":"Point","coordinates":[18.77066,3.71519]}},{"type":"Feature","properties":{"rang_500m":7,"nom":"CH Boyabu","niveau":"Centre hospitalier","localite_proche":"Ndoroka","score_service":76.0,"pop_desservie_2030":28879,"charge_hab_structure":4813,"dist_structure_km":1.39,"rayon_desserte_m":10000,"phase":2},"geometry":{"type":"Point","coordinates":[18.77185,3.72770]}},{"type":"Feature","properties":{"rang_500m":174,"nom":"SSC Awele Bositolo","niveau":"Site de soins communautaires","localite_proche":"Bositolo","score_service":29.9,"pop_desservie_2030":623,"charge_hab_structure":623,"dist_structure_km":4.38,"rayon_desserte_m":2000,"phase":2},"geometry":{"type":"Point","coordinates":[18.67625,3.85459]}},{"type":"Feature","properties":{"rang_500m":38,"nom":"DISP Croix Rouge","niveau":"Dispensaire","localite_proche":"Zongo","score_service":70.5,"pop_desservie_2030":55653,"charge_hab_structure":2650,"dist_structure_km":1.06,"rayon_desserte_m":5000,"phase":2},"geometry":{"type":"Point","coordinates":[18.62054,4.35096]}},{"type":"Feature","properties":{"rang_500m":200,"nom":"PS Gbandi 1","niveau":"Poste de santé","localite_proche":"Badokwa","score_service":22.3,"pop_desservie_2030":2544,"charge_hab_structure":424,"dist_structure_km":0.43,"rayon_desserte_m":3000,"phase":2},"geometry":{"type":"Point","coordinates":[18.63173,4.34852]}},{"type":"Feature","properties":{"rang_500m":212,"nom":"SSC Gbandi 1","niveau":"Site de soins communautaires","localite_proche":"Badokwa","score_service":9.1,"pop_desservie_2030":597,"charge_hab_structure":199,"dist_structure_km":0.43,"rayon_desserte_m":2000,"phase":2},"geometry":{"type":"Point","coordinates":[18.62877,4.34607]}},{"type":"Feature","properties":{"rang_500m":73,"nom":"PS Kpagwa 2","niveau":"Poste de santé","localite_proche":"Pagwa","score_service":60.9,"pop_desservie_2030":2245,"charge_hab_structure":2245,"dist_structure_km":5.26,"rayon_desserte_m":3000,"phase":2},"geometry":{"type":"Point","coordinates":[18.70571,3.77002]}},{"type":"Feature","properties":{"rang_500m":143,"nom":"PS Habitation Chef De Localite","niveau":"Poste de santé","localite_proche":"Yakili","score_service":39.3,"pop_desservie_2030":1886,"charge_hab_structure":943,"dist_structure_km":2.97,"rayon_desserte_m":3000,"phase":2},"geometry":{"type":"Point","coordinates":[18.67807,4.22170]}},{"type":"Feature","properties":{"rang_500m":180,"nom":"SSC Gbala","niveau":"Site de soins communautaires","localite_proche":"Sekia","score_service":28.6,"pop_desservie_2030":609,"charge_hab_structure":609,"dist_structure_km":3.45,"rayon_desserte_m":2000,"phase":2},"geometry":{"type":"Point","coordinates":[18.62920,4.27086]}},{"type":"Feature","properties":{"rang_500m":139,"nom":"PS Saint Paul","niveau":"Poste de santé","localite_proche":"Sekia","score_service":40.2,"pop_desservie_2030":2567,"charge_hab_structure":1283,"dist_structure_km":1.0,"rayon_desserte_m":3000,"phase":2},"geometry":{"type":"Point","coordinates":[18.64688,4.23910]}},{"type":"Feature","properties":{"rang_500m":175,"nom":"CS Kolongo","niveau":"Centre de santé","localite_proche":"Batangu","score_service":29.5,"pop_desservie_2030":6913,"charge_hab_structure":864,"dist_structure_km":0.21,"rayon_desserte_m":5000,"phase":1},"geometry":{"type":"Point","coordinates":[19.98170,2.69717]}},{"type":"Feature","properties":{"rang_500m":172,"nom":"PS Kolongo","niveau":"Poste de santé","localite_proche":"Ngbonga Munene","score_service":30.4,"pop_desservie_2030":2768,"charge_hab_structure":554,"dist_structure_km":1.44,"rayon_desserte_m":3000,"phase":1},"geometry":{"type":"Point","coordinates":[19.99339,2.67499]}},{"type":"Feature","properties":{"rang_500m":190,"nom":"PS Gbaza","niveau":"Poste de santé","localite_proche":"Gbulu","score_service":24.8,"pop_desservie_2030":2129,"charge_hab_structure":710,"dist_structure_km":0.73,"rayon_desserte_m":3000,"phase":1},"geometry":{"type":"Point","coordinates":[19.99050,2.73737]}},{"type":"Feature","properties":{"rang_500m":193,"nom":"SSC Ilingu","niveau":"Site de soins communautaires","localite_proche":"Kolongo","score_service":24.7,"pop_desservie_2030":1592,"charge_hab_structure":796,"dist_structure_km":0.73,"rayon_desserte_m":2000,"phase":1},"geometry":{"type":"Point","coordinates":[19.98834,2.73116]}},{"type":"Feature","properties":{"rang_500m":178,"nom":"PS Cam","niveau":"Poste de santé","localite_proche":"Batangu","score_service":28.9,"pop_desservie_2030":4530,"charge_hab_structure":1132,"dist_structure_km":0.21,"rayon_desserte_m":3000,"phase":1},"geometry":{"type":"Point","coordinates":[19.98141,2.69908]}},{"type":"Feature","properties":{"rang_500m":145,"nom":"PS La Reponse Kolongo","niveau":"Poste de santé","localite_proche":"Batangu","score_service":38.9,"pop_desservie_2030":4561,"charge_hab_structure":1520,"dist_structure_km":0.37,"rayon_desserte_m":3000,"phase":1},"geometry":{"type":"Point","coordinates":[19.97812,2.69984]}},{"type":"Feature","properties":{"rang_500m":177,"nom":"CS Mbako","niveau":"Centre de santé","localite_proche":"Mbako","score_service":29.1,"pop_desservie_2030":2539,"charge_hab_structure":508,"dist_structure_km":2.35,"rayon_desserte_m":5000,"phase":1},"geometry":{"type":"Point","coordinates":[20.03989,2.59573]}},{"type":"Feature","properties":{"rang_500m":199,"nom":"SSC Mbako 2","niveau":"Site de soins communautaires","localite_proche":"Yanga I","score_service":22.4,"pop_desservie_2030":465,"charge_hab_structure":465,"dist_structure_km":2.35,"rayon_desserte_m":2000,"phase":1},"geometry":{"type":"Point","coordinates":[20.04144,2.57454]}},{"type":"Feature","properties":{"rang_500m":189,"nom":"PS Mogugu Tp","niveau":"Poste de santé","localite_proche":"Ngbonga Mukie","score_service":25.3,"pop_desservie_2030":2187,"charge_hab_structure":547,"dist_structure_km":1.15,"rayon_desserte_m":3000,"phase":1},"geometry":{"type":"Point","coordinates":[20.00210,2.64517]}},{"type":"Feature","properties":{"rang_500m":187,"nom":"PS Ngbonga 1","niveau":"Poste de santé","localite_proche":"Ngbonga Munene","score_service":26.5,"pop_desservie_2030":2494,"charge_hab_structure":624,"dist_structure_km":0.87,"rayon_desserte_m":3000,"phase":1},"geometry":{"type":"Point","coordinates":[19.99551,2.66213]}},{"type":"Feature","properties":{"rang_500m":195,"nom":"SSC Ngonga 1","niveau":"Site de soins communautaires","localite_proche":"Ngbonga Mukie","score_service":23.7,"pop_desservie_2030":1935,"charge_hab_structure":645,"dist_structure_km":0.87,"rayon_desserte_m":2000,"phase":1},"geometry":{"type":"Point","coordinates":[19.99743,2.65448]}},{"type":"Feature","properties":{"rang_500m":197,"nom":"PS Ngbonga 2","niveau":"Poste de santé","localite_proche":"Mbako","score_service":23.4,"pop_desservie_2030":1196,"charge_hab_structure":598,"dist_structure_km":1.4,"rayon_desserte_m":3000,"phase":1},"geometry":{"type":"Point","coordinates":[20.02838,2.62107]}},{"type":"Feature","properties":{"rang_500m":207,"nom":"SSC Ngbonga 2","niveau":"Site de soins communautaires","localite_proche":"Ngbonga Mukie","score_service":18.0,"pop_desservie_2030":551,"charge_hab_structure":275,"dist_structure_km":1.4,"rayon_desserte_m":2000,"phase":1},"geometry":{"type":"Point","coordinates":[20.02206,2.63200]}},{"type":"Feature","properties":{"rang_500m":191,"nom":"SSC Yanga Gekay","niveau":"Site de soins communautaires","localite_proche":"Yanga-Gekai","score_service":24.8,"pop_desservie_2030":257,"charge_hab_structure":257,"dist_structure_km":4.63,"rayon_desserte_m":2000,"phase":1},"geometry":{"type":"Point","coordinates":[20.07600,2.51367]}},{"type":"Feature","properties":{"rang_500m":103,"nom":"PS C A C Communaute Des Agriculteurs Pour La Construction","niveau":"Poste de santé","localite_proche":"Yabaza III","score_service":52.8,"pop_desservie_2030":4947,"charge_hab_structure":1649,"dist_structure_km":1.92,"rayon_desserte_m":3000,"phase":1},"geometry":{"type":"Point","coordinates":[19.99252,2.77226]}},{"type":"Feature","properties":{"rang_500m":127,"nom":"CS Talasuma","niveau":"Centre de santé","localite_proche":"Talasua","score_service":43.6,"pop_desservie_2030":6959,"charge_hab_structure":994,"dist_structure_km":0.89,"rayon_desserte_m":5000,"phase":1},"geometry":{"type":"Point","coordinates":[19.95003,2.84943]}},{"type":"Feature","properties":{"rang_500m":176,"nom":"CM 3 Bo","niveau":"Centre médical","localite_proche":"Akula","score_service":29.3,"pop_desservie_2030":4543,"charge_hab_structure":909,"dist_structure_km":0.45,"rayon_desserte_m":5000,"phase":1},"geometry":{"type":"Point","coordinates":[20.17995,2.38091]}},{"type":"Feature","properties":{"rang_500m":182,"nom":"DISP Beth Saida","niveau":"Dispensaire","localite_proche":"Akula","score_service":28.1,"pop_desservie_2030":4670,"charge_hab_structure":934,"dist_structure_km":0.37,"rayon_desserte_m":5000,"phase":1},"geometry":{"type":"Point","coordinates":[20.18137,2.37712]}},{"type":"Feature","properties":{"rang_500m":100,"nom":"DISP Ange De Guerison","niveau":"Dispensaire","localite_proche":"Dongo-Moke","score_service":53.2,"pop_desservie_2030":14714,"charge_hab_structure":1839,"dist_structure_km":0.43,"rayon_desserte_m":5000,"phase":1},"geometry":{"type":"Point","coordinates":[20.13170,2.45323]}},{"type":"Feature","properties":{"rang_500m":84,"nom":"CS Kuma","niveau":"Centre de santé","localite_proche":"Dongo-Moke","score_service":58.5,"pop_desservie_2030":14641,"charge_hab_structure":1830,"dist_structure_km":0.83,"rayon_desserte_m":5000,"phase":1},"geometry":{"type":"Point","coordinates":[20.12829,2.44656]}},{"type":"Feature","properties":{"rang_500m":151,"nom":"SSC Dongo 2","niveau":"Site de soins communautaires","localite_proche":"Kuma","score_service":37.3,"pop_desservie_2030":1261,"charge_hab_structure":1261,"dist_structure_km":2.3,"rayon_desserte_m":2000,"phase":1},"geometry":{"type":"Point","coordinates":[20.14031,2.42964]}},{"type":"Feature","properties":{"rang_500m":162,"nom":"SSC Dongo 1","niveau":"Site de soins communautaires","localite_proche":"Yanga-Leka","score_service":34.1,"pop_desservie_2030":2470,"charge_hab_structure":823,"dist_structure_km":1.19,"rayon_desserte_m":2000,"phase":1},"geometry":{"type":"Point","coordinates":[20.11212,2.47410]}},{"type":"Feature","properties":{"rang_500m":52,"nom":"CS Bodenge","niveau":"Centre de santé","localite_proche":"Bodenge","score_service":67.7,"pop_desservie_2030":8222,"charge_hab_structure":2741,"dist_structure_km":1.92,"rayon_desserte_m":5000,"phase":2},"geometry":{"type":"Point","coordinates":[19.63976,3.26497]}},{"type":"Feature","properties":{"rang_500m":81,"nom":"PS Libiki","niveau":"Poste de santé","localite_proche":"Bodenge","score_service":59.6,"pop_desservie_2030":5104,"charge_hab_structure":2552,"dist_structure_km":1.92,"rayon_desserte_m":3000,"phase":2},"geometry":{"type":"Point","coordinates":[19.62476,3.27359]}},{"type":"Feature","properties":{"rang_500m":85,"nom":"PS Mbalina","niveau":"Poste de santé","localite_proche":"Boyambi mbalina III","score_service":57.5,"pop_desservie_2030":6334,"charge_hab_structure":2111,"dist_structure_km":1.6,"rayon_desserte_m":3000,"phase":2},"geometry":{"type":"Point","coordinates":[19.68030,3.24515]}},{"type":"Feature","properties":{"rang_500m":77,"nom":"PS Bon Depart","niveau":"Poste de santé","localite_proche":"Bosapkana","score_service":60.2,"pop_desservie_2030":7014,"charge_hab_structure":2338,"dist_structure_km":2.3,"rayon_desserte_m":3000,"phase":2},"geometry":{"type":"Point","coordinates":[19.48897,3.29803]}},{"type":"Feature","properties":{"rang_500m":68,"nom":"CS Bozoko 5","niveau":"Centre de santé","localite_proche":"Bozoko V","score_service":61.5,"pop_desservie_2030":13924,"charge_hab_structure":3481,"dist_structure_km":0.49,"rayon_desserte_m":5000,"phase":2},"geometry":{"type":"Point","coordinates":[19.50934,3.29439]}},{"type":"Feature","properties":{"rang_500m":108,"nom":"PS Prive Espoir De Bozoko 5","niveau":"Poste de santé","localite_proche":"Bozoko V","score_service":51.6,"pop_desservie_2030":9138,"charge_hab_structure":2285,"dist_structure_km":0.49,"rayon_desserte_m":3000,"phase":2},"geometry":{"type":"Point","coordinates":[19.51367,3.29339]}},{"type":"Feature","properties":{"rang_500m":62,"nom":"CS Bodeme","niveau":"Centre de santé","localite_proche":"Bodeme I","score_service":63.8,"pop_desservie_2030":12507,"charge_hab_structure":2501,"dist_structure_km":0.87,"rayon_desserte_m":5000,"phase":2},"geometry":{"type":"Point","coordinates":[19.58906,3.27368]}},{"type":"Feature","properties":{"rang_500m":58,"nom":"CS La Volonte De Dieu","niveau":"Centre de santé","localite_proche":"Bodeme II","score_service":65.0,"pop_desservie_2030":11305,"charge_hab_structure":2261,"dist_structure_km":1.7,"rayon_desserte_m":5000,"phase":2},"geometry":{"type":"Point","coordinates":[19.57400,3.27634]}},{"type":"Feature","properties":{"rang_500m":79,"nom":"CM Mbilinga","niveau":"Centre médical","localite_proche":"Boduli II","score_service":60.0,"pop_desservie_2030":12502,"charge_hab_structure":2084,"dist_structure_km":0.87,"rayon_desserte_m":5000,"phase":2},"geometry":{"type":"Point","coordinates":[19.59581,3.26977]}},{"type":"Feature","properties":{"rang_500m":107,"nom":"CS Bongbada","niveau":"Centre de santé","localite_proche":"Bongbada I","score_service":51.8,"pop_desservie_2030":4092,"charge_hab_structure":1364,"dist_structure_km":3.51,"rayon_desserte_m":5000,"phase":2},"geometry":{"type":"Point","coordinates":[19.45765,3.30239]}},{"type":"Feature","properties":{"rang_500m":16,"nom":"CS Bozoko","niveau":"Centre de santé","localite_proche":"Bozoko II","score_service":74.2,"pop_desservie_2030":15600,"charge_hab_structure":3120,"dist_structure_km":2.52,"rayon_desserte_m":5000,"phase":2},"geometry":{"type":"Point","coordinates":[19.53665,3.28220]}},{"type":"Feature","properties":{"rang_500m":142,"nom":"CM Dks","niveau":"Centre médical","localite_proche":"Mbari","score_service":39.5,"pop_desservie_2030":6882,"charge_hab_structure":1376,"dist_structure_km":0.32,"rayon_desserte_m":5000,"phase":2},"geometry":{"type":"Point","coordinates":[19.38463,3.31965]}},{"type":"Feature","properties":{"rang_500m":159,"nom":"PS Bezelebina","niveau":"Poste de santé","localite_proche":"Mbari","score_service":35.5,"pop_desservie_2030":5666,"charge_hab_structure":1416,"dist_structure_km":0.32,"rayon_desserte_m":3000,"phase":2},"geometry":{"type":"Point","coordinates":[19.38366,3.32236]}},{"type":"Feature","properties":{"rang_500m":169,"nom":"CM Bezelebina","niveau":"Centre médical","localite_proche":"Bobise","score_service":31.0,"pop_desservie_2030":2750,"charge_hab_structure":917,"dist_structure_km":0.75,"rayon_desserte_m":5000,"phase":2},"geometry":{"type":"Point","coordinates":[19.34025,3.54332]}},{"type":"Feature","properties":{"rang_500m":124,"nom":"CM De Mbari","niveau":"Centre médical","localite_proche":"Mbari","score_service":44.7,"pop_desservie_2030":6660,"charge_hab_structure":1110,"dist_structure_km":1.05,"rayon_desserte_m":5000,"phase":2},"geometry":{"type":"Point","coordinates":[19.40050,3.32060]}},{"type":"Feature","properties":{"rang_500m":122,"nom":"CS Mbari","niveau":"Centre de santé","localite_proche":"Mbari","score_service":45.7,"pop_desservie_2030":6683,"charge_hab_structure":1337,"dist_structure_km":0.72,"rayon_desserte_m":5000,"phase":2},"geometry":{"type":"Point","coordinates":[19.39112,3.31941]}},{"type":"Feature","properties":{"rang_500m":188,"nom":"SSC Sua","niveau":"Site de soins communautaires","localite_proche":"Bongbada II","score_service":26.2,"pop_desservie_2030":2022,"charge_hab_structure":1011,"dist_structure_km":0.54,"rayon_desserte_m":2000,"phase":2},"geometry":{"type":"Point","coordinates":[19.38472,3.41218]}},{"type":"Feature","properties":{"rang_500m":116,"nom":"CS Bokembe","niveau":"Centre de santé","localite_proche":"Bongbada II","score_service":48.2,"pop_desservie_2030":4892,"charge_hab_structure":2446,"dist_structure_km":0.54,"rayon_desserte_m":5000,"phase":2},"geometry":{"type":"Point","coordinates":[19.38381,3.41698]}},{"type":"Feature","properties":{"rang_500m":93,"nom":"PS Bobiangele","niveau":"Poste de santé","localite_proche":"Bobiangele","score_service":55.5,"pop_desservie_2030":2194,"charge_hab_structure":2194,"dist_structure_km":4.79,"rayon_desserte_m":3000,"phase":2},"geometry":{"type":"Point","coordinates":[19.37693,3.36960]}},{"type":"Feature","properties":{"rang_500m":22,"nom":"CS Deus","niveau":"Centre de santé","localite_proche":"Bodeme II","score_service":72.6,"pop_desservie_2030":16815,"charge_hab_structure":3363,"dist_structure_km":1.75,"rayon_desserte_m":5000,"phase":2},"geometry":{"type":"Point","coordinates":[19.55933,3.28213]}},{"type":"Feature","properties":{"rang_500m":168,"nom":"SSC Bogindi 1","niveau":"Site de soins communautaires","localite_proche":"Bongidi I","score_service":31.5,"pop_desservie_2030":717,"charge_hab_structure":717,"dist_structure_km":3.64,"rayon_desserte_m":2000,"phase":2},"geometry":{"type":"Point","coordinates":[19.36523,3.52197]}},{"type":"Feature","properties":{"rang_500m":163,"nom":"CS Bobisi","niveau":"Centre de santé","localite_proche":"Bobise","score_service":32.7,"pop_desservie_2030":2894,"charge_hab_structure":965,"dist_structure_km":0.75,"rayon_desserte_m":5000,"phase":2},"geometry":{"type":"Point","coordinates":[19.33505,3.54762]}},{"type":"Feature","properties":{"rang_500m":119,"nom":"PS Bogose","niveau":"Poste de santé","localite_proche":"Bogose","score_service":46.4,"pop_desservie_2030":1642,"charge_hab_structure":1642,"dist_structure_km":3.78,"rayon_desserte_m":3000,"phase":2},"geometry":{"type":"Point","coordinates":[19.28650,3.56299]}},{"type":"Feature","properties":{"rang_500m":33,"nom":"CS Bowazi","niveau":"Centre de santé","localite_proche":"Bowazi","score_service":71.2,"pop_desservie_2030":4700,"charge_hab_structure":4700,"dist_structure_km":5.13,"rayon_desserte_m":5000,"phase":2},"geometry":{"type":"Point","coordinates":[19.38979,3.48264]}},{"type":"Feature","properties":{"rang_500m":27,"nom":"PS Espoir","niveau":"Poste de santé","localite_proche":"Lisala","score_service":71.9,"pop_desservie_2030":203197,"charge_hab_structure":5806,"dist_structure_km":0.29,"rayon_desserte_m":3000,"phase":4},"geometry":{"type":"Point","coordinates":[21.50667,2.14811]}},{"type":"Feature","properties":{"rang_500m":18,"nom":"Mg Kimbanguiste Centre de Santé","niveau":"Centre de santé","localite_proche":"Lisala","score_service":73.3,"pop_desservie_2030":242777,"charge_hab_structure":5518,"dist_structure_km":0.37,"rayon_desserte_m":5000,"phase":4},"geometry":{"type":"Point","coordinates":[21.51679,2.14910]}},{"type":"Feature","properties":{"rang_500m":203,"nom":"Su Bambenga Centre de Santé","niveau":"Centre de santé","localite_proche":"Gbamundema II","score_service":21.2,"pop_desservie_2030":2735,"charge_hab_structure":456,"dist_structure_km":0.57,"rayon_desserte_m":5000,"phase":2},"geometry":{"type":"Point","coordinates":[18.7245,4.20039]}},{"type":"Feature","properties":{"rang_500m":29,"nom":"Su Kutu Centre de Santé","niveau":"Centre de santé","localite_proche":"Gemena","score_service":71.8,"pop_desservie_2030":436754,"charge_hab_structure":5079,"dist_structure_km":0.34,"rayon_desserte_m":5000,"phase":1},"geometry":{"type":"Point","coordinates":[19.78060,3.23789]}},{"type":"Feature","properties":{"rang_500m":125,"nom":"Su Talasuma Centre de Santé","niveau":"Centre de santé","localite_proche":"Talasua","score_service":44.0,"pop_desservie_2030":7104,"charge_hab_structure":1015,"dist_structure_km":0.89,"rayon_desserte_m":5000,"phase":1},"geometry":{"type":"Point","coordinates":[19.94520,2.85580]}},{"type":"Feature","properties":{"rang_500m":21,"nom":"Su Ville Centre de Santé","niveau":"Centre de santé","localite_proche":"Gemena","score_service":72.7,"pop_desservie_2030":437033,"charge_hab_structure":5203,"dist_structure_km":0.34,"rayon_desserte_m":5000,"phase":1},"geometry":{"type":"Point","coordinates":[19.77760,3.23860]}}]}