{"type":"FeatureCollection","features":[{"type":"Feature","properties":{"rang":80,"village":"Gbala","score_service":12.7,"nb_ecoles":1,"pop_2km_2030":164,"charge_hab_ecole":164,"dist_village_ecole_km":2.51,"declaration_partielle":0,"phase":2},"geometry":{"type":"Point","coordinates":[18.61845,4.29422]}},{"type":"Feature","properties":{"rang":59,"village":"Wenze II","score_service":34.0,"nb_ecoles":1,"pop_2km_2030":1518,"charge_hab_ecole":1518,"dist_village_ecole_km":2.14,"declaration_partielle":0,"phase":2},"geometry":{"type":"Point","coordinates":[18.63920,4.24667]}},{"type":"Feature","properties":{"rang":47,"village":"Wenze I","score_service":45.4,"nb_ecoles":1,"pop_2km_2030":2254,"charge_hab_ecole":2254,"dist_village_ecole_km":1.15,"declaration_partielle":0,"phase":2},"geometry":{"type":"Point","coordinates":[18.66490,4.23238]}},{"type":"Feature","properties":{"rang":43,"village":"Bondolo","score_service":48.4,"nb_ecoles":1,"pop_2km_2030":2289,"charge_hab_ecole":2289,"dist_village_ecole_km":1.15,"declaration_partielle":0,"phase":2},"geometry":{"type":"Point","coordinates":[18.65499,4.23555]}},{"type":"Feature","properties":{"rang":75,"village":"Sekia","score_service":19.1,"nb_ecoles":1,"pop_2km_2030":659,"charge_hab_ecole":659,"dist_village_ecole_km":2.51,"declaration_partielle":0,"phase":2},"geometry":{"type":"Point","coordinates":[18.62943,4.27438]}},{"type":"Feature","properties":{"rang":29,"village":"Molin 2kilo","score_service":58.7,"nb_ecoles":1,"pop_2km_2030":2953,"charge_hab_ecole":2953,"dist_village_ecole_km":1.84,"declaration_partielle":0,"phase":2},"geometry":{"type":"Point","coordinates":[18.77305,4.15555]}},{"type":"Feature","properties":{"rang":19,"village":"Molin ingonge","score_service":69.5,"nb_ecoles":1,"pop_2km_2030":4370,"charge_hab_ecole":4370,"dist_village_ecole_km":1.84,"declaration_partielle":0,"phase":2},"geometry":{"type":"Point","coordinates":[18.78871,4.15005]}},{"type":"Feature","properties":{"rang":27,"village":"Yongala pâturage","score_service":60.5,"nb_ecoles":1,"pop_2km_2030":2893,"charge_hab_ecole":2893,"dist_village_ecole_km":2.87,"declaration_partielle":0,"phase":2},"geometry":{"type":"Point","coordinates":[18.78528,4.12435]}},{"type":"Feature","properties":{"rang":79,"village":"Bumbala","score_service":14.1,"nb_ecoles":1,"pop_2km_2030":83,"charge_hab_ecole":83,"dist_village_ecole_km":3.48,"declaration_partielle":0,"phase":2},"geometry":{"type":"Point","coordinates":[18.75709,4.08884]}},{"type":"Feature","properties":{"rang":78,"village":"Dakamba","score_service":16.1,"nb_ecoles":1,"pop_2km_2030":370,"charge_hab_ecole":370,"dist_village_ecole_km":3.48,"declaration_partielle":0,"phase":2},"geometry":{"type":"Point","coordinates":[18.75126,4.05790]}},{"type":"Feature","properties":{"rang":69,"village":"Bungba","score_service":24.0,"nb_ecoles":2,"pop_2km_2030":842,"charge_hab_ecole":421,"dist_village_ecole_km":3.5,"declaration_partielle":0,"phase":2},"geometry":{"type":"Point","coordinates":[18.74568,4.02014]}},{"type":"Feature","properties":{"rang":74,"village":"Yu","score_service":19.6,"nb_ecoles":1,"pop_2km_2030":405,"charge_hab_ecole":405,"dist_village_ecole_km":3.5,"declaration_partielle":0,"phase":2},"geometry":{"type":"Point","coordinates":[18.73218,3.99158]}},{"type":"Feature","properties":{"rang":42,"village":"Udawu","score_service":49.1,"nb_ecoles":1,"pop_2km_2030":1848,"charge_hab_ecole":1848,"dist_village_ecole_km":5.22,"declaration_partielle":0,"phase":2},"geometry":{"type":"Point","coordinates":[18.69638,3.92390]}},{"type":"Feature","properties":{"rang":39,"village":"Nduma","score_service":49.5,"nb_ecoles":1,"pop_2km_2030":1855,"charge_hab_ecole":1855,"dist_village_ecole_km":5.22,"declaration_partielle":0,"phase":2},"geometry":{"type":"Point","coordinates":[18.68259,3.87877]}},{"type":"Feature","properties":{"rang":53,"village":"Kpagwa","score_service":38.4,"nb_ecoles":1,"pop_2km_2030":1341,"charge_hab_ecole":1341,"dist_village_ecole_km":6.78,"declaration_partielle":0,"phase":2},"geometry":{"type":"Point","coordinates":[18.71749,3.75461]}},{"type":"Feature","properties":{"rang":10,"village":"Boyabo","score_service":77.1,"nb_ecoles":1,"pop_2km_2030":12581,"charge_hab_ecole":12581,"dist_village_ecole_km":1.0,"declaration_partielle":1,"phase":2},"geometry":{"type":"Point","coordinates":[18.77000,3.71748]}},{"type":"Feature","properties":{"rang":11,"village":"Ndoroka","score_service":77.1,"nb_ecoles":2,"pop_2km_2030":17364,"charge_hab_ecole":8682,"dist_village_ecole_km":1.0,"declaration_partielle":0,"phase":2},"geometry":{"type":"Point","coordinates":[18.77185,3.72634]}},{"type":"Feature","properties":{"rang":72,"village":"Badza","score_service":21.6,"nb_ecoles":1,"pop_2km_2030":745,"charge_hab_ecole":745,"dist_village_ecole_km":3.21,"declaration_partielle":0,"phase":2},"geometry":{"type":"Point","coordinates":[18.79034,3.74868]}},{"type":"Feature","properties":{"rang":44,"village":"Bodala","score_service":48.4,"nb_ecoles":2,"pop_2km_2030":2271,"charge_hab_ecole":1136,"dist_village_ecole_km":5.03,"declaration_partielle":0,"phase":2},"geometry":{"type":"Point","coordinates":[18.83418,3.75995]}},{"type":"Feature","properties":{"rang":5,"village":"Bomuntu Munene","score_service":88.1,"nb_ecoles":1,"pop_2km_2030":5363,"charge_hab_ecole":5363,"dist_village_ecole_km":9.37,"declaration_partielle":0,"phase":2},"geometry":{"type":"Point","coordinates":[18.91628,3.77948]}},{"type":"Feature","properties":{"rang":49,"village":"Bondolo","score_service":44.5,"nb_ecoles":1,"pop_2km_2030":2277,"charge_hab_ecole":2277,"dist_village_ecole_km":2.15,"declaration_partielle":0,"phase":2},"geometry":{"type":"Point","coordinates":[19.00216,3.76945]}},{"type":"Feature","properties":{"rang":28,"village":"Bongiliyo","score_service":59.0,"nb_ecoles":2,"pop_2km_2030":5585,"charge_hab_ecole":2793,"dist_village_ecole_km":1.3,"declaration_partielle":0,"phase":2},"geometry":{"type":"Point","coordinates":[19.02127,3.76665]}},{"type":"Feature","properties":{"rang":13,"village":"Bokiliyo","score_service":72.8,"nb_ecoles":1,"pop_2km_2030":6044,"charge_hab_ecole":6044,"dist_village_ecole_km":1.3,"declaration_partielle":0,"phase":2},"geometry":{"type":"Point","coordinates":[19.03295,3.76579]}},{"type":"Feature","properties":{"rang":14,"village":"Bogbali Boyikama","score_service":72.3,"nb_ecoles":1,"pop_2km_2030":5328,"charge_hab_ecole":5328,"dist_village_ecole_km":1.59,"declaration_partielle":0,"phase":2},"geometry":{"type":"Point","coordinates":[19.04704,3.76343]}},{"type":"Feature","properties":{"rang":16,"village":"Bau","score_service":70.9,"nb_ecoles":1,"pop_2km_2030":4380,"charge_hab_ecole":4380,"dist_village_ecole_km":1.49,"declaration_partielle":0,"phase":2},"geometry":{"type":"Point","coordinates":[19.06966,3.74855]}},{"type":"Feature","properties":{"rang":12,"village":"Ngbodenge","score_service":76.0,"nb_ecoles":1,"pop_2km_2030":5674,"charge_hab_ecole":5674,"dist_village_ecole_km":1.49,"declaration_partielle":0,"phase":2},"geometry":{"type":"Point","coordinates":[19.08118,3.74166]}},{"type":"Feature","properties":{"rang":18,"village":"Bokembe","score_service":69.6,"nb_ecoles":2,"pop_2km_2030":5127,"charge_hab_ecole":2564,"dist_village_ecole_km":2.25,"declaration_partielle":0,"phase":2},"geometry":{"type":"Point","coordinates":[19.08906,3.72291]}},{"type":"Feature","properties":{"rang":25,"village":"Bozoko","score_service":61.7,"nb_ecoles":1,"pop_2km_2030":2416,"charge_hab_ecole":2416,"dist_village_ecole_km":3.53,"declaration_partielle":0,"phase":2},"geometry":{"type":"Point","coordinates":[19.09422,3.69145]}},{"type":"Feature","properties":{"rang":24,"village":"Boduli","score_service":62.3,"nb_ecoles":1,"pop_2km_2030":2464,"charge_hab_ecole":2464,"dist_village_ecole_km":3.59,"declaration_partielle":0,"phase":2},"geometry":{"type":"Point","coordinates":[19.10992,3.66310]}},{"type":"Feature","properties":{"rang":33,"village":"Bombaolo","score_service":52.8,"nb_ecoles":1,"pop_2km_2030":1891,"charge_hab_ecole":1891,"dist_village_ecole_km":8.53,"declaration_partielle":0,"phase":2},"geometry":{"type":"Point","coordinates":[19.18319,3.60261]}},{"type":"Feature","properties":{"rang":45,"village":"Bagilima","score_service":47.4,"nb_ecoles":2,"pop_2km_2030":2485,"charge_hab_ecole":1243,"dist_village_ecole_km":6.4,"declaration_partielle":0,"phase":2},"geometry":{"type":"Point","coordinates":[19.25516,3.57572]}},{"type":"Feature","properties":{"rang":73,"village":"Bondugwa","score_service":19.9,"nb_ecoles":1,"pop_2km_2030":661,"charge_hab_ecole":661,"dist_village_ecole_km":3.15,"declaration_partielle":0,"phase":2},"geometry":{"type":"Point","coordinates":[19.31069,3.56032]}},{"type":"Feature","properties":{"rang":63,"village":"Bobise","score_service":29.5,"nb_ecoles":1,"pop_2km_2030":1646,"charge_hab_ecole":1646,"dist_village_ecole_km":1.59,"declaration_partielle":0,"phase":2},"geometry":{"type":"Point","coordinates":[19.33596,3.54749]}},{"type":"Feature","properties":{"rang":68,"village":"Gbakombo","score_service":24.2,"nb_ecoles":1,"pop_2km_2030":1386,"charge_hab_ecole":1386,"dist_village_ecole_km":1.59,"declaration_partielle":0,"phase":2},"geometry":{"type":"Point","coordinates":[19.33596,3.53309]}},{"type":"Feature","properties":{"rang":71,"village":"Bongidi II","score_service":22.0,"nb_ecoles":2,"pop_2km_2030":921,"charge_hab_ecole":461,"dist_village_ecole_km":3.49,"declaration_partielle":0,"phase":2},"geometry":{"type":"Point","coordinates":[19.37970,3.50616]}},{"type":"Feature","properties":{"rang":77,"village":"Bowazi","score_service":17.8,"nb_ecoles":2,"pop_2km_2030":1962,"charge_hab_ecole":981,"dist_village_ecole_km":0.18,"declaration_partielle":0,"phase":2},"geometry":{"type":"Point","coordinates":[19.39121,3.47680]}},{"type":"Feature","properties":{"rang":64,"village":"Boboyo","score_service":29.5,"nb_ecoles":1,"pop_2km_2030":2010,"charge_hab_ecole":2010,"dist_village_ecole_km":0.18,"declaration_partielle":0,"phase":2},"geometry":{"type":"Point","coordinates":[19.39280,3.47680]}},{"type":"Feature","properties":{"rang":51,"village":"Bokembe II","score_service":39.5,"nb_ecoles":2,"pop_2km_2030":3188,"charge_hab_ecole":1594,"dist_village_ecole_km":1.31,"declaration_partielle":0,"phase":2},"geometry":{"type":"Point","coordinates":[19.38612,3.42829]}},{"type":"Feature","properties":{"rang":40,"village":"Bokembe I","score_service":49.4,"nb_ecoles":1,"pop_2km_2030":2959,"charge_hab_ecole":2959,"dist_village_ecole_km":0.0,"declaration_partielle":0,"phase":2},"geometry":{"type":"Point","coordinates":[19.38320,3.41680]}},{"type":"Feature","properties":{"rang":15,"village":"Mbari","score_service":71.3,"nb_ecoles":2,"pop_2km_2030":5437,"charge_hab_ecole":2718,"dist_village_ecole_km":2.56,"declaration_partielle":0,"phase":2},"geometry":{"type":"Point","coordinates":[19.39065,3.31895]}},{"type":"Feature","properties":{"rang":60,"village":"Bodebe","score_service":31.6,"nb_ecoles":1,"pop_2km_2030":1241,"charge_hab_ecole":1241,"dist_village_ecole_km":2.56,"declaration_partielle":0,"phase":2},"geometry":{"type":"Point","coordinates":[19.41361,3.32055]}},{"type":"Feature","properties":{"rang":41,"village":"Bongbada II","score_service":49.4,"nb_ecoles":1,"pop_2km_2030":2959,"charge_hab_ecole":2959,"dist_village_ecole_km":0.0,"declaration_partielle":0,"phase":2},"geometry":{"type":"Point","coordinates":[19.38320,3.41680]}},{"type":"Feature","properties":{"rang":31,"village":"Bongbada I","score_service":55.6,"nb_ecoles":1,"pop_2km_2030":2445,"charge_hab_ecole":2445,"dist_village_ecole_km":2.58,"declaration_partielle":0,"phase":2},"geometry":{"type":"Point","coordinates":[19.46549,3.30090]}},{"type":"Feature","properties":{"rang":56,"village":"Bosapkana","score_service":37.7,"nb_ecoles":1,"pop_2km_2030":1747,"charge_hab_ecole":1747,"dist_village_ecole_km":2.18,"declaration_partielle":0,"phase":2},"geometry":{"type":"Point","coordinates":[19.48846,3.29768]}},{"type":"Feature","properties":{"rang":6,"village":"Bozoko V","score_service":82.1,"nb_ecoles":1,"pop_2km_2030":8544,"charge_hab_ecole":8544,"dist_village_ecole_km":2.18,"declaration_partielle":0,"phase":2},"geometry":{"type":"Point","coordinates":[19.50763,3.29368]}},{"type":"Feature","properties":{"rang":30,"village":"Bozoko II","score_service":58.7,"nb_ecoles":2,"pop_2km_2030":5034,"charge_hab_ecole":2517,"dist_village_ecole_km":1.39,"declaration_partielle":0,"phase":2},"geometry":{"type":"Point","coordinates":[19.53497,3.28289]}},{"type":"Feature","properties":{"rang":38,"village":"Bozoko I","score_service":50.0,"nb_ecoles":2,"pop_2km_2030":4257,"charge_hab_ecole":2128,"dist_village_ecole_km":1.39,"declaration_partielle":0,"phase":2},"geometry":{"type":"Point","coordinates":[19.54742,3.28201]}},{"type":"Feature","properties":{"rang":22,"village":"Bodeme I","score_service":66.1,"nb_ecoles":1,"pop_2km_2030":4839,"charge_hab_ecole":4839,"dist_village_ecole_km":1.33,"declaration_partielle":0,"phase":2},"geometry":{"type":"Point","coordinates":[19.58858,3.27248]}},{"type":"Feature","properties":{"rang":34,"village":"Boduli I","score_service":52.6,"nb_ecoles":2,"pop_2km_2030":4345,"charge_hab_ecole":2172,"dist_village_ecole_km":1.33,"declaration_partielle":0,"phase":2},"geometry":{"type":"Point","coordinates":[19.60051,3.27276]}},{"type":"Feature","properties":{"rang":21,"village":"Bodenge","score_service":66.8,"nb_ecoles":1,"pop_2km_2030":3577,"charge_hab_ecole":3577,"dist_village_ecole_km":2.15,"declaration_partielle":0,"phase":2},"geometry":{"type":"Point","coordinates":[19.61968,3.27008]}},{"type":"Feature","properties":{"rang":9,"village":"Boyambi mbalina III","score_service":77.5,"nb_ecoles":1,"pop_2km_2030":3662,"charge_hab_ecole":3662,"dist_village_ecole_km":3.63,"declaration_partielle":0,"phase":2},"geometry":{"type":"Point","coordinates":[19.67174,3.24409]}},{"type":"Feature","properties":{"rang":23,"village":"Boyambi II","score_service":64.4,"nb_ecoles":1,"pop_2km_2030":3215,"charge_hab_ecole":3215,"dist_village_ecole_km":2.11,"declaration_partielle":0,"phase":2},"geometry":{"type":"Point","coordinates":[19.70111,3.22972]}},{"type":"Feature","properties":{"rang":50,"village":"Boyambi I","score_service":44.2,"nb_ecoles":1,"pop_2km_2030":2226,"charge_hab_ecole":2226,"dist_village_ecole_km":2.11,"declaration_partielle":0,"phase":2},"geometry":{"type":"Point","coordinates":[19.71638,3.24111]}},{"type":"Feature","properties":{"rang":1,"village":"Gemena","score_service":96.8,"nb_ecoles":2,"pop_2km_2030":103958,"charge_hab_ecole":51979,"dist_village_ecole_km":5.13,"declaration_partielle":1,"phase":2},"geometry":{"type":"Point","coordinates":[19.76672,3.26666]}},{"type":"Feature","properties":{"rang":2,"village":"Bokuda","score_service":96.8,"nb_ecoles":1,"pop_2km_2030":62502,"charge_hab_ecole":62502,"dist_village_ecole_km":5.13,"declaration_partielle":1,"phase":1},"geometry":{"type":"Point","coordinates":[19.77829,3.22171]}},{"type":"Feature","properties":{"rang":52,"village":"Boketa Salongo","score_service":38.5,"nb_ecoles":1,"pop_2km_2030":1514,"charge_hab_ecole":1514,"dist_village_ecole_km":5.09,"declaration_partielle":0,"phase":1},"geometry":{"type":"Point","coordinates":[19.81134,3.18791]}},{"type":"Feature","properties":{"rang":46,"village":"Bodiawa Moke","score_service":45.5,"nb_ecoles":2,"pop_2km_2030":3137,"charge_hab_ecole":1568,"dist_village_ecole_km":1.71,"declaration_partielle":0,"phase":1},"geometry":{"type":"Point","coordinates":[19.81871,3.12696]}},{"type":"Feature","properties":{"rang":26,"village":"Bodiawa Monene","score_service":60.8,"nb_ecoles":1,"pop_2km_2030":3069,"charge_hab_ecole":3069,"dist_village_ecole_km":1.71,"declaration_partielle":0,"phase":1},"geometry":{"type":"Point","coordinates":[19.81871,3.14244]}},{"type":"Feature","properties":{"rang":48,"village":"Bogeze","score_service":45.3,"nb_ecoles":1,"pop_2km_2030":2225,"charge_hab_ecole":2225,"dist_village_ecole_km":2.55,"declaration_partielle":0,"phase":1},"geometry":{"type":"Point","coordinates":[19.83318,3.10906]}},{"type":"Feature","properties":{"rang":35,"village":"Bomele","score_service":51.7,"nb_ecoles":1,"pop_2km_2030":2159,"charge_hab_ecole":2159,"dist_village_ecole_km":3.19,"declaration_partielle":0,"phase":1},"geometry":{"type":"Point","coordinates":[19.85780,3.08564]}},{"type":"Feature","properties":{"rang":8,"village":"Bozagba","score_service":79.6,"nb_ecoles":1,"pop_2km_2030":6285,"charge_hab_ecole":6285,"dist_village_ecole_km":1.75,"declaration_partielle":0,"phase":1},"geometry":{"type":"Point","coordinates":[19.88349,3.07282]}},{"type":"Feature","properties":{"rang":17,"village":"Bogoro TP V","score_service":69.9,"nb_ecoles":1,"pop_2km_2030":3857,"charge_hab_ecole":3857,"dist_village_ecole_km":1.75,"declaration_partielle":0,"phase":1},"geometry":{"type":"Point","coordinates":[19.88633,3.05726]}},{"type":"Feature","properties":{"rang":66,"village":"Bogoro TP III","score_service":27.0,"nb_ecoles":1,"pop_2km_2030":1453,"charge_hab_ecole":1453,"dist_village_ecole_km":1.18,"declaration_partielle":0,"phase":1},"geometry":{"type":"Point","coordinates":[19.89348,3.02972]}},{"type":"Feature","properties":{"rang":70,"village":"Bodongodale II TP","score_service":23.1,"nb_ecoles":1,"pop_2km_2030":1336,"charge_hab_ecole":1336,"dist_village_ecole_km":1.18,"declaration_partielle":0,"phase":1},"geometry":{"type":"Point","coordinates":[19.89579,3.01930]}},{"type":"Feature","properties":{"rang":32,"village":"Gbatikombo","score_service":53.1,"nb_ecoles":1,"pop_2km_2030":2533,"charge_hab_ecole":2533,"dist_village_ecole_km":2.3,"declaration_partielle":0,"phase":1},"geometry":{"type":"Point","coordinates":[19.89891,2.99870]}},{"type":"Feature","properties":{"rang":36,"village":"Bogalegba III","score_service":51.1,"nb_ecoles":1,"pop_2km_2030":2398,"charge_hab_ecole":2398,"dist_village_ecole_km":2.87,"declaration_partielle":0,"phase":1},"geometry":{"type":"Point","coordinates":[19.90057,2.96735]}},{"type":"Feature","properties":{"rang":58,"village":"Bogalegba II","score_service":36.8,"nb_ecoles":1,"pop_2km_2030":1701,"charge_hab_ecole":1701,"dist_village_ecole_km":2.08,"declaration_partielle":0,"phase":1},"geometry":{"type":"Point","coordinates":[19.90180,2.94146]}},{"type":"Feature","properties":{"rang":65,"village":"Boguaka","score_service":29.1,"nb_ecoles":2,"pop_2km_2030":1818,"charge_hab_ecole":909,"dist_village_ecole_km":2.08,"declaration_partielle":0,"phase":1},"geometry":{"type":"Point","coordinates":[19.90655,2.92322]}},{"type":"Feature","properties":{"rang":67,"village":"Bozagba sua","score_service":24.3,"nb_ecoles":2,"pop_2km_2030":2268,"charge_hab_ecole":1134,"dist_village_ecole_km":0.84,"declaration_partielle":0,"phase":1},"geometry":{"type":"Point","coordinates":[19.94165,2.86098]}},{"type":"Feature","properties":{"rang":55,"village":"Talasua","score_service":37.9,"nb_ecoles":1,"pop_2km_2030":2269,"charge_hab_ecole":2269,"dist_village_ecole_km":0.84,"declaration_partielle":0,"phase":1},"geometry":{"type":"Point","coordinates":[19.94548,2.85445]}},{"type":"Feature","properties":{"rang":20,"village":"Yabaza I","score_service":67.6,"nb_ecoles":1,"pop_2km_2030":2710,"charge_hab_ecole":2710,"dist_village_ecole_km":4.43,"declaration_partielle":0,"phase":1},"geometry":{"type":"Point","coordinates":[19.96721,2.82084]}},{"type":"Feature","properties":{"rang":61,"village":"Gbulu","score_service":31.5,"nb_ecoles":1,"pop_2km_2030":1094,"charge_hab_ecole":1094,"dist_village_ecole_km":8.49,"declaration_partielle":0,"phase":1},"geometry":{"type":"Point","coordinates":[19.99296,2.74851]}},{"type":"Feature","properties":{"rang":54,"village":"Kuma","score_service":38.4,"nb_ecoles":1,"pop_2km_2030":1373,"charge_hab_ecole":1373,"dist_village_ecole_km":8.07,"declaration_partielle":0,"phase":1},"geometry":{"type":"Point","coordinates":[20.13991,2.43145]}},{"type":"Feature","properties":{"rang":7,"village":"Akula","score_service":79.7,"nb_ecoles":1,"pop_2km_2030":4167,"charge_hab_ecole":4167,"dist_village_ecole_km":8.07,"declaration_partielle":0,"phase":1},"geometry":{"type":"Point","coordinates":[20.18416,2.37363]}},{"type":"Feature","properties":{"rang":37,"village":"Bosombuma","score_service":51.1,"nb_ecoles":1,"pop_2km_2030":2199,"charge_hab_ecole":2199,"dist_village_ecole_km":2.19,"declaration_partielle":0,"phase":3},"geometry":{"type":"Point","coordinates":[18.75880,3.70118]}},{"type":"Feature","properties":{"rang":76,"village":"Boduko","score_service":19.1,"nb_ecoles":1,"pop_2km_2030":381,"charge_hab_ecole":381,"dist_village_ecole_km":4.72,"declaration_partielle":0,"phase":3},"geometry":{"type":"Point","coordinates":[18.71701,3.69335]}},{"type":"Feature","properties":{"rang":3,"village":"Boso Nzimbelo","score_service":88.2,"nb_ecoles":1,"pop_2km_2030":38603,"charge_hab_ecole":38603,"dist_village_ecole_km":2.36,"declaration_partielle":1,"phase":3},"geometry":{"type":"Point","coordinates":[18.65149,3.65236]}},{"type":"Feature","properties":{"rang":4,"village":"Libenge","score_service":88.2,"nb_ecoles":2,"pop_2km_2030":54187,"charge_hab_ecole":27093,"dist_village_ecole_km":2.36,"declaration_partielle":1,"phase":3},"geometry":{"type":"Point","coordinates":[18.63166,3.64472]}},{"type":"Feature","properties":{"rang":62,"village":"Banga","score_service":31.1,"nb_ecoles":1,"pop_2km_2030":1225,"charge_hab_ecole":1225,"dist_village_ecole_km":5.59,"declaration_partielle":0,"phase":3},"geometry":{"type":"Point","coordinates":[18.59483,3.71246]}},{"type":"Feature","properties":{"rang":57,"village":"Kambe (Campement des PA)","score_service":37.7,"nb_ecoles":1,"pop_2km_2030":887,"charge_hab_ecole":887,"dist_village_ecole_km":4.33,"declaration_partielle":0,"phase":3},"geometry":{"type":"Point","coordinates":[18.63969,3.68969]}}]}