{"type":"FeatureCollection","features":[{"type":"Feature","properties":{"village":"Agene Gbali (Village des pêcheurs)","riviere":"Rivière Ubangui","nb_ponts":0,"phase":2},"geometry":{"type":"Point","coordinates":[18.64058,4.35938]}},{"type":"Feature","properties":{"village":"Gbala","riviere":"Rivière Gbla","nb_ponts":0,"phase":2},"geometry":{"type":"Point","coordinates":[18.62916,4.27027]}},{"type":"Feature","properties":{"village":"Gbamundema I","riviere":"Nande","nb_ponts":1,"phase":2},"geometry":{"type":"Point","coordinates":[18.75727,4.17586]}},{"type":"Feature","properties":{"village":"Dakamba","riviere":"Rivière Duka","nb_ponts":1,"phase":2},"geometry":{"type":"Point","coordinates":[18.74677,4.05265]}},{"type":"Feature","properties":{"village":"Mase Muda","riviere":"Rivière Masemuda","nb_ponts":0,"phase":2},"geometry":{"type":"Point","coordinates":[18.69663,3.83518]}},{"type":"Feature","properties":{"village":"Mase Dima","riviere":"Rivière Ngene","nb_ponts":1,"phase":2},"geometry":{"type":"Point","coordinates":[18.70521,3.79795]}},{"type":"Feature","properties":{"village":"Bomuntu Munene","riviere":"Rivière Mosekpe","nb_ponts":1,"phase":2},"geometry":{"type":"Point","coordinates":[18.95927,3.77064]}},{"type":"Feature","properties":{"village":"Bagilima","riviere":"Rivière Lua","nb_ponts":1,"phase":2},"geometry":{"type":"Point","coordinates":[19.26484,3.56835]}},{"type":"Feature","properties":{"village":"Bobise","riviere":"Rivière Ngonda","nb_ponts":1,"phase":2},"geometry":{"type":"Point","coordinates":[19.31203,3.56031]}},{"type":"Feature","properties":{"village":"Bowazi","riviere":"Tombe","nb_ponts":1,"phase":3},"geometry":{"type":"Point","coordinates":[18.58711,3.49931]}},{"type":"Feature","properties":{"village":"Bogoro TP IV","riviere":"Lac djele","nb_ponts":0,"phase":1},"geometry":{"type":"Point","coordinates":[19.88687,3.05373]}}]}