{"type":"FeatureCollection","features":[{"type":"Feature","properties":{"nom":"Gbala - 1 centre(s) de sante","niveau_sante":"Niveau non renseigné (déclaration village)","localite_proche":"Gbala","zone_sante":"","aire_sante":"","phase":2,"source_courte":"Terrain"},"geometry":{"type":"Point","coordinates":[18.61845,4.29422]}},{"type":"Feature","properties":{"nom":"Wenze II - 1 centre(s) de sante","niveau_sante":"Niveau non renseigné (déclaration village)","localite_proche":"Wenze II","zone_sante":"","aire_sante":"","phase":2,"source_courte":"Terrain"},"geometry":{"type":"Point","coordinates":[18.63920,4.24668]}},{"type":"Feature","properties":{"nom":"Wenze I - 1 centre(s) de sante","niveau_sante":"Niveau non renseigné (déclaration village)","localite_proche":"Wenze I","zone_sante":"","aire_sante":"","phase":2,"source_courte":"Terrain"},"geometry":{"type":"Point","coordinates":[18.66490,4.23238]}},{"type":"Feature","properties":{"nom":"Babenga - 2 centre(s) de sante","niveau_sante":"Niveau non renseigné (déclaration village)","localite_proche":"Babenga","zone_sante":"","aire_sante":"","phase":2,"source_courte":"Terrain"},"geometry":{"type":"Point","coordinates":[18.68166,4.22012]}},{"type":"Feature","properties":{"nom":"Molin 2kilo - 1 centre(s) de sante","niveau_sante":"Niveau non renseigné (déclaration village)","localite_proche":"Molin 2kilo","zone_sante":"","aire_sante":"","phase":2,"source_courte":"Terrain"},"geometry":{"type":"Point","coordinates":[18.77305,4.15555]}},{"type":"Feature","properties":{"nom":"Molin ingonge - 1 centre(s) de sante","niveau_sante":"Niveau non renseigné (déclaration village)","localite_proche":"Molin ingonge","zone_sante":"","aire_sante":"","phase":2,"source_courte":"Terrain"},"geometry":{"type":"Point","coordinates":[18.78871,4.15005]}},{"type":"Feature","properties":{"nom":"Yongalu pâturage - 1 centre(s) de sante","niveau_sante":"Niveau non renseigné (déclaration village)","localite_proche":"Yongalu pâturage","zone_sante":"","aire_sante":"","phase":2,"source_courte":"Terrain"},"geometry":{"type":"Point","coordinates":[18.78755,4.12766]}},{"type":"Feature","properties":{"nom":"Bumbala - 1 centre(s) de sante","niveau_sante":"Niveau non renseigné (déclaration village)","localite_proche":"Bumbala","zone_sante":"","aire_sante":"","phase":2,"source_courte":"Terrain"},"geometry":{"type":"Point","coordinates":[18.75709,4.08884]}},{"type":"Feature","properties":{"nom":"Bungba - 1 centre(s) de sante","niveau_sante":"Niveau non renseigné (déclaration village)","localite_proche":"Bungba","zone_sante":"","aire_sante":"","phase":2,"source_courte":"Terrain"},"geometry":{"type":"Point","coordinates":[18.74568,4.02014]}},{"type":"Feature","properties":{"nom":"Katako - 1 centre(s) de sante","niveau_sante":"Niveau non renseigné (déclaration village)","localite_proche":"Katako","zone_sante":"","aire_sante":"","phase":2,"source_courte":"Terrain"},"geometry":{"type":"Point","coordinates":[18.70289,3.94070]}},{"type":"Feature","properties":{"nom":"Udawu - 1 centre(s) de sante","niveau_sante":"Niveau non renseigné (déclaration village)","localite_proche":"Udawu","zone_sante":"","aire_sante":"","phase":2,"source_courte":"Terrain"},"geometry":{"type":"Point","coordinates":[18.69638,3.92390]}},{"type":"Feature","properties":{"nom":"Nduma - 1 centre(s) de sante","niveau_sante":"Niveau non renseigné (déclaration village)","localite_proche":"Nduma","zone_sante":"","aire_sante":"","phase":2,"source_courte":"Terrain"},"geometry":{"type":"Point","coordinates":[18.68259,3.87877]}},{"type":"Feature","properties":{"nom":"Mase Kolande - 1 centre(s) de sante","niveau_sante":"Niveau non renseigné (déclaration village)","localite_proche":"Mase Kolande","zone_sante":"","aire_sante":"","phase":2,"source_courte":"Terrain"},"geometry":{"type":"Point","coordinates":[18.69532,3.82268]}},{"type":"Feature","properties":{"nom":"Kpagwa - 1 centre(s) de sante","niveau_sante":"Niveau non renseigné (déclaration village)","localite_proche":"Kpagwa","zone_sante":"","aire_sante":"","phase":2,"source_courte":"Terrain"},"geometry":{"type":"Point","coordinates":[18.71749,3.75461]}},{"type":"Feature","properties":{"nom":"Boyabo - 1 centre(s) de sante","niveau_sante":"Niveau non renseigné (déclaration village)","localite_proche":"Boyabo","zone_sante":"","aire_sante":"","phase":2,"source_courte":"Terrain"},"geometry":{"type":"Point","coordinates":[18.77000,3.71748]}},{"type":"Feature","properties":{"nom":"Badza - 1 centre(s) de sante","niveau_sante":"Niveau non renseigné (déclaration village)","localite_proche":"Badza","zone_sante":"","aire_sante":"","phase":2,"source_courte":"Terrain"},"geometry":{"type":"Point","coordinates":[18.79034,3.74868]}},{"type":"Feature","properties":{"nom":"Bogdasiko - 1 centre(s) de sante","niveau_sante":"Niveau non renseigné (déclaration village)","localite_proche":"Bogdasiko","zone_sante":"","aire_sante":"","phase":2,"source_courte":"Terrain"},"geometry":{"type":"Point","coordinates":[18.86247,3.76823]}},{"type":"Feature","properties":{"nom":"Bomanga (fataki et mafua) - 1 centre(s) de sante","niveau_sante":"Niveau non renseigné (déclaration village)","localite_proche":"Bomanga (fataki et mafua)","zone_sante":"","aire_sante":"","phase":2,"source_courte":"Terrain"},"geometry":{"type":"Point","coordinates":[18.88619,3.77621]}},{"type":"Feature","properties":{"nom":"Bomuntu Munene - 1 centre(s) de sante","niveau_sante":"Niveau non renseigné (déclaration village)","localite_proche":"Bomuntu Munene","zone_sante":"","aire_sante":"","phase":2,"source_courte":"Terrain"},"geometry":{"type":"Point","coordinates":[18.91628,3.77948]}},{"type":"Feature","properties":{"nom":"Bokiliyo - 1 centre(s) de sante","niveau_sante":"Niveau non renseigné (déclaration village)","localite_proche":"Bokiliyo","zone_sante":"","aire_sante":"","phase":2,"source_courte":"Terrain"},"geometry":{"type":"Point","coordinates":[19.03295,3.7658]}},{"type":"Feature","properties":{"nom":"Bau - 1 centre(s) de sante","niveau_sante":"Niveau non renseigné (déclaration village)","localite_proche":"Bau","zone_sante":"","aire_sante":"","phase":2,"source_courte":"Terrain"},"geometry":{"type":"Point","coordinates":[19.06966,3.74855]}},{"type":"Feature","properties":{"nom":"Botela - 1 centre(s) de sante","niveau_sante":"Niveau non renseigné (déclaration village)","localite_proche":"Botela","zone_sante":"","aire_sante":"","phase":2,"source_courte":"Terrain"},"geometry":{"type":"Point","coordinates":[19.07610,3.74540]}},{"type":"Feature","properties":{"nom":"Bokembe - 1 centre(s) de sante","niveau_sante":"Niveau non renseigné (déclaration village)","localite_proche":"Bokembe","zone_sante":"","aire_sante":"","phase":2,"source_courte":"Terrain"},"geometry":{"type":"Point","coordinates":[19.08906,3.72291]}},{"type":"Feature","properties":{"nom":"Bozoko - 1 centre(s) de sante","niveau_sante":"Niveau non renseigné (déclaration village)","localite_proche":"Bozoko","zone_sante":"","aire_sante":"","phase":2,"source_courte":"Terrain"},"geometry":{"type":"Point","coordinates":[19.09422,3.69145]}},{"type":"Feature","properties":{"nom":"Bogbali - 1 centre(s) de sante","niveau_sante":"Niveau non renseigné (déclaration village)","localite_proche":"Bogbali","zone_sante":"","aire_sante":"","phase":2,"source_courte":"Terrain"},"geometry":{"type":"Point","coordinates":[19.15047,3.61597]}},{"type":"Feature","properties":{"nom":"Bagilima - 1 centre(s) de sante","niveau_sante":"Niveau non renseigné (déclaration village)","localite_proche":"Bagilima","zone_sante":"","aire_sante":"","phase":2,"source_courte":"Terrain"},"geometry":{"type":"Point","coordinates":[19.25516,3.57572]}},{"type":"Feature","properties":{"nom":"Bogose - 1 centre(s) de sante","niveau_sante":"Niveau non renseigné (déclaration village)","localite_proche":"Bogose","zone_sante":"","aire_sante":"","phase":2,"source_courte":"Terrain"},"geometry":{"type":"Point","coordinates":[19.28034,3.56367]}},{"type":"Feature","properties":{"nom":"Bobise - 1 centre(s) de sante","niveau_sante":"Niveau non renseigné (déclaration village)","localite_proche":"Bobise","zone_sante":"","aire_sante":"","phase":2,"source_courte":"Terrain"},"geometry":{"type":"Point","coordinates":[19.33596,3.54749]}},{"type":"Feature","properties":{"nom":"Bowazi - 1 centre(s) de sante","niveau_sante":"Niveau non renseigné (déclaration village)","localite_proche":"Bowazi","zone_sante":"","aire_sante":"","phase":2,"source_courte":"Terrain"},"geometry":{"type":"Point","coordinates":[19.39121,3.47680]}},{"type":"Feature","properties":{"nom":"Bokembe I - 1 centre(s) de sante","niveau_sante":"Niveau non renseigné (déclaration village)","localite_proche":"Bongbada II","zone_sante":"","aire_sante":"","phase":2,"source_courte":"Terrain"},"geometry":{"type":"Point","coordinates":[19.38320,3.41680]}},{"type":"Feature","properties":{"nom":"Mbari - 1 centre(s) de sante","niveau_sante":"Niveau non renseigné (déclaration village)","localite_proche":"Mbari","zone_sante":"","aire_sante":"","phase":2,"source_courte":"Terrain"},"geometry":{"type":"Point","coordinates":[19.39065,3.31895]}},{"type":"Feature","properties":{"nom":"Bongbada II - 1 centre(s) de sante","niveau_sante":"Niveau non renseigné (déclaration village)","localite_proche":"Bongbada II","zone_sante":"","aire_sante":"","phase":2,"source_courte":"Terrain"},"geometry":{"type":"Point","coordinates":[19.38320,3.41680]}},{"type":"Feature","properties":{"nom":"Bongbada I - 1 centre(s) de sante","niveau_sante":"Niveau non renseigné (déclaration village)","localite_proche":"Bongbada I","zone_sante":"","aire_sante":"","phase":2,"source_courte":"Terrain"},"geometry":{"type":"Point","coordinates":[19.46549,3.3009]}},{"type":"Feature","properties":{"nom":"Bosapkana - 1 centre(s) de sante","niveau_sante":"Niveau non renseigné (déclaration village)","localite_proche":"Bosapkana","zone_sante":"","aire_sante":"","phase":2,"source_courte":"Terrain"},"geometry":{"type":"Point","coordinates":[19.48846,3.29768]}},{"type":"Feature","properties":{"nom":"Bozoko V - 1 centre(s) de sante","niveau_sante":"Niveau non renseigné (déclaration village)","localite_proche":"Bozoko V","zone_sante":"","aire_sante":"","phase":2,"source_courte":"Terrain"},"geometry":{"type":"Point","coordinates":[19.50763,3.29369]}},{"type":"Feature","properties":{"nom":"Bozoko II - 1 centre(s) de sante","niveau_sante":"Niveau non renseigné (déclaration village)","localite_proche":"Bozoko II","zone_sante":"","aire_sante":"","phase":2,"source_courte":"Terrain"},"geometry":{"type":"Point","coordinates":[19.53497,3.28289]}},{"type":"Feature","properties":{"nom":"Bozoko I - 1 centre(s) de sante","niveau_sante":"Niveau non renseigné (déclaration village)","localite_proche":"Bozoko I","zone_sante":"","aire_sante":"","phase":2,"source_courte":"Terrain"},"geometry":{"type":"Point","coordinates":[19.54742,3.28201]}},{"type":"Feature","properties":{"nom":"Bodeme II - 1 centre(s) de sante","niveau_sante":"Niveau non renseigné (déclaration village)","localite_proche":"Bodeme II","zone_sante":"","aire_sante":"","phase":2,"source_courte":"Terrain"},"geometry":{"type":"Point","coordinates":[19.56876,3.28185]}},{"type":"Feature","properties":{"nom":"Bodeme I - 1 centre(s) de sante","niveau_sante":"Niveau non renseigné (déclaration village)","localite_proche":"Bodeme I","zone_sante":"","aire_sante":"","phase":2,"source_courte":"Terrain"},"geometry":{"type":"Point","coordinates":[19.58858,3.27248]}},{"type":"Feature","properties":{"nom":"Boduli I - 1 centre(s) de sante","niveau_sante":"Niveau non renseigné (déclaration village)","localite_proche":"Boduli I","zone_sante":"","aire_sante":"","phase":2,"source_courte":"Terrain"},"geometry":{"type":"Point","coordinates":[19.60051,3.27276]}},{"type":"Feature","properties":{"nom":"Boyambi mbalina III - 1 centre(s) de sante","niveau_sante":"Niveau non renseigné (déclaration village)","localite_proche":"Boyambi mbalina III","zone_sante":"","aire_sante":"","phase":2,"source_courte":"Terrain"},"geometry":{"type":"Point","coordinates":[19.67174,3.24409]}},{"type":"Feature","properties":{"nom":"Boyambi II - 1 centre(s) de sante","niveau_sante":"Niveau non renseigné (déclaration village)","localite_proche":"Boyambi II","zone_sante":"","aire_sante":"","phase":2,"source_courte":"Terrain"},"geometry":{"type":"Point","coordinates":[19.70111,3.22972]}},{"type":"Feature","properties":{"nom":"Boyambi I - 1 centre(s) de sante","niveau_sante":"Niveau non renseigné (déclaration village)","localite_proche":"Boyambi I","zone_sante":"","aire_sante":"","phase":2,"source_courte":"Terrain"},"geometry":{"type":"Point","coordinates":[19.71638,3.24111]}},{"type":"Feature","properties":{"nom":"Bokuda - 1 centre(s) de sante","niveau_sante":"Niveau non renseigné (déclaration village)","localite_proche":"Bokuda","zone_sante":"","aire_sante":"","phase":1,"source_courte":"Terrain"},"geometry":{"type":"Point","coordinates":[19.77829,3.22171]}},{"type":"Feature","properties":{"nom":"Bodiawa Monene - 1 centre(s) de sante","niveau_sante":"Niveau non renseigné (déclaration village)","localite_proche":"Bodiawa Monene","zone_sante":"","aire_sante":"","phase":1,"source_courte":"Terrain"},"geometry":{"type":"Point","coordinates":[19.81871,3.14244]}},{"type":"Feature","properties":{"nom":"Bomele - 1 centre(s) de sante","niveau_sante":"Niveau non renseigné (déclaration village)","localite_proche":"Bomele","zone_sante":"","aire_sante":"","phase":1,"source_courte":"Terrain"},"geometry":{"type":"Point","coordinates":[19.85780,3.08564]}},{"type":"Feature","properties":{"nom":"Bozagba - 1 centre(s) de sante","niveau_sante":"Niveau non renseigné (déclaration village)","localite_proche":"Bozagba","zone_sante":"","aire_sante":"","phase":1,"source_courte":"Terrain"},"geometry":{"type":"Point","coordinates":[19.88349,3.07282]}},{"type":"Feature","properties":{"nom":"Bogoro TP V - 1 centre(s) de sante","niveau_sante":"Niveau non renseigné (déclaration village)","localite_proche":"Bogoro TP V","zone_sante":"","aire_sante":"","phase":1,"source_courte":"Terrain"},"geometry":{"type":"Point","coordinates":[19.88633,3.05726]}},{"type":"Feature","properties":{"nom":"Bogoro TP III - 1 centre(s) de sante","niveau_sante":"Niveau non renseigné (déclaration village)","localite_proche":"Bogoro TP III","zone_sante":"","aire_sante":"","phase":1,"source_courte":"Terrain"},"geometry":{"type":"Point","coordinates":[19.89348,3.02972]}},{"type":"Feature","properties":{"nom":"Bodongodale II TP - 1 centre(s) de sante","niveau_sante":"Niveau non renseigné (déclaration village)","localite_proche":"Bodongodale II TP","zone_sante":"","aire_sante":"","phase":1,"source_courte":"Terrain"},"geometry":{"type":"Point","coordinates":[19.89579,3.01931]}},{"type":"Feature","properties":{"nom":"Gbatikombo - 2 centre(s) de sante","niveau_sante":"Niveau non renseigné (déclaration village)","localite_proche":"Gbatikombo","zone_sante":"","aire_sante":"","phase":1,"source_courte":"Terrain"},"geometry":{"type":"Point","coordinates":[19.89891,2.99870]}},{"type":"Feature","properties":{"nom":"Bogalegba II - 2 centre(s) de sante","niveau_sante":"Niveau non renseigné (déclaration village)","localite_proche":"Bogalegba II","zone_sante":"","aire_sante":"","phase":1,"source_courte":"Terrain"},"geometry":{"type":"Point","coordinates":[19.90180,2.94146]}},{"type":"Feature","properties":{"nom":"Boguaka - 1 centre(s) de sante","niveau_sante":"Niveau non renseigné (déclaration village)","localite_proche":"Boguaka","zone_sante":"","aire_sante":"","phase":1,"source_courte":"Terrain"},"geometry":{"type":"Point","coordinates":[19.90655,2.92322]}},{"type":"Feature","properties":{"nom":"Bozagba sua - 1 centre(s) de sante","niveau_sante":"Niveau non renseigné (déclaration village)","localite_proche":"Bozagba sua","zone_sante":"","aire_sante":"","phase":1,"source_courte":"Terrain"},"geometry":{"type":"Point","coordinates":[19.94165,2.86098]}},{"type":"Feature","properties":{"nom":"Talasua - 1 centre(s) de sante","niveau_sante":"Niveau non renseigné (déclaration village)","localite_proche":"Talasua","zone_sante":"","aire_sante":"","phase":1,"source_courte":"Terrain"},"geometry":{"type":"Point","coordinates":[19.94548,2.85445]}},{"type":"Feature","properties":{"nom":"Yabaza I - 1 centre(s) de sante","niveau_sante":"Niveau non renseigné (déclaration village)","localite_proche":"Yabaza I","zone_sante":"","aire_sante":"","phase":1,"source_courte":"Terrain"},"geometry":{"type":"Point","coordinates":[19.96721,2.82084]}},{"type":"Feature","properties":{"nom":"Kuma - 1 centre(s) de sante","niveau_sante":"Niveau non renseigné (déclaration village)","localite_proche":"Kuma","zone_sante":"","aire_sante":"","phase":1,"source_courte":"Terrain"},"geometry":{"type":"Point","coordinates":[20.13991,2.43145]}},{"type":"Feature","properties":{"nom":"Akula - 1 centre(s) de sante","niveau_sante":"Niveau non renseigné (déclaration village)","localite_proche":"Akula","zone_sante":"","aire_sante":"","phase":1,"source_courte":"Terrain"},"geometry":{"type":"Point","coordinates":[20.18416,2.37363]}},{"type":"Feature","properties":{"nom":"Boduko - 1 centre(s) de sante","niveau_sante":"Niveau non renseigné (déclaration village)","localite_proche":"Boduko","zone_sante":"","aire_sante":"","phase":3,"source_courte":"Terrain"},"geometry":{"type":"Point","coordinates":[18.71701,3.69335]}},{"type":"Feature","properties":{"nom":"Boso Nzimbelo - 1 centre(s) de sante","niveau_sante":"Niveau non renseigné (déclaration village)","localite_proche":"Boso Nzimbelo","zone_sante":"","aire_sante":"","phase":3,"source_courte":"Terrain"},"geometry":{"type":"Point","coordinates":[18.65149,3.65236]}},{"type":"Feature","properties":{"nom":"Libenge - 3 centre(s) de sante","niveau_sante":"Niveau non renseigné (déclaration village)","localite_proche":"Libenge","zone_sante":"","aire_sante":"","phase":3,"source_courte":"Terrain"},"geometry":{"type":"Point","coordinates":[18.63166,3.64472]}},{"type":"Feature","properties":{"nom":"CS Bokonzi","niveau_sante":"Centre de santé","localite_proche":"Mbokutu","zone_sante":"Binga","aire_sante":"Bokonzi","phase":4,"source_courte":"GRID3"},"geometry":{"type":"Point","coordinates":[20.76608,2.19207]}},{"type":"Feature","properties":{"nom":"SSC Kaipande","niveau_sante":"Site de soins communautaires","localite_proche":"Mbokutu","zone_sante":"Binga","aire_sante":"Bongonde","phase":4,"source_courte":"GRID3"},"geometry":{"type":"Point","coordinates":[20.80078,2.19868]}},{"type":"Feature","properties":{"nom":"CS Bobila","niveau_sante":"Centre de santé","localite_proche":"Bobila","zone_sante":"Lisala","aire_sante":"Bobila","phase":4,"source_courte":"GRID3"},"geometry":{"type":"Point","coordinates":[21.08858,2.22228]}},{"type":"Feature","properties":{"nom":"PS Lingobo","niveau_sante":"Poste de santé","localite_proche":"Lingobo","zone_sante":"Lisala","aire_sante":"Sambo","phase":4,"source_courte":"GRID3"},"geometry":{"type":"Point","coordinates":[20.95084,2.22359]}},{"type":"Feature","properties":{"nom":"PS Epesa","niveau_sante":"Poste de santé","localite_proche":"Epesa","zone_sante":"Lisala","aire_sante":"Sambo","phase":4,"source_courte":"GRID3"},"geometry":{"type":"Point","coordinates":[21.01838,2.22706]}},{"type":"Feature","properties":{"nom":"CS Sambo","niveau_sante":"Centre de santé","localite_proche":"Sambo","zone_sante":"Lisala","aire_sante":"Sambo","phase":4,"source_courte":"GRID3"},"geometry":{"type":"Point","coordinates":[20.90026,2.22344]}},{"type":"Feature","properties":{"nom":"CS Bokutu","niveau_sante":"Centre de santé","localite_proche":"Mbokutu","zone_sante":"Binga","aire_sante":"Bokutu","phase":4,"source_courte":"GRID3"},"geometry":{"type":"Point","coordinates":[20.70180,2.19133]}},{"type":"Feature","properties":{"nom":"PS Cite Salongo","niveau_sante":"Poste de santé","localite_proche":"Cite Salongo","zone_sante":"Lisala","aire_sante":"Bobila","phase":4,"source_courte":"GRID3"},"geometry":{"type":"Point","coordinates":[21.12320,2.21877]}},{"type":"Feature","properties":{"nom":"PS Mbelo","niveau_sante":"Poste de santé","localite_proche":"Mbelo 1","zone_sante":"Lisala","aire_sante":"Bobila","phase":4,"source_courte":"GRID3"},"geometry":{"type":"Point","coordinates":[21.06229,2.22631]}},{"type":"Feature","properties":{"nom":"PS Mgr Nganga","niveau_sante":"Poste de santé","localite_proche":"Mabela Lisala","zone_sante":"Lisala","aire_sante":"Makomu","phase":4,"source_courte":"GRID3"},"geometry":{"type":"Point","coordinates":[21.22589,2.19252]}},{"type":"Feature","properties":{"nom":"CS Bongonde","niveau_sante":"Centre de santé","localite_proche":"Bokemo 2","zone_sante":"Binga","aire_sante":"Bongonde","phase":4,"source_courte":"GRID3"},"geometry":{"type":"Point","coordinates":[20.84481,2.20573]}},{"type":"Feature","properties":{"nom":"SSC Makungu","niveau_sante":"Site de soins communautaires","localite_proche":"Makungu","zone_sante":"Lisala","aire_sante":"Bobila","phase":4,"source_courte":"GRID3"},"geometry":{"type":"Point","coordinates":[21.11367,2.21809]}},{"type":"Feature","properties":{"nom":"CS Makomu","niveau_sante":"Centre de santé","localite_proche":"Makomu","zone_sante":"Lisala","aire_sante":"Makomu","phase":4,"source_courte":"GRID3"},"geometry":{"type":"Point","coordinates":[21.16357,2.21210]}},{"type":"Feature","properties":{"nom":"CS Bosamboda","niveau_sante":"Centre de santé","localite_proche":"Bosamboda","zone_sante":"Lisala","aire_sante":"Bosamboda","phase":4,"source_courte":"GRID3"},"geometry":{"type":"Point","coordinates":[21.29431,2.17332]}},{"type":"Feature","properties":{"nom":"SSC Bosangu","niveau_sante":"Site de soins communautaires","localite_proche":"Gundji","zone_sante":"Lisala","aire_sante":"Bosamboda","phase":4,"source_courte":"GRID3"},"geometry":{"type":"Point","coordinates":[21.35081,2.17073]}},{"type":"Feature","properties":{"nom":"PS Gbaka","niveau_sante":"Poste de santé","localite_proche":"Ngwaka","zone_sante":"Lisala","aire_sante":"Bosamboda","phase":4,"source_courte":"GRID3"},"geometry":{"type":"Point","coordinates":[21.33878,2.18244]}},{"type":"Feature","properties":{"nom":"SSC Bongbaka","niveau_sante":"Site de soins communautaires","localite_proche":"Gundji","zone_sante":"Lisala","aire_sante":"Mondingili","phase":4,"source_courte":"GRID3"},"geometry":{"type":"Point","coordinates":[21.35684,2.16835]}},{"type":"Feature","properties":{"nom":"CS Mondingili","niveau_sante":"Centre de santé","localite_proche":"Lisala","zone_sante":"Lisala","aire_sante":"Mondingili","phase":4,"source_courte":"GRID3"},"geometry":{"type":"Point","coordinates":[21.38401,2.16847]}},{"type":"Feature","properties":{"nom":"CS Diobo Ville","niveau_sante":"Centre de santé","localite_proche":"Diobo","zone_sante":"Binga","aire_sante":"Diobo Ville","phase":4,"source_courte":"GRID3"},"geometry":{"type":"Point","coordinates":[20.47865,2.26050]}},{"type":"Feature","properties":{"nom":"PS Diobo","niveau_sante":"Poste de santé","localite_proche":"Diobo","zone_sante":"Binga","aire_sante":"Diobo Ville","phase":4,"source_courte":"GRID3"},"geometry":{"type":"Point","coordinates":[20.52597,2.22093]}},{"type":"Feature","properties":{"nom":"PS Nzongo Boso Gope","niveau_sante":"Poste de santé","localite_proche":"Diobo","zone_sante":"Binga","aire_sante":"Nzongo","phase":4,"source_courte":"GRID3"},"geometry":{"type":"Point","coordinates":[20.55598,2.16659]}},{"type":"Feature","properties":{"nom":"PS Nzongo May","niveau_sante":"Poste de santé","localite_proche":"Mbokutu","zone_sante":"Binga","aire_sante":"Bokenga","phase":4,"source_courte":"GRID3"},"geometry":{"type":"Point","coordinates":[20.66224,2.17974]}},{"type":"Feature","properties":{"nom":"CS Boso Ngumoni","niveau_sante":"Centre de santé","localite_proche":"Mbokutu","zone_sante":"Binga","aire_sante":"Boso Ngumoni","phase":4,"source_courte":"GRID3"},"geometry":{"type":"Point","coordinates":[20.63668,2.17279]}},{"type":"Feature","properties":{"nom":"DISP Bismilay","niveau_sante":"Dispensaire","localite_proche":"Diobo","zone_sante":"Binga","aire_sante":"Mombangi","phase":4,"source_courte":"GRID3"},"geometry":{"type":"Point","coordinates":[20.40307,2.26783]}},{"type":"Feature","properties":{"nom":"CS Boso Kolo","niveau_sante":"Centre de santé","localite_proche":"Mbokutu","zone_sante":"Binga","aire_sante":"Boso Kolo","phase":4,"source_courte":"GRID3"},"geometry":{"type":"Point","coordinates":[20.61026,2.16079]}},{"type":"Feature","properties":{"nom":"PS Mobima","niveau_sante":"Poste de santé","localite_proche":"Mobima","zone_sante":"Binga","aire_sante":"Mombangi","phase":4,"source_courte":"GRID3"},"geometry":{"type":"Point","coordinates":[20.34178,2.25914]}},{"type":"Feature","properties":{"nom":"PS Boso Ngindola","niveau_sante":"Poste de santé","localite_proche":"Akula","zone_sante":"Binga","aire_sante":"Mondunga","phase":4,"source_courte":"GRID3"},"geometry":{"type":"Point","coordinates":[20.26468,2.27854]}},{"type":"Feature","properties":{"nom":"CS Mondunga","niveau_sante":"Centre de santé","localite_proche":"Boso Nongoni 2","zone_sante":"Binga","aire_sante":"Mondunga","phase":4,"source_courte":"GRID3"},"geometry":{"type":"Point","coordinates":[20.28593,2.27512]}},{"type":"Feature","properties":{"nom":"CS Mombangi","niveau_sante":"Centre de santé","localite_proche":"Diobo","zone_sante":"Binga","aire_sante":"Mombangi","phase":4,"source_courte":"GRID3"},"geometry":{"type":"Point","coordinates":[20.40305,2.27003]}},{"type":"Feature","properties":{"nom":"PS Molala","niveau_sante":"Poste de santé","localite_proche":"Molala 1","zone_sante":"Binga","aire_sante":"Mondunga","phase":4,"source_courte":"GRID3"},"geometry":{"type":"Point","coordinates":[20.32793,2.26366]}},{"type":"Feature","properties":{"nom":"SSC Ngomba","niveau_sante":"Site de soins communautaires","localite_proche":"Ngomba","zone_sante":"Lisala","aire_sante":"Makomu","phase":4,"source_courte":"GRID3"},"geometry":{"type":"Point","coordinates":[21.23567,2.19225]}},{"type":"Feature","properties":{"nom":"CS Akula","niveau_sante":"Centre de santé","localite_proche":"Akula","zone_sante":"Binga","aire_sante":"Akula","phase":4,"source_courte":"GRID3"},"geometry":{"type":"Point","coordinates":[20.18865,2.37198]}},{"type":"Feature","properties":{"nom":"PS Mbata","niveau_sante":"Poste de santé","localite_proche":"Akula","zone_sante":"Binga","aire_sante":"Boso Mokalu","phase":4,"source_courte":"GRID3"},"geometry":{"type":"Point","coordinates":[20.20141,2.34259]}},{"type":"Feature","properties":{"nom":"CS Boso Mokalu","niveau_sante":"Centre de santé","localite_proche":"Akula","zone_sante":"Binga","aire_sante":"Boso Mokalu","phase":4,"source_courte":"GRID3"},"geometry":{"type":"Point","coordinates":[20.22692,2.28727]}},{"type":"Feature","properties":{"nom":"PS Telema","niveau_sante":"Poste de santé","localite_proche":"Lisala","zone_sante":"Lisala","aire_sante":"Telema","phase":4,"source_courte":"GRID3"},"geometry":{"type":"Point","coordinates":[21.51503,2.15278]}},{"type":"Feature","properties":{"nom":"CSR Bokula","niveau_sante":"Centre de santé de référence","localite_proche":"Lisala","zone_sante":"Lisala","aire_sante":"Bokula","phase":4,"source_courte":"GRID3"},"geometry":{"type":"Point","coordinates":[21.51277,2.15055]}},{"type":"Feature","properties":{"nom":"PS Tosalisana","niveau_sante":"Poste de santé","localite_proche":"Lisala","zone_sante":"Lisala","aire_sante":"Bokula","phase":4,"source_courte":"GRID3"},"geometry":{"type":"Point","coordinates":[21.51021,2.14949]}},{"type":"Feature","properties":{"nom":"HGR Lisala","niveau_sante":"Hôpital général de référence","localite_proche":"Lisala","zone_sante":"Lisala","aire_sante":"HGR","phase":4,"source_courte":"GRID3"},"geometry":{"type":"Point","coordinates":[21.52010,2.14975]}},{"type":"Feature","properties":{"nom":"PS Libota Bomoi","niveau_sante":"Poste de santé","localite_proche":"Lisala","zone_sante":"Lisala","aire_sante":"Boso Matindoa","phase":4,"source_courte":"GRID3"},"geometry":{"type":"Point","coordinates":[21.50826,2.15019]}},{"type":"Feature","properties":{"nom":"PS Lisanga","niveau_sante":"Poste de santé","localite_proche":"Lisala","zone_sante":"Lisala","aire_sante":"Boso Matindoa","phase":4,"source_courte":"GRID3"},"geometry":{"type":"Point","coordinates":[21.50379,2.14704]}},{"type":"Feature","properties":{"nom":"CS Pecheur","niveau_sante":"Centre de santé","localite_proche":"Lisala","zone_sante":"Lisala","aire_sante":"Pecheur","phase":4,"source_courte":"GRID3"},"geometry":{"type":"Point","coordinates":[21.52076,2.14259]}},{"type":"Feature","properties":{"nom":"PS Boso Godo","niveau_sante":"Poste de santé","localite_proche":"Lisala","zone_sante":"Lisala","aire_sante":"Upoto","phase":4,"source_courte":"GRID3"},"geometry":{"type":"Point","coordinates":[21.44233,2.15662]}},{"type":"Feature","properties":{"nom":"CH La Victoire","niveau_sante":"Centre hospitalier","localite_proche":"Upoto","zone_sante":"Lisala","aire_sante":"Upoto","phase":4,"source_courte":"GRID3"},"geometry":{"type":"Point","coordinates":[21.49361,2.14374]}},{"type":"Feature","properties":{"nom":"SSC Mbonzo","niveau_sante":"Site de soins communautaires","localite_proche":"Upoto","zone_sante":"Lisala","aire_sante":"Upoto","phase":4,"source_courte":"GRID3"},"geometry":{"type":"Point","coordinates":[21.49037,2.13907]}},{"type":"Feature","properties":{"nom":"SSC Moweya","niveau_sante":"Site de soins communautaires","localite_proche":"Lisala","zone_sante":"Lisala","aire_sante":"Upoto","phase":4,"source_courte":"GRID3"},"geometry":{"type":"Point","coordinates":[21.47752,2.14628]}},{"type":"Feature","properties":{"nom":"CS Upoto","niveau_sante":"Centre de santé","localite_proche":"Upoto","zone_sante":"Lisala","aire_sante":"Upoto","phase":4,"source_courte":"GRID3"},"geometry":{"type":"Point","coordinates":[21.49452,2.14215]}},{"type":"Feature","properties":{"nom":"SSC Bonguma","niveau_sante":"Site de soins communautaires","localite_proche":"Bonguma","zone_sante":"Lisala","aire_sante":"Mondongo","phase":4,"source_courte":"GRID3"},"geometry":{"type":"Point","coordinates":[21.26203,2.18764]}},{"type":"Feature","properties":{"nom":"SSC Molala 2","niveau_sante":"Site de soins communautaires","localite_proche":"Molala 2","zone_sante":"Binga","aire_sante":"Mondunga","phase":4,"source_courte":"GRID3"},"geometry":{"type":"Point","coordinates":[20.32358,2.26883]}},{"type":"Feature","properties":{"nom":"CS Ville","niveau_sante":"Centre de santé","localite_proche":"Gemena","zone_sante":"Gemena","aire_sante":"Ville","phase":1,"source_courte":"GRID3"},"geometry":{"type":"Point","coordinates":[19.78376,3.23767]}},{"type":"Feature","properties":{"nom":"CH Dpt Developpement Pour Tous","niveau_sante":"Centre hospitalier","localite_proche":"Gemena","zone_sante":"Gemena","aire_sante":"Ville","phase":1,"source_courte":"GRID3"},"geometry":{"type":"Point","coordinates":[19.78629,3.23503]}},{"type":"Feature","properties":{"nom":"CH Alpha","niveau_sante":"Centre hospitalier","localite_proche":"Gemena","zone_sante":"Gemena","aire_sante":"Ville","phase":1,"source_courte":"GRID3"},"geometry":{"type":"Point","coordinates":[19.78341,3.23412]}},{"type":"Feature","properties":{"nom":"CM Ange De Guerison","niveau_sante":"Centre médical","localite_proche":"Bokuda","zone_sante":"Gemena","aire_sante":"Bokuda","phase":1,"source_courte":"GRID3"},"geometry":{"type":"Point","coordinates":[19.77595,3.22440]}},{"type":"Feature","properties":{"nom":"CS Ange Et Guerison","niveau_sante":"Centre de santé","localite_proche":"Boyambi I","zone_sante":"Gemena","aire_sante":"Boyambi","phase":2,"source_courte":"GRID3"},"geometry":{"type":"Point","coordinates":[19.72642,3.24212]}},{"type":"Feature","properties":{"nom":"CM Ange De Guerison B","niveau_sante":"Centre médical","localite_proche":"Gbatikombo","zone_sante":"Gemena","aire_sante":"Gbatikombo","phase":1,"source_courte":"GRID3"},"geometry":{"type":"Point","coordinates":[19.89655,3.00239]}},{"type":"Feature","properties":{"nom":"CS Ange De Guerison","niveau_sante":"Centre de santé","localite_proche":"Boguaka","zone_sante":"Gemena","aire_sante":"Bogwaka","phase":1,"source_courte":"GRID3"},"geometry":{"type":"Point","coordinates":[19.91507,2.90131]}},{"type":"Feature","properties":{"nom":"CM Espoir","niveau_sante":"Centre médical","localite_proche":"Bozagba","zone_sante":"Gemena","aire_sante":"Bozagba 25","phase":1,"source_courte":"GRID3"},"geometry":{"type":"Point","coordinates":[19.87788,3.07009]}},{"type":"Feature","properties":{"nom":"CM Espoir","niveau_sante":"Centre médical","localite_proche":"Bomele","zone_sante":"Gemena","aire_sante":"Bodiawa","phase":1,"source_courte":"GRID3"},"geometry":{"type":"Point","coordinates":[19.85486,3.08741]}},{"type":"Feature","properties":{"nom":"PS Mbilinga","niveau_sante":"Poste de santé","localite_proche":"Gemena","zone_sante":"Gemena","aire_sante":"Libenge Moke","phase":2,"source_courte":"GRID3"},"geometry":{"type":"Point","coordinates":[19.76191,3.24545]}},{"type":"Feature","properties":{"nom":"CS Libenge Moke","niveau_sante":"Centre de santé","localite_proche":"Gemena","zone_sante":"Gemena","aire_sante":"Libenge Moke","phase":2,"source_courte":"GRID3"},"geometry":{"type":"Point","coordinates":[19.76495,3.24253]}},{"type":"Feature","properties":{"nom":"CSR Papa Kisolokele","niveau_sante":"Centre de santé de référence","localite_proche":"Gemena","zone_sante":"Gemena","aire_sante":"Libenge Moke","phase":2,"source_courte":"GRID3"},"geometry":{"type":"Point","coordinates":[19.76847,3.24453]}},{"type":"Feature","properties":{"nom":"CS Dieu Seul Sait","niveau_sante":"Centre de santé","localite_proche":"Boyambi II","zone_sante":"Gemena","aire_sante":"Boyambi","phase":2,"source_courte":"GRID3"},"geometry":{"type":"Point","coordinates":[19.68502,3.23145]}},{"type":"Feature","properties":{"nom":"CH Jmc","niveau_sante":"Centre hospitalier","localite_proche":"Gemena","zone_sante":"Gemena","aire_sante":"Ville","phase":1,"source_courte":"GRID3"},"geometry":{"type":"Point","coordinates":[19.77841,3.24715]}},{"type":"Feature","properties":{"nom":"CM Libenge Moke","niveau_sante":"Centre médical","localite_proche":"Gemena","zone_sante":"Gemena","aire_sante":"Gemena 1","phase":2,"source_courte":"GRID3"},"geometry":{"type":"Point","coordinates":[19.75298,3.23890]}},{"type":"Feature","properties":{"nom":"CLIN Misericordia Congo","niveau_sante":"Clinique","localite_proche":"Gemena","zone_sante":"Gemena","aire_sante":"Ville","phase":1,"source_courte":"GRID3"},"geometry":{"type":"Point","coordinates":[19.78316,3.24419]}},{"type":"Feature","properties":{"nom":"HGR Gemena","niveau_sante":"Hôpital général de référence","localite_proche":"Gemena","zone_sante":"Gemena","aire_sante":"Sekpili","phase":2,"source_courte":"GRID3"},"geometry":{"type":"Point","coordinates":[19.77158,3.24184]}},{"type":"Feature","properties":{"nom":"CLIN Mondiale","niveau_sante":"Clinique","localite_proche":"Gemena","zone_sante":"Gemena","aire_sante":"Sekpili","phase":2,"source_courte":"GRID3"},"geometry":{"type":"Point","coordinates":[19.77365,3.24299]}},{"type":"Feature","properties":{"nom":"PS Boketa Salongo","niveau_sante":"Poste de santé","localite_proche":"Boketa Salongo","zone_sante":"Gemena","aire_sante":"Bokuda","phase":1,"source_courte":"GRID3"},"geometry":{"type":"Point","coordinates":[19.81348,3.18953]}},{"type":"Feature","properties":{"nom":"PS William Booth","niveau_sante":"Poste de santé","localite_proche":"Bokuda","zone_sante":"Gemena","aire_sante":"Bokuda","phase":1,"source_courte":"GRID3"},"geometry":{"type":"Point","coordinates":[19.77617,3.21911]}},{"type":"Feature","properties":{"nom":"CM Maman Accacia En Action","niveau_sante":"Centre médical","localite_proche":"Bokuda","zone_sante":"Gemena","aire_sante":"Bokuda","phase":1,"source_courte":"GRID3"},"geometry":{"type":"Point","coordinates":[19.77755,3.22286]}},{"type":"Feature","properties":{"nom":"CS Bokuda","niveau_sante":"Centre de santé","localite_proche":"Bokuda","zone_sante":"Gemena","aire_sante":"Bokuda","phase":1,"source_courte":"GRID3"},"geometry":{"type":"Point","coordinates":[19.77959,3.21984]}},{"type":"Feature","properties":{"nom":"CM Beford","niveau_sante":"Centre médical","localite_proche":"Gemena","zone_sante":"Gemena","aire_sante":"Bokuda","phase":1,"source_courte":"GRID3"},"geometry":{"type":"Point","coordinates":[19.78907,3.21438]}},{"type":"Feature","properties":{"nom":"PS Liboso","niveau_sante":"Poste de santé","localite_proche":"Gemena","zone_sante":"Gemena","aire_sante":"Bokuda","phase":1,"source_courte":"GRID3"},"geometry":{"type":"Point","coordinates":[19.78727,3.21443]}},{"type":"Feature","properties":{"nom":"CM La Main De Dieu","niveau_sante":"Centre médical","localite_proche":"Bozagba","zone_sante":"Gemena","aire_sante":"Bozagba 25","phase":1,"source_courte":"GRID3"},"geometry":{"type":"Point","coordinates":[19.87987,3.07291]}},{"type":"Feature","properties":{"nom":"PS Ngolu","niveau_sante":"Poste de santé","localite_proche":"Bozagba","zone_sante":"Gemena","aire_sante":"Bozagba 25","phase":1,"source_courte":"GRID3"},"geometry":{"type":"Point","coordinates":[19.88250,3.06573]}},{"type":"Feature","properties":{"nom":"CS Bozagba 25","niveau_sante":"Centre de santé","localite_proche":"Bozagba","zone_sante":"Gemena","aire_sante":"Bozagba 25","phase":1,"source_courte":"GRID3"},"geometry":{"type":"Point","coordinates":[19.88299,3.07136]}},{"type":"Feature","properties":{"nom":"CM Eben Ezer","niveau_sante":"Centre médical","localite_proche":"Bozagba","zone_sante":"Gemena","aire_sante":"Bozagba 25","phase":1,"source_courte":"GRID3"},"geometry":{"type":"Point","coordinates":[19.88579,3.07332]}},{"type":"Feature","properties":{"nom":"CS Boyambi","niveau_sante":"Centre de santé","localite_proche":"Boyambi II","zone_sante":"Gemena","aire_sante":"Boyambi","phase":2,"source_courte":"GRID3"},"geometry":{"type":"Point","coordinates":[19.69336,3.22984]}},{"type":"Feature","properties":{"nom":"PS Bodanu","niveau_sante":"Poste de santé","localite_proche":"Bodanu","zone_sante":"Gemena","aire_sante":"Bodiawa","phase":1,"source_courte":"GRID3"},"geometry":{"type":"Point","coordinates":[19.83449,3.10652]}},{"type":"Feature","properties":{"nom":"PS Bogoro Moke","niveau_sante":"Poste de santé","localite_proche":"Bogoko II","zone_sante":"Gemena","aire_sante":"Bodiawa","phase":1,"source_courte":"GRID3"},"geometry":{"type":"Point","coordinates":[19.87170,3.07649]}},{"type":"Feature","properties":{"nom":"CM Station Boketa","niveau_sante":"Centre médical","localite_proche":"Boketa Salongo","zone_sante":"Gemena","aire_sante":"Bodiawa","phase":1,"source_courte":"GRID3"},"geometry":{"type":"Point","coordinates":[19.81206,3.17376]}},{"type":"Feature","properties":{"nom":"CM La Promesse 2","niveau_sante":"Centre médical","localite_proche":"Boketa Ligidi","zone_sante":"Gemena","aire_sante":"Bodiawa","phase":1,"source_courte":"GRID3"},"geometry":{"type":"Point","coordinates":[19.81678,3.15322]}},{"type":"Feature","properties":{"nom":"PS Boketa Ligili","niveau_sante":"Poste de santé","localite_proche":"Boketa Ligidi","zone_sante":"Gemena","aire_sante":"Bodiawa","phase":1,"source_courte":"GRID3"},"geometry":{"type":"Point","coordinates":[19.81647,3.15829]}},{"type":"Feature","properties":{"nom":"PS Bomele Mbari","niveau_sante":"Poste de santé","localite_proche":"Bomele","zone_sante":"Gemena","aire_sante":"Bodiawa","phase":1,"source_courte":"GRID3"},"geometry":{"type":"Point","coordinates":[19.85973,3.08581]}},{"type":"Feature","properties":{"nom":"CS Bodiawa","niveau_sante":"Centre de santé","localite_proche":"Bodiawa Moke","zone_sante":"Gemena","aire_sante":"Bodiawa","phase":1,"source_courte":"GRID3"},"geometry":{"type":"Point","coordinates":[19.82280,3.12782]}},{"type":"Feature","properties":{"nom":"CM La Croix","niveau_sante":"Centre médical","localite_proche":"Gemena","zone_sante":"Gemena","aire_sante":"Sekpili","phase":2,"source_courte":"GRID3"},"geometry":{"type":"Point","coordinates":[19.77134,3.24398]}},{"type":"Feature","properties":{"nom":"PS Bogalengba 3 Tp","niveau_sante":"Poste de santé","localite_proche":"Bogalegba III","zone_sante":"Gemena","aire_sante":"Gbatikombo","phase":1,"source_courte":"GRID3"},"geometry":{"type":"Point","coordinates":[19.90010,2.96421]}},{"type":"Feature","properties":{"nom":"CS Gbatikombo","niveau_sante":"Centre de santé","localite_proche":"Gbatikombo","zone_sante":"Gemena","aire_sante":"Gbatikombo","phase":1,"source_courte":"GRID3"},"geometry":{"type":"Point","coordinates":[19.89825,2.99959]}},{"type":"Feature","properties":{"nom":"PS Bogoro Tp 3","niveau_sante":"Poste de santé","localite_proche":"Bokadae","zone_sante":"Gemena","aire_sante":"Gbatikombo","phase":1,"source_courte":"GRID3"},"geometry":{"type":"Point","coordinates":[19.89254,3.03560]}},{"type":"Feature","properties":{"nom":"PS Boyademele","niveau_sante":"Poste de santé","localite_proche":"Bogoro TP V","zone_sante":"Gemena","aire_sante":"Gbatikombo","phase":1,"source_courte":"GRID3"},"geometry":{"type":"Point","coordinates":[19.88557,3.05710]}},{"type":"Feature","properties":{"nom":"CS Bogwaka","niveau_sante":"Centre de santé","localite_proche":"Boguaka","zone_sante":"Gemena","aire_sante":"Bogwaka","phase":1,"source_courte":"GRID3"},"geometry":{"type":"Point","coordinates":[19.91545,2.90588]}},{"type":"Feature","properties":{"nom":"PS Bogwaka 3","niveau_sante":"Poste de santé","localite_proche":"Boguaka","zone_sante":"Gemena","aire_sante":"Bogwaka","phase":1,"source_courte":"GRID3"},"geometry":{"type":"Point","coordinates":[19.92199,2.89676]}},{"type":"Feature","properties":{"nom":"PS Bozagba Soa 1","niveau_sante":"Poste de santé","localite_proche":"Bozagba sua","zone_sante":"Gemena","aire_sante":"Bogwaka","phase":1,"source_courte":"GRID3"},"geometry":{"type":"Point","coordinates":[19.93877,2.86352]}},{"type":"Feature","properties":{"nom":"PS Bozagba Woa 2","niveau_sante":"Poste de santé","localite_proche":"Bozagba sua","zone_sante":"Gemena","aire_sante":"Bogwaka","phase":1,"source_courte":"GRID3"},"geometry":{"type":"Point","coordinates":[19.93152,2.87254]}},{"type":"Feature","properties":{"nom":"CS Gemena 1","niveau_sante":"Centre de santé","localite_proche":"Gemena","zone_sante":"Gemena","aire_sante":"Gemena 1","phase":2,"source_courte":"GRID3"},"geometry":{"type":"Point","coordinates":[19.75884,3.24336]}},{"type":"Feature","properties":{"nom":"CM Ley","niveau_sante":"Centre médical","localite_proche":"Gemena","zone_sante":"Gemena","aire_sante":"Gemena 1","phase":2,"source_courte":"GRID3"},"geometry":{"type":"Point","coordinates":[19.75461,3.24131]}},{"type":"Feature","properties":{"nom":"CH Bau","niveau_sante":"Centre hospitalier","localite_proche":"Bau","zone_sante":"Libenge","aire_sante":"Bau","phase":2,"source_courte":"GRID3"},"geometry":{"type":"Point","coordinates":[19.06968,3.74959]}},{"type":"Feature","properties":{"nom":"SSC Bodenge","niveau_sante":"Site de soins communautaires","localite_proche":"Bokembe","zone_sante":"Libenge","aire_sante":"Bau","phase":2,"source_courte":"GRID3"},"geometry":{"type":"Point","coordinates":[19.08676,3.72939]}},{"type":"Feature","properties":{"nom":"CS Bau Bokembe","niveau_sante":"Centre de santé","localite_proche":"Bokembe","zone_sante":"Libenge","aire_sante":"Bau","phase":2,"source_courte":"GRID3"},"geometry":{"type":"Point","coordinates":[19.0889,3.72446]}},{"type":"Feature","properties":{"nom":"PS Bodala","niveau_sante":"Poste de santé","localite_proche":"Budu","zone_sante":"Libenge","aire_sante":"Bomutu","phase":2,"source_courte":"GRID3"},"geometry":{"type":"Point","coordinates":[18.84451,3.76198]}},{"type":"Feature","properties":{"nom":"SSC Bodala","niveau_sante":"Site de soins communautaires","localite_proche":"Budu","zone_sante":"Libenge","aire_sante":"Bomutu","phase":2,"source_courte":"GRID3"},"geometry":{"type":"Point","coordinates":[18.85141,3.76306]}},{"type":"Feature","properties":{"nom":"CS Bozoko","niveau_sante":"Centre de santé","localite_proche":"Boduli","zone_sante":"Libenge","aire_sante":"Bozoko","phase":2,"source_courte":"GRID3"},"geometry":{"type":"Point","coordinates":[19.09923,3.67745]}},{"type":"Feature","properties":{"nom":"SSC Bosuma","niveau_sante":"Site de soins communautaires","localite_proche":"Bosuma","zone_sante":"Libenge","aire_sante":"Bozoko","phase":2,"source_courte":"GRID3"},"geometry":{"type":"Point","coordinates":[19.14177,3.62981]}},{"type":"Feature","properties":{"nom":"SSC Buduli","niveau_sante":"Site de soins communautaires","localite_proche":"Boduli","zone_sante":"Libenge","aire_sante":"Bozoko","phase":2,"source_courte":"GRID3"},"geometry":{"type":"Point","coordinates":[19.11581,3.65505]}},{"type":"Feature","properties":{"nom":"PS Dks","niveau_sante":"Poste de santé","localite_proche":"Bosuma","zone_sante":"Libenge","aire_sante":"Bozoko","phase":2,"source_courte":"GRID3"},"geometry":{"type":"Point","coordinates":[19.12402,3.64569]}},{"type":"Feature","properties":{"nom":"CS Bomutu","niveau_sante":"Centre de santé","localite_proche":"Bomotu","zone_sante":"Libenge","aire_sante":"Bomutu","phase":2,"source_courte":"GRID3"},"geometry":{"type":"Point","coordinates":[18.92909,3.77566]}},{"type":"Feature","properties":{"nom":"SSC Bomanga Mafwa","niveau_sante":"Site de soins communautaires","localite_proche":"Bomuntu Munene","zone_sante":"Libenge","aire_sante":"Bomutu","phase":2,"source_courte":"GRID3"},"geometry":{"type":"Point","coordinates":[18.90857,3.77810]}},{"type":"Feature","properties":{"nom":"PS Bogbali","niveau_sante":"Poste de santé","localite_proche":"Bogbali Boyikama","zone_sante":"Libenge","aire_sante":"Bau","phase":2,"source_courte":"GRID3"},"geometry":{"type":"Point","coordinates":[19.04711,3.76251]}},{"type":"Feature","properties":{"nom":"SSC Katako","niveau_sante":"Site de soins communautaires","localite_proche":"Wodaw","zone_sante":"Libenge","aire_sante":"Nduma","phase":2,"source_courte":"GRID3"},"geometry":{"type":"Point","coordinates":[18.69861,3.93205]}},{"type":"Feature","properties":{"nom":"PS Wudawu","niveau_sante":"Poste de santé","localite_proche":"Udawu","zone_sante":"Libenge","aire_sante":"Nduma","phase":2,"source_courte":"GRID3"},"geometry":{"type":"Point","coordinates":[18.69668,3.92603]}},{"type":"Feature","properties":{"nom":"CS Nduma","niveau_sante":"Centre de santé","localite_proche":"Duma","zone_sante":"Libenge","aire_sante":"Nduma","phase":2,"source_courte":"GRID3"},"geometry":{"type":"Point","coordinates":[18.68889,3.89209]}},{"type":"Feature","properties":{"nom":"CS Nzulu","niveau_sante":"Centre de santé","localite_proche":"Zongo","zone_sante":"Zongo","aire_sante":"Nzulu","phase":2,"source_courte":"GRID3"},"geometry":{"type":"Point","coordinates":[18.59674,4.33722]}},{"type":"Feature","properties":{"nom":"CS Bokilio","niveau_sante":"Centre de santé","localite_proche":"Bokiliyo","zone_sante":"Libenge","aire_sante":"Bokilio","phase":2,"source_courte":"GRID3"},"geometry":{"type":"Point","coordinates":[19.03056,3.76579]}},{"type":"Feature","properties":{"nom":"SSC Bomutu Moke","niveau_sante":"Site de soins communautaires","localite_proche":"Bomotu-Moke","zone_sante":"Libenge","aire_sante":"Bokilio","phase":2,"source_courte":"GRID3"},"geometry":{"type":"Point","coordinates":[18.97406,3.77586]}},{"type":"Feature","properties":{"nom":"CS Zingazinga","niveau_sante":"Centre de santé","localite_proche":"Libenge","zone_sante":"Libenge","aire_sante":"Zingazinga","phase":3,"source_courte":"GRID3"},"geometry":{"type":"Point","coordinates":[18.63050,3.64540]}},{"type":"Feature","properties":{"nom":"CS Pnc Libenge","niveau_sante":"Centre de santé","localite_proche":"Libenge","zone_sante":"Libenge","aire_sante":"Zingazinga","phase":3,"source_courte":"GRID3"},"geometry":{"type":"Point","coordinates":[18.63234,3.64399]}},{"type":"Feature","properties":{"nom":"CSR Pilote","niveau_sante":"Centre de santé de référence","localite_proche":"Libenge","zone_sante":"Libenge","aire_sante":"Zingazinga","phase":3,"source_courte":"GRID3"},"geometry":{"type":"Point","coordinates":[18.63401,3.64119]}},{"type":"Feature","properties":{"nom":"CS Cecu Libenge","niveau_sante":"Centre de santé","localite_proche":"Libenge","zone_sante":"Libenge","aire_sante":"Cecu Libenge","phase":3,"source_courte":"GRID3"},"geometry":{"type":"Point","coordinates":[18.63708,3.64956]}},{"type":"Feature","properties":{"nom":"CS Wenze","niveau_sante":"Centre de santé","localite_proche":"Bondolo","zone_sante":"Zongo","aire_sante":"Wenze","phase":2,"source_courte":"GRID3"},"geometry":{"type":"Point","coordinates":[18.65502,4.23527]}},{"type":"Feature","properties":{"nom":"CS Bambenga","niveau_sante":"Centre de santé","localite_proche":"Gbamundema II","zone_sante":"Zongo","aire_sante":"Bambenga","phase":2,"source_courte":"GRID3"},"geometry":{"type":"Point","coordinates":[18.72974,4.20250]}},{"type":"Feature","properties":{"nom":"CS Gbakode Cecu","niveau_sante":"Centre de santé","localite_proche":"Zongo","zone_sante":"Zongo","aire_sante":"Gbakode Cecu","phase":2,"source_courte":"GRID3"},"geometry":{"type":"Point","coordinates":[18.60144,4.36087]}},{"type":"Feature","properties":{"nom":"DISP Maman Therese","niveau_sante":"Dispensaire","localite_proche":"Bambenga","zone_sante":"Zongo","aire_sante":"Bambenga","phase":2,"source_courte":"GRID3"},"geometry":{"type":"Point","coordinates":[18.73166,4.20468]}},{"type":"Feature","properties":{"nom":"CM La Main De Dieu","niveau_sante":"Centre médical","localite_proche":"Gbamundema II","zone_sante":"Zongo","aire_sante":"Bambenga","phase":2,"source_courte":"GRID3"},"geometry":{"type":"Point","coordinates":[18.71990,4.20262]}},{"type":"Feature","properties":{"nom":"SSC Tosalisana","niveau_sante":"Site de soins communautaires","localite_proche":"Yakiri","zone_sante":"Zongo","aire_sante":"Bambenga","phase":2,"source_courte":"GRID3"},"geometry":{"type":"Point","coordinates":[18.71099,4.20732]}},{"type":"Feature","properties":{"nom":"PS Papa Ngelo","niveau_sante":"Poste de santé","localite_proche":"Zongo","zone_sante":"Zongo","aire_sante":"Gbakode Cecu","phase":2,"source_courte":"GRID3"},"geometry":{"type":"Point","coordinates":[18.60532,4.36036]}},{"type":"Feature","properties":{"nom":"DISP Bikisa","niveau_sante":"Dispensaire","localite_proche":"Zongo","zone_sante":"Zongo","aire_sante":"Kussa Ceum","phase":2,"source_courte":"GRID3"},"geometry":{"type":"Point","coordinates":[18.59482,4.34068]}},{"type":"Feature","properties":{"nom":"PS Bikisa","niveau_sante":"Poste de santé","localite_proche":"Molin ingonge","zone_sante":"Zongo","aire_sante":"Molet","phase":2,"source_courte":"GRID3"},"geometry":{"type":"Point","coordinates":[18.78412,4.14983]}},{"type":"Feature","properties":{"nom":"SSC Gbamundema","niveau_sante":"Site de soins communautaires","localite_proche":"Gbamundema I","zone_sante":"Zongo","aire_sante":"Molet","phase":2,"source_courte":"GRID3"},"geometry":{"type":"Point","coordinates":[18.75476,4.17824]}},{"type":"Feature","properties":{"nom":"CS Molet","niveau_sante":"Centre de santé","localite_proche":"Molin ingonge","zone_sante":"Zongo","aire_sante":"Molet","phase":2,"source_courte":"GRID3"},"geometry":{"type":"Point","coordinates":[18.78922,4.15040]}},{"type":"Feature","properties":{"nom":"CS Dieu Merci","niveau_sante":"Centre de santé","localite_proche":"Molin 2kilo","zone_sante":"Zongo","aire_sante":"Molet","phase":2,"source_courte":"GRID3"},"geometry":{"type":"Point","coordinates":[18.77325,4.15562]}},{"type":"Feature","properties":{"nom":"CS Du Camp Mole","niveau_sante":"Centre de santé","localite_proche":"Yongalu pâturage","zone_sante":"Zongo","aire_sante":"Molet","phase":2,"source_courte":"GRID3"},"geometry":{"type":"Point","coordinates":[18.79642,4.13654]}},{"type":"Feature","properties":{"nom":"PS Bondeko","niveau_sante":"Poste de santé","localite_proche":"Zongo","zone_sante":"Zongo","aire_sante":"Pilote","phase":2,"source_courte":"GRID3"},"geometry":{"type":"Point","coordinates":[18.59354,4.34926]}},{"type":"Feature","properties":{"nom":"PS De Secours Bikisa","niveau_sante":"Poste de santé","localite_proche":"Zongo","zone_sante":"Zongo","aire_sante":"Pilote","phase":2,"source_courte":"GRID3"},"geometry":{"type":"Point","coordinates":[18.59540,4.35033]}},{"type":"Feature","properties":{"nom":"CS Pnc Ciat Urb Zongo","niveau_sante":"Centre de santé","localite_proche":"Zongo","zone_sante":"Zongo","aire_sante":"Pilote","phase":2,"source_courte":"GRID3"},"geometry":{"type":"Point","coordinates":[18.59886,4.35124]}},{"type":"Feature","properties":{"nom":"CS Pilote","niveau_sante":"Centre de santé","localite_proche":"Zongo","zone_sante":"Zongo","aire_sante":"Pilote","phase":2,"source_courte":"GRID3"},"geometry":{"type":"Point","coordinates":[18.59822,4.34954]}},{"type":"Feature","properties":{"nom":"CS Saint Joseph","niveau_sante":"Centre de santé","localite_proche":"Zongo","zone_sante":"Zongo","aire_sante":"Saint Joseph","phase":2,"source_courte":"GRID3"},"geometry":{"type":"Point","coordinates":[18.59807,4.34449]}},{"type":"Feature","properties":{"nom":"SSC Monzo","niveau_sante":"Site de soins communautaires","localite_proche":"Wangara","zone_sante":"Libenge","aire_sante":"Mole","phase":2,"source_courte":"GRID3"},"geometry":{"type":"Point","coordinates":[18.74833,4.04029]}},{"type":"Feature","properties":{"nom":"SSC Paturage","niveau_sante":"Site de soins communautaires","localite_proche":"Yongala pâturage","zone_sante":"Libenge","aire_sante":"Mole","phase":2,"source_courte":"GRID3"},"geometry":{"type":"Point","coordinates":[18.78384,4.12090]}},{"type":"Feature","properties":{"nom":"PS Bungba","niveau_sante":"Poste de santé","localite_proche":"Bungba","zone_sante":"Libenge","aire_sante":"Mole","phase":2,"source_courte":"GRID3"},"geometry":{"type":"Point","coordinates":[18.74558,4.01997]}},{"type":"Feature","properties":{"nom":"DISP Akula Bomoko","niveau_sante":"Dispensaire","localite_proche":"Akula","zone_sante":"Bulu","aire_sante":"Akula","phase":1,"source_courte":"GRID3"},"geometry":{"type":"Point","coordinates":[20.1837,2.37478]}},{"type":"Feature","properties":{"nom":"CM Dieu Fera","niveau_sante":"Centre médical","localite_proche":"Saratumba","zone_sante":"Zongo","aire_sante":"Nzulu","phase":2,"source_courte":"GRID3"},"geometry":{"type":"Point","coordinates":[18.59879,4.33121]}},{"type":"Feature","properties":{"nom":"CS El Rapha","niveau_sante":"Centre de santé","localite_proche":"Zongo","zone_sante":"Zongo","aire_sante":"Nzulu","phase":2,"source_courte":"GRID3"},"geometry":{"type":"Point","coordinates":[18.59732,4.33537]}},{"type":"Feature","properties":{"nom":"CM De Maman Mwilu","niveau_sante":"Centre médical","localite_proche":"Zongo","zone_sante":"Zongo","aire_sante":"Nzulu","phase":2,"source_courte":"GRID3"},"geometry":{"type":"Point","coordinates":[18.60320,4.32427]}},{"type":"Feature","properties":{"nom":"PS Boduku","niveau_sante":"Poste de santé","localite_proche":"Boduko","zone_sante":"Libenge","aire_sante":"Boyabu","phase":3,"source_courte":"GRID3"},"geometry":{"type":"Point","coordinates":[18.71034,3.69000]}},{"type":"Feature","properties":{"nom":"PS Mase","niveau_sante":"Poste de santé","localite_proche":"Mase Muda","zone_sante":"Libenge","aire_sante":"Nduma","phase":2,"source_courte":"GRID3"},"geometry":{"type":"Point","coordinates":[18.69914,3.81711]}},{"type":"Feature","properties":{"nom":"PS Mbalasa","niveau_sante":"Poste de santé","localite_proche":"Bombaolo","zone_sante":"Libenge","aire_sante":"Bogilima","phase":2,"source_courte":"GRID3"},"geometry":{"type":"Point","coordinates":[19.18005,3.60385]}},{"type":"Feature","properties":{"nom":"CS Bogilima","niveau_sante":"Centre de santé","localite_proche":"Bagilima","zone_sante":"Libenge","aire_sante":"Bogilima","phase":2,"source_courte":"GRID3"},"geometry":{"type":"Point","coordinates":[19.25510,3.57626]}},{"type":"Feature","properties":{"nom":"CS Mole","niveau_sante":"Centre de santé","localite_proche":"Molin ingonge","zone_sante":"Libenge","aire_sante":"Mole","phase":2,"source_courte":"GRID3"},"geometry":{"type":"Point","coordinates":[18.79039,4.14602]}},{"type":"Feature","properties":{"nom":"CS Boyabu","niveau_sante":"Centre de santé","localite_proche":"Boyabo","zone_sante":"Libenge","aire_sante":"Boyabu","phase":3,"source_courte":"GRID3"},"geometry":{"type":"Point","coordinates":[18.77065,3.71519]}},{"type":"Feature","properties":{"nom":"CH Boyabu","niveau_sante":"Centre hospitalier","localite_proche":"Ndoroka","zone_sante":"Libenge","aire_sante":"Boyabu","phase":2,"source_courte":"GRID3"},"geometry":{"type":"Point","coordinates":[18.77185,3.72770]}},{"type":"Feature","properties":{"nom":"SSC Awele Bositolo","niveau_sante":"Site de soins communautaires","localite_proche":"Bositolo","zone_sante":"Libenge","aire_sante":"Nduma","phase":2,"source_courte":"GRID3"},"geometry":{"type":"Point","coordinates":[18.67625,3.85459]}},{"type":"Feature","properties":{"nom":"DISP Croix Rouge","niveau_sante":"Dispensaire","localite_proche":"Zongo","zone_sante":"Zongo","aire_sante":"Burungangu","phase":2,"source_courte":"GRID3"},"geometry":{"type":"Point","coordinates":[18.62054,4.35096]}},{"type":"Feature","properties":{"nom":"PS Gbandi 1","niveau_sante":"Poste de santé","localite_proche":"Badokwa","zone_sante":"Zongo","aire_sante":"Burungangu","phase":2,"source_courte":"GRID3"},"geometry":{"type":"Point","coordinates":[18.63173,4.34852]}},{"type":"Feature","properties":{"nom":"SSC Gbandi 1","niveau_sante":"Site de soins communautaires","localite_proche":"Badokwa","zone_sante":"Zongo","aire_sante":"Burungangu","phase":2,"source_courte":"GRID3"},"geometry":{"type":"Point","coordinates":[18.62877,4.34607]}},{"type":"Feature","properties":{"nom":"PS Kpagwa 2","niveau_sante":"Poste de santé","localite_proche":"Pagwa","zone_sante":"Libenge","aire_sante":"Boyabu","phase":2,"source_courte":"GRID3"},"geometry":{"type":"Point","coordinates":[18.70571,3.77002]}},{"type":"Feature","properties":{"nom":"PS Habitation Chef De Localite","niveau_sante":"Poste de santé","localite_proche":"Yakili","zone_sante":"Zongo","aire_sante":"Wenze","phase":2,"source_courte":"GRID3"},"geometry":{"type":"Point","coordinates":[18.67807,4.22170]}},{"type":"Feature","properties":{"nom":"SSC Gbala","niveau_sante":"Site de soins communautaires","localite_proche":"Sekia","zone_sante":"Zongo","aire_sante":"Wenze","phase":2,"source_courte":"GRID3"},"geometry":{"type":"Point","coordinates":[18.62920,4.27086]}},{"type":"Feature","properties":{"nom":"PS Saint Paul","niveau_sante":"Poste de santé","localite_proche":"Sekia","zone_sante":"Zongo","aire_sante":"Wenze","phase":2,"source_courte":"GRID3"},"geometry":{"type":"Point","coordinates":[18.64688,4.23910]}},{"type":"Feature","properties":{"nom":"CS Kolongo","niveau_sante":"Centre de santé","localite_proche":"Batangu","zone_sante":"Bulu","aire_sante":"Kolongo","phase":1,"source_courte":"GRID3"},"geometry":{"type":"Point","coordinates":[19.98170,2.69717]}},{"type":"Feature","properties":{"nom":"PS Kolongo","niveau_sante":"Poste de santé","localite_proche":"Ngbonga Munene","zone_sante":"Bulu","aire_sante":"Kolongo","phase":1,"source_courte":"GRID3"},"geometry":{"type":"Point","coordinates":[19.99339,2.67499]}},{"type":"Feature","properties":{"nom":"PS Gbaza","niveau_sante":"Poste de santé","localite_proche":"Gbulu","zone_sante":"Bulu","aire_sante":"Kolongo","phase":1,"source_courte":"GRID3"},"geometry":{"type":"Point","coordinates":[19.99050,2.73737]}},{"type":"Feature","properties":{"nom":"SSC Ilingu","niveau_sante":"Site de soins communautaires","localite_proche":"Kolongo","zone_sante":"Bulu","aire_sante":"Kolongo","phase":1,"source_courte":"GRID3"},"geometry":{"type":"Point","coordinates":[19.98834,2.73116]}},{"type":"Feature","properties":{"nom":"PS Cam","niveau_sante":"Poste de santé","localite_proche":"Batangu","zone_sante":"Bulu","aire_sante":"Kolongo","phase":1,"source_courte":"GRID3"},"geometry":{"type":"Point","coordinates":[19.98141,2.69908]}},{"type":"Feature","properties":{"nom":"PS La Reponse Kolongo","niveau_sante":"Poste de santé","localite_proche":"Batangu","zone_sante":"Bulu","aire_sante":"Kolongo","phase":1,"source_courte":"GRID3"},"geometry":{"type":"Point","coordinates":[19.97812,2.69984]}},{"type":"Feature","properties":{"nom":"CS Mbako","niveau_sante":"Centre de santé","localite_proche":"Mbako","zone_sante":"Bulu","aire_sante":"Mbako","phase":1,"source_courte":"GRID3"},"geometry":{"type":"Point","coordinates":[20.03988,2.59573]}},{"type":"Feature","properties":{"nom":"SSC Mbako 2","niveau_sante":"Site de soins communautaires","localite_proche":"Yanga I","zone_sante":"Bulu","aire_sante":"Mbako","phase":1,"source_courte":"GRID3"},"geometry":{"type":"Point","coordinates":[20.04144,2.57454]}},{"type":"Feature","properties":{"nom":"PS Mogugu Tp","niveau_sante":"Poste de santé","localite_proche":"Ngbonga Mukie","zone_sante":"Bulu","aire_sante":"Mbako","phase":1,"source_courte":"GRID3"},"geometry":{"type":"Point","coordinates":[20.00210,2.64517]}},{"type":"Feature","properties":{"nom":"PS Ngbonga 1","niveau_sante":"Poste de santé","localite_proche":"Ngbonga Munene","zone_sante":"Bulu","aire_sante":"Kolongo","phase":1,"source_courte":"GRID3"},"geometry":{"type":"Point","coordinates":[19.99551,2.66213]}},{"type":"Feature","properties":{"nom":"SSC Ngonga 1","niveau_sante":"Site de soins communautaires","localite_proche":"Ngbonga Mukie","zone_sante":"Bulu","aire_sante":"Kolongo","phase":1,"source_courte":"GRID3"},"geometry":{"type":"Point","coordinates":[19.99743,2.65448]}},{"type":"Feature","properties":{"nom":"PS Ngbonga 2","niveau_sante":"Poste de santé","localite_proche":"Mbako","zone_sante":"Bulu","aire_sante":"Mbako","phase":1,"source_courte":"GRID3"},"geometry":{"type":"Point","coordinates":[20.02838,2.62107]}},{"type":"Feature","properties":{"nom":"SSC Ngbonga 2","niveau_sante":"Site de soins communautaires","localite_proche":"Ngbonga Mukie","zone_sante":"Bulu","aire_sante":"Mbako","phase":1,"source_courte":"GRID3"},"geometry":{"type":"Point","coordinates":[20.02206,2.63200]}},{"type":"Feature","properties":{"nom":"SSC Yanga Gekay","niveau_sante":"Site de soins communautaires","localite_proche":"Yanga-Gekai","zone_sante":"Bulu","aire_sante":"Mbako","phase":1,"source_courte":"GRID3"},"geometry":{"type":"Point","coordinates":[20.07600,2.51367]}},{"type":"Feature","properties":{"nom":"PS C A C Communaute Des Agriculteurs Pour La Construction","niveau_sante":"Poste de santé","localite_proche":"Yabaza III","zone_sante":"Bulu","aire_sante":"Pilote Cacaoco","phase":1,"source_courte":"GRID3"},"geometry":{"type":"Point","coordinates":[19.99252,2.77226]}},{"type":"Feature","properties":{"nom":"CS Talasuma","niveau_sante":"Centre de santé","localite_proche":"Talasua","zone_sante":"Bulu","aire_sante":"Talasuma","phase":1,"source_courte":"GRID3"},"geometry":{"type":"Point","coordinates":[19.95003,2.84943]}},{"type":"Feature","properties":{"nom":"CM 3 Bo","niveau_sante":"Centre médical","localite_proche":"Akula","zone_sante":"Bulu","aire_sante":"Akula","phase":1,"source_courte":"GRID3"},"geometry":{"type":"Point","coordinates":[20.17995,2.38091]}},{"type":"Feature","properties":{"nom":"DISP Beth Saida","niveau_sante":"Dispensaire","localite_proche":"Akula","zone_sante":"Bulu","aire_sante":"Akula","phase":1,"source_courte":"GRID3"},"geometry":{"type":"Point","coordinates":[20.18137,2.37712]}},{"type":"Feature","properties":{"nom":"DISP Ange De Guerison","niveau_sante":"Dispensaire","localite_proche":"Dongo-Moke","zone_sante":"Bulu","aire_sante":"Kuma","phase":1,"source_courte":"GRID3"},"geometry":{"type":"Point","coordinates":[20.13170,2.45323]}},{"type":"Feature","properties":{"nom":"CS Kuma","niveau_sante":"Centre de santé","localite_proche":"Dongo-Moke","zone_sante":"Bulu","aire_sante":"Kuma","phase":1,"source_courte":"GRID3"},"geometry":{"type":"Point","coordinates":[20.12828,2.44656]}},{"type":"Feature","properties":{"nom":"SSC Dongo 2","niveau_sante":"Site de soins communautaires","localite_proche":"Kuma","zone_sante":"Bulu","aire_sante":"Kuma","phase":1,"source_courte":"GRID3"},"geometry":{"type":"Point","coordinates":[20.14031,2.42964]}},{"type":"Feature","properties":{"nom":"SSC Dongo 1","niveau_sante":"Site de soins communautaires","localite_proche":"Yanga-Leka","zone_sante":"Bulu","aire_sante":"Mondosa","phase":1,"source_courte":"GRID3"},"geometry":{"type":"Point","coordinates":[20.11212,2.47410]}},{"type":"Feature","properties":{"nom":"CS Bodenge","niveau_sante":"Centre de santé","localite_proche":"Bodenge","zone_sante":"Bwamanda","aire_sante":"Bodenge","phase":2,"source_courte":"GRID3"},"geometry":{"type":"Point","coordinates":[19.63976,3.26496]}},{"type":"Feature","properties":{"nom":"PS Libiki","niveau_sante":"Poste de santé","localite_proche":"Bodenge","zone_sante":"Bwamanda","aire_sante":"Bodenge","phase":2,"source_courte":"GRID3"},"geometry":{"type":"Point","coordinates":[19.62476,3.27359]}},{"type":"Feature","properties":{"nom":"PS Mbalina","niveau_sante":"Poste de santé","localite_proche":"Boyambi mbalina III","zone_sante":"Bwamanda","aire_sante":"Bodenge","phase":2,"source_courte":"GRID3"},"geometry":{"type":"Point","coordinates":[19.68030,3.24515]}},{"type":"Feature","properties":{"nom":"PS Bon Depart","niveau_sante":"Poste de santé","localite_proche":"Bosapkana","zone_sante":"Bwamanda","aire_sante":"Bozoko 5","phase":2,"source_courte":"GRID3"},"geometry":{"type":"Point","coordinates":[19.48897,3.29803]}},{"type":"Feature","properties":{"nom":"CS Bozoko 5","niveau_sante":"Centre de santé","localite_proche":"Bozoko V","zone_sante":"Bwamanda","aire_sante":"Bozoko 5","phase":2,"source_courte":"GRID3"},"geometry":{"type":"Point","coordinates":[19.50934,3.29439]}},{"type":"Feature","properties":{"nom":"PS Prive Espoir De Bozoko 5","niveau_sante":"Poste de santé","localite_proche":"Bozoko V","zone_sante":"Bwamanda","aire_sante":"Bozoko 5","phase":2,"source_courte":"GRID3"},"geometry":{"type":"Point","coordinates":[19.51367,3.29339]}},{"type":"Feature","properties":{"nom":"CS Bodeme","niveau_sante":"Centre de santé","localite_proche":"Bodeme I","zone_sante":"Bwamanda","aire_sante":"Bodeme","phase":2,"source_courte":"GRID3"},"geometry":{"type":"Point","coordinates":[19.58906,3.27368]}},{"type":"Feature","properties":{"nom":"CS La Volonte De Dieu","niveau_sante":"Centre de santé","localite_proche":"Bodeme II","zone_sante":"Bwamanda","aire_sante":"Bodeme","phase":2,"source_courte":"GRID3"},"geometry":{"type":"Point","coordinates":[19.57400,3.27634]}},{"type":"Feature","properties":{"nom":"CM Mbilinga","niveau_sante":"Centre médical","localite_proche":"Boduli II","zone_sante":"Bwamanda","aire_sante":"Bodeme","phase":2,"source_courte":"GRID3"},"geometry":{"type":"Point","coordinates":[19.59581,3.26977]}},{"type":"Feature","properties":{"nom":"CS Bongbada","niveau_sante":"Centre de santé","localite_proche":"Bongbada I","zone_sante":"Bwamanda","aire_sante":"Bongbada","phase":2,"source_courte":"GRID3"},"geometry":{"type":"Point","coordinates":[19.45765,3.30239]}},{"type":"Feature","properties":{"nom":"CS Bozoko","niveau_sante":"Centre de santé","localite_proche":"Bozoko II","zone_sante":"Bwamanda","aire_sante":"Bozoko","phase":2,"source_courte":"GRID3"},"geometry":{"type":"Point","coordinates":[19.53665,3.28220]}},{"type":"Feature","properties":{"nom":"CM Dks","niveau_sante":"Centre médical","localite_proche":"Mbari","zone_sante":"Bwamanda","aire_sante":"Mbari","phase":2,"source_courte":"GRID3"},"geometry":{"type":"Point","coordinates":[19.38463,3.31965]}},{"type":"Feature","properties":{"nom":"PS Bezelebina","niveau_sante":"Poste de santé","localite_proche":"Mbari","zone_sante":"Bwamanda","aire_sante":"Mbari","phase":2,"source_courte":"GRID3"},"geometry":{"type":"Point","coordinates":[19.38366,3.32236]}},{"type":"Feature","properties":{"nom":"CM Bezelebina","niveau_sante":"Centre médical","localite_proche":"Bobise","zone_sante":"Bwamanda","aire_sante":"Bobisi","phase":2,"source_courte":"GRID3"},"geometry":{"type":"Point","coordinates":[19.34025,3.54332]}},{"type":"Feature","properties":{"nom":"CM De Mbari","niveau_sante":"Centre médical","localite_proche":"Mbari","zone_sante":"Bwamanda","aire_sante":"Mbari","phase":2,"source_courte":"GRID3"},"geometry":{"type":"Point","coordinates":[19.40049,3.32061]}},{"type":"Feature","properties":{"nom":"CS Mbari","niveau_sante":"Centre de santé","localite_proche":"Mbari","zone_sante":"Bwamanda","aire_sante":"Mbari","phase":2,"source_courte":"GRID3"},"geometry":{"type":"Point","coordinates":[19.39112,3.31941]}},{"type":"Feature","properties":{"nom":"SSC Sua","niveau_sante":"Site de soins communautaires","localite_proche":"Bongbada II","zone_sante":"Bwamanda","aire_sante":"Bokembe","phase":2,"source_courte":"GRID3"},"geometry":{"type":"Point","coordinates":[19.38472,3.41217]}},{"type":"Feature","properties":{"nom":"CS Bokembe","niveau_sante":"Centre de santé","localite_proche":"Bongbada II","zone_sante":"Bwamanda","aire_sante":"Bokembe","phase":2,"source_courte":"GRID3"},"geometry":{"type":"Point","coordinates":[19.38381,3.41698]}},{"type":"Feature","properties":{"nom":"PS Bobiangele","niveau_sante":"Poste de santé","localite_proche":"Bobiangele","zone_sante":"Bwamanda","aire_sante":"Bokembe","phase":2,"source_courte":"GRID3"},"geometry":{"type":"Point","coordinates":[19.37693,3.36960]}},{"type":"Feature","properties":{"nom":"CS Deus","niveau_sante":"Centre de santé","localite_proche":"Bodeme II","zone_sante":"Bwamanda","aire_sante":"Bozoko","phase":2,"source_courte":"GRID3"},"geometry":{"type":"Point","coordinates":[19.55933,3.28213]}},{"type":"Feature","properties":{"nom":"SSC Bogindi 1","niveau_sante":"Site de soins communautaires","localite_proche":"Bongidi I","zone_sante":"Bwamanda","aire_sante":"Bowazi","phase":2,"source_courte":"GRID3"},"geometry":{"type":"Point","coordinates":[19.36523,3.52197]}},{"type":"Feature","properties":{"nom":"CS Bobisi","niveau_sante":"Centre de santé","localite_proche":"Bobise","zone_sante":"Bwamanda","aire_sante":"Bobisi","phase":2,"source_courte":"GRID3"},"geometry":{"type":"Point","coordinates":[19.33505,3.54761]}},{"type":"Feature","properties":{"nom":"PS Bogose","niveau_sante":"Poste de santé","localite_proche":"Bogose","zone_sante":"Bwamanda","aire_sante":"Bobisi","phase":2,"source_courte":"GRID3"},"geometry":{"type":"Point","coordinates":[19.28650,3.56299]}},{"type":"Feature","properties":{"nom":"CS Bowazi","niveau_sante":"Centre de santé","localite_proche":"Bowazi","zone_sante":"Bwamanda","aire_sante":"Bowazi","phase":2,"source_courte":"GRID3"},"geometry":{"type":"Point","coordinates":[19.38979,3.48264]}},{"type":"Feature","properties":{"nom":"PS Espoir","niveau_sante":"Poste de santé","localite_proche":"Lisala","zone_sante":"Lisala","aire_sante":"Boso Matindoa","phase":4,"source_courte":"GRID3"},"geometry":{"type":"Point","coordinates":[21.50667,2.14811]}},{"type":"Feature","properties":{"nom":"Mg Kimbanguiste Centre de Santé","niveau_sante":"Centre de santé","localite_proche":"Lisala","zone_sante":"","aire_sante":"","phase":4,"source_courte":"AfSS"},"geometry":{"type":"Point","coordinates":[21.5168,2.1491]}},{"type":"Feature","properties":{"nom":"Su Bambenga Centre de Santé","niveau_sante":"Centre de santé","localite_proche":"Gbamundema II","zone_sante":"","aire_sante":"","phase":2,"source_courte":"AfSS"},"geometry":{"type":"Point","coordinates":[18.7245,4.2004]}},{"type":"Feature","properties":{"nom":"Su Kutu Centre de Santé","niveau_sante":"Centre de santé","localite_proche":"Gemena","zone_sante":"","aire_sante":"","phase":1,"source_courte":"AfSS"},"geometry":{"type":"Point","coordinates":[19.7806,3.2379]}},{"type":"Feature","properties":{"nom":"Su Talasuma Centre de Santé","niveau_sante":"Centre de santé","localite_proche":"Talasua","zone_sante":"","aire_sante":"","phase":1,"source_courte":"AfSS"},"geometry":{"type":"Point","coordinates":[19.9452,2.8558]}},{"type":"Feature","properties":{"nom":"Su Ville Centre de Santé","niveau_sante":"Centre de santé","localite_proche":"Gemena","zone_sante":"","aire_sante":"","phase":1,"source_courte":"AfSS"},"geometry":{"type":"Point","coordinates":[19.7776,3.2386]}}]}