{"type":"FeatureCollection","features":[{"type":"Feature","properties":{"sous_theme":"Bac / débarcadère","nom":"","localite_proche":"Akula","phase":4,"source_courte":"OSM"},"geometry":{"type":"Point","coordinates":[20.18797,2.37223]}},{"type":"Feature","properties":{"sous_theme":"Bac / débarcadère","nom":"","localite_proche":"Akula","phase":1,"source_courte":"OSM"},"geometry":{"type":"Point","coordinates":[20.18489,2.37441]}},{"type":"Feature","properties":{"sous_theme":"Bac / débarcadère","nom":"","localite_proche":"Zongo","phase":2,"source_courte":"OSM"},"geometry":{"type":"Point","coordinates":[18.59892,4.35487]}},{"type":"Feature","properties":{"sous_theme":"Aérodrome","nom":"Bau Airport","localite_proche":"Ngbodenge","phase":2,"source_courte":"OSM"},"geometry":{"type":"Point","coordinates":[19.08295,3.73338]}},{"type":"Feature","properties":{"sous_theme":"Port fluvial","nom":"Lisala","localite_proche":"Lisala","phase":4,"source_courte":"Projet"},"geometry":{"type":"Point","coordinates":[21.51457,2.14452]}},{"type":"Feature","properties":{"sous_theme":"Port fluvial","nom":"Libenge","localite_proche":"Libenge","phase":3,"source_courte":"Projet"},"geometry":{"type":"Point","coordinates":[18.63016,3.64823]}},{"type":"Feature","properties":{"sous_theme":"Port fluvial","nom":"Zongo","localite_proche":"Zongo","phase":2,"source_courte":"Projet"},"geometry":{"type":"Point","coordinates":[18.59544,4.34699]}}]}