{"type":"FeatureCollection","features":[{"type":"Feature","properties":{"village":"Agene Gbali (Village des pêcheurs)","section":"ZONGO - LIBENGE","pk_declare_km":0.0,"pop_estimee":350,"nb_ecoles":1,"nb_centres_sante":1,"riviere":"Rivière Ubangui","motif":"coordonnee : secondes a 3 chiffres relues comme dixiemes (571 -> 57,1) ; secondes > 60 reportees sur les minutes","phase":2},"geometry":{"type":"Point","coordinates":[18.61833,4.36586]}},{"type":"Feature","properties":{"village":"Gbala","section":"ZONGO - LIBENGE","pk_declare_km":11.0,"pop_estimee":4000,"nb_ecoles":1,"nb_centres_sante":1,"riviere":"Rivière Gbla","motif":"","phase":2},"geometry":{"type":"Point","coordinates":[18.61845,4.29422]}},{"type":"Feature","properties":{"village":"Wenze II","section":"ZONGO - LIBENGE","pk_declare_km":13.0,"pop_estimee":1045,"nb_ecoles":1,"nb_centres_sante":1,"riviere":"","motif":"","phase":2},"geometry":{"type":"Point","coordinates":[18.63920,4.24668]}},{"type":"Feature","properties":{"village":"Wenze I","section":"ZONGO - LIBENGE","pk_declare_km":20.0,"pop_estimee":1476,"nb_ecoles":1,"nb_centres_sante":1,"riviere":"","motif":"","phase":2},"geometry":{"type":"Point","coordinates":[18.66490,4.23238]}},{"type":"Feature","properties":{"village":"Bondolo","section":"ZONGO - LIBENGE","pk_declare_km":21.0,"pop_estimee":420,"nb_ecoles":1,"nb_centres_sante":0,"riviere":"","motif":"","phase":2},"geometry":{"type":"Point","coordinates":[18.655,4.23555]}},{"type":"Feature","properties":{"village":"Sekia","section":"ZONGO - LIBENGE","pk_declare_km":23.0,"pop_estimee":687,"nb_ecoles":1,"nb_centres_sante":0,"riviere":"","motif":"","phase":2},"geometry":{"type":"Point","coordinates":[18.62943,4.27438]}},{"type":"Feature","properties":{"village":"Yakiri","section":"ZONGO - LIBENGE","pk_declare_km":26.0,"pop_estimee":334,"nb_ecoles":1,"nb_centres_sante":0,"riviere":"","motif":"population : valeur extraite du libelle","phase":2},"geometry":{"type":"Point","coordinates":[18.70398,4.21302]}},{"type":"Feature","properties":{"village":"Babenga","section":"ZONGO - LIBENGE","pk_declare_km":30.0,"pop_estimee":4000,"nb_ecoles":1,"nb_centres_sante":2,"riviere":"","motif":"population : valeur extraite du libelle","phase":2},"geometry":{"type":"Point","coordinates":[18.68166,4.22012]}},{"type":"Feature","properties":{"village":"Gbamundema II","section":"ZONGO - LIBENGE","pk_declare_km":33.0,"pop_estimee":256,"nb_ecoles":0,"nb_centres_sante":0,"riviere":"","motif":"","phase":2},"geometry":{"type":"Point","coordinates":[18.72972,4.20222]}},{"type":"Feature","properties":{"village":"Gbamundema I","section":"ZONGO - LIBENGE","pk_declare_km":35.0,"pop_estimee":402,"nb_ecoles":0,"nb_centres_sante":0,"riviere":"Nande","motif":"","phase":2},"geometry":{"type":"Point","coordinates":[18.75722,4.17555]}},{"type":"Feature","properties":{"village":"Molin 2kilo","section":"ZONGO - LIBENGE","pk_declare_km":38.0,"pop_estimee":4100,"nb_ecoles":1,"nb_centres_sante":1,"riviere":"Mole","motif":"","phase":2},"geometry":{"type":"Point","coordinates":[18.77305,4.15555]}},{"type":"Feature","properties":{"village":"Molin ingonge","section":"ZONGO - LIBENGE","pk_declare_km":43.0,"pop_estimee":null,"nb_ecoles":1,"nb_centres_sante":1,"riviere":"","motif":"","phase":2},"geometry":{"type":"Point","coordinates":[18.78871,4.15005]}},{"type":"Feature","properties":{"village":"Yongala pâturage","section":"ZONGO - LIBENGE","pk_declare_km":43.2,"pop_estimee":787,"nb_ecoles":1,"nb_centres_sante":0,"riviere":"","motif":"","phase":2},"geometry":{"type":"Point","coordinates":[18.78528,4.12435]}},{"type":"Feature","properties":{"village":"Yongalu pâturage","section":"ZONGO - LIBENGE","pk_declare_km":44.0,"pop_estimee":787,"nb_ecoles":1,"nb_centres_sante":1,"riviere":"","motif":"population : valeur extraite du libelle","phase":2},"geometry":{"type":"Point","coordinates":[18.78755,4.12766]}},{"type":"Feature","properties":{"village":"Bumbala","section":"ZONGO - LIBENGE","pk_declare_km":45.0,"pop_estimee":750,"nb_ecoles":1,"nb_centres_sante":1,"riviere":"","motif":"","phase":2},"geometry":{"type":"Point","coordinates":[18.75709,4.08884]}},{"type":"Feature","properties":{"village":"Yambele","section":"ZONGO - LIBENGE","pk_declare_km":51.0,"pop_estimee":250,"nb_ecoles":0,"nb_centres_sante":0,"riviere":"","motif":"","phase":2},"geometry":{"type":"Point","coordinates":[18.75783,4.07613]}},{"type":"Feature","properties":{"village":"Dakamba","section":"ZONGO - LIBENGE","pk_declare_km":52.0,"pop_estimee":430,"nb_ecoles":1,"nb_centres_sante":0,"riviere":"Rivière Duka","motif":"","phase":2},"geometry":{"type":"Point","coordinates":[18.75126,4.05790]}},{"type":"Feature","properties":{"village":"Wangara I","section":"ZONGO - LIBENGE","pk_declare_km":53.4,"pop_estimee":280,"nb_ecoles":0,"nb_centres_sante":0,"riviere":"","motif":"","phase":2},"geometry":{"type":"Point","coordinates":[18.74605,4.04932]}},{"type":"Feature","properties":{"village":"Wangara II","section":"ZONGO - LIBENGE","pk_declare_km":55.0,"pop_estimee":345,"nb_ecoles":0,"nb_centres_sante":0,"riviere":"","motif":"population : libelle non numerique, a verifier","phase":2},"geometry":{"type":"Point","coordinates":[18.74789,4.02377]}},{"type":"Feature","properties":{"village":"Bungba","section":"ZONGO - LIBENGE","pk_declare_km":null,"pop_estimee":2237,"nb_ecoles":2,"nb_centres_sante":1,"riviere":"","motif":"","phase":2},"geometry":{"type":"Point","coordinates":[18.74568,4.02014]}},{"type":"Feature","properties":{"village":"Yu","section":"ZONGO - LIBENGE","pk_declare_km":59.0,"pop_estimee":470,"nb_ecoles":1,"nb_centres_sante":0,"riviere":"","motif":"","phase":2},"geometry":{"type":"Point","coordinates":[18.73218,3.99158]}},{"type":"Feature","properties":{"village":"Po","section":"ZONGO - LIBENGE","pk_declare_km":63.0,"pop_estimee":16,"nb_ecoles":0,"nb_centres_sante":0,"riviere":"","motif":"population : libelle non numerique, a verifier","phase":2},"geometry":{"type":"Point","coordinates":[18.71906,3.97217]}},{"type":"Feature","properties":{"village":"Yambere I","section":"ZONGO - LIBENGE","pk_declare_km":64.0,"pop_estimee":101,"nb_ecoles":0,"nb_centres_sante":0,"riviere":"","motif":"","phase":2},"geometry":{"type":"Point","coordinates":[18.71643,3.95859]}},{"type":"Feature","properties":{"village":"Oro","section":"ZONGO - LIBENGE","pk_declare_km":66.0,"pop_estimee":90,"nb_ecoles":0,"nb_centres_sante":0,"riviere":"","motif":"","phase":2},"geometry":{"type":"Point","coordinates":[18.70825,3.95207]}},{"type":"Feature","properties":{"village":"Katako","section":"ZONGO - LIBENGE","pk_declare_km":67.0,"pop_estimee":100,"nb_ecoles":1,"nb_centres_sante":1,"riviere":"","motif":"population : valeur extraite du libelle","phase":2},"geometry":{"type":"Point","coordinates":[18.70289,3.94070]}},{"type":"Feature","properties":{"village":"Udawu","section":"ZONGO - LIBENGE","pk_declare_km":68.0,"pop_estimee":217,"nb_ecoles":1,"nb_centres_sante":1,"riviere":"","motif":"","phase":2},"geometry":{"type":"Point","coordinates":[18.69638,3.92390]}},{"type":"Feature","properties":{"village":"Ndokpa","section":"ZONGO - LIBENGE","pk_declare_km":70.0,"pop_estimee":300,"nb_ecoles":0,"nb_centres_sante":0,"riviere":"","motif":"","phase":2},"geometry":{"type":"Point","coordinates":[18.69428,3.91746]}},{"type":"Feature","properties":{"village":"Soma","section":"ZONGO - LIBENGE","pk_declare_km":71.0,"pop_estimee":735,"nb_ecoles":0,"nb_centres_sante":0,"riviere":"","motif":"","phase":2},"geometry":{"type":"Point","coordinates":[18.69402,3.90397]}},{"type":"Feature","properties":{"village":"Nduma","section":"ZONGO - LIBENGE","pk_declare_km":73.0,"pop_estimee":2000,"nb_ecoles":1,"nb_centres_sante":1,"riviere":"","motif":"","phase":2},"geometry":{"type":"Point","coordinates":[18.68259,3.87877]}},{"type":"Feature","properties":{"village":"Ligudu","section":"ZONGO - LIBENGE","pk_declare_km":75.0,"pop_estimee":500,"nb_ecoles":0,"nb_centres_sante":0,"riviere":"","motif":"","phase":2},"geometry":{"type":"Point","coordinates":[18.67896,3.87100]}},{"type":"Feature","properties":{"village":"Bositolo","section":"ZONGO - LIBENGE","pk_declare_km":76.0,"pop_estimee":2500,"nb_ecoles":0,"nb_centres_sante":0,"riviere":"","motif":"","phase":2},"geometry":{"type":"Point","coordinates":[18.67625,3.85275]}},{"type":"Feature","properties":{"village":"Yamangu","section":"ZONGO - LIBENGE","pk_declare_km":78.0,"pop_estimee":220,"nb_ecoles":0,"nb_centres_sante":0,"riviere":"","motif":"","phase":2},"geometry":{"type":"Point","coordinates":[18.67821,3.84711]}},{"type":"Feature","properties":{"village":"Mase Muda","section":"ZONGO - LIBENGE","pk_declare_km":79.0,"pop_estimee":400,"nb_ecoles":0,"nb_centres_sante":0,"riviere":"Rivière Masemuda","motif":"","phase":2},"geometry":{"type":"Point","coordinates":[18.70000,3.81582]}},{"type":"Feature","properties":{"village":"Mase Gova","section":"ZONGO - LIBENGE","pk_declare_km":81.0,"pop_estimee":342,"nb_ecoles":0,"nb_centres_sante":0,"riviere":"","motif":"","phase":2},"geometry":{"type":"Point","coordinates":[18.69532,3.82268]}},{"type":"Feature","properties":{"village":"Mase Kolande","section":"ZONGO - LIBENGE","pk_declare_km":82.0,"pop_estimee":450,"nb_ecoles":0,"nb_centres_sante":1,"riviere":"","motif":"","phase":2},"geometry":{"type":"Point","coordinates":[18.69532,3.82268]}},{"type":"Feature","properties":{"village":"Mase Dima","section":"ZONGO - LIBENGE","pk_declare_km":83.0,"pop_estimee":287,"nb_ecoles":0,"nb_centres_sante":0,"riviere":"Rivière Ngene","motif":"","phase":2},"geometry":{"type":"Point","coordinates":[18.68663,3.83518]}},{"type":"Feature","properties":{"village":"Su","section":"ZONGO - LIBENGE","pk_declare_km":86.0,"pop_estimee":427,"nb_ecoles":0,"nb_centres_sante":0,"riviere":"","motif":"","phase":2},"geometry":{"type":"Point","coordinates":[18.70437,3.78608]}},{"type":"Feature","properties":{"village":"Kpagwa","section":"ZONGO - LIBENGE","pk_declare_km":87.0,"pop_estimee":500,"nb_ecoles":1,"nb_centres_sante":1,"riviere":"","motif":"","phase":2},"geometry":{"type":"Point","coordinates":[18.71749,3.75461]}},{"type":"Feature","properties":{"village":"Bogbokozo","section":"ZONGO - LIBENGE","pk_declare_km":92.0,"pop_estimee":350,"nb_ecoles":0,"nb_centres_sante":0,"riviere":"","motif":"","phase":2},"geometry":{"type":"Point","coordinates":[18.73766,3.74519]}},{"type":"Feature","properties":{"village":"Boyabo","section":"ZONGO - LIBENGE","pk_declare_km":98.0,"pop_estimee":4574,"nb_ecoles":1,"nb_centres_sante":1,"riviere":"","motif":"","phase":2},"geometry":{"type":"Point","coordinates":[18.77000,3.71748]}},{"type":"Feature","properties":{"village":"Ndoroka","section":"BOYABO - GEMENA","pk_declare_km":98.3,"pop_estimee":3134,"nb_ecoles":2,"nb_centres_sante":0,"riviere":"","motif":"","phase":2},"geometry":{"type":"Point","coordinates":[18.77185,3.72634]}},{"type":"Feature","properties":{"village":"Zepere monene","section":"BOYABO - GEMENA","pk_declare_km":99.1,"pop_estimee":736,"nb_ecoles":0,"nb_centres_sante":0,"riviere":"","motif":"","phase":2},"geometry":{"type":"Point","coordinates":[18.77603,3.73253]}},{"type":"Feature","properties":{"village":"Badza","section":"BOYABO - GEMENA","pk_declare_km":101.0,"pop_estimee":2216,"nb_ecoles":1,"nb_centres_sante":1,"riviere":"","motif":"","phase":2},"geometry":{"type":"Point","coordinates":[18.79034,3.74868]}},{"type":"Feature","properties":{"village":"Wudawu","section":"BOYABO - GEMENA","pk_declare_km":103.8,"pop_estimee":722,"nb_ecoles":0,"nb_centres_sante":0,"riviere":"","motif":"","phase":2},"geometry":{"type":"Point","coordinates":[18.80703,3.75415]}},{"type":"Feature","properties":{"village":"Gbubu","section":"BOYABO - GEMENA","pk_declare_km":105.0,"pop_estimee":488,"nb_ecoles":0,"nb_centres_sante":0,"riviere":"","motif":"coordonnee corrigee","phase":2},"geometry":{"type":"Point","coordinates":[18.82107,3.75684]}},{"type":"Feature","properties":{"village":"Bodala","section":"BOYABO - GEMENA","pk_declare_km":106.0,"pop_estimee":5893,"nb_ecoles":2,"nb_centres_sante":0,"riviere":"","motif":"","phase":2},"geometry":{"type":"Point","coordinates":[18.83418,3.75996]}},{"type":"Feature","properties":{"village":"Bogdasiko","section":"BOYABO - GEMENA","pk_declare_km":109.0,"pop_estimee":2822,"nb_ecoles":0,"nb_centres_sante":1,"riviere":"","motif":"","phase":2},"geometry":{"type":"Point","coordinates":[18.86247,3.76823]}},{"type":"Feature","properties":{"village":"Boketa","section":"BOYABO - GEMENA","pk_declare_km":111.0,"pop_estimee":2599,"nb_ecoles":0,"nb_centres_sante":0,"riviere":"","motif":"","phase":2},"geometry":{"type":"Point","coordinates":[18.87113,3.77204]}},{"type":"Feature","properties":{"village":"Bomanga (fataki et mafua)","section":"BOYABO - GEMENA","pk_declare_km":112.0,"pop_estimee":1143,"nb_ecoles":0,"nb_centres_sante":1,"riviere":"","motif":"","phase":2},"geometry":{"type":"Point","coordinates":[18.88619,3.77621]}},{"type":"Feature","properties":{"village":"Bomuntu Munene","section":"BOYABO - GEMENA","pk_declare_km":114.0,"pop_estimee":5785,"nb_ecoles":1,"nb_centres_sante":1,"riviere":"Rivière Mosekpe","motif":"","phase":2},"geometry":{"type":"Point","coordinates":[18.91628,3.77948]}},{"type":"Feature","properties":{"village":"Bomuntu Mukie","section":"BOYABO - GEMENA","pk_declare_km":120.0,"pop_estimee":1336,"nb_ecoles":0,"nb_centres_sante":0,"riviere":"","motif":"","phase":2},"geometry":{"type":"Point","coordinates":[18.97010,3.77544]}},{"type":"Feature","properties":{"village":"Bondolo","section":"BOYABO - GEMENA","pk_declare_km":124.0,"pop_estimee":2876,"nb_ecoles":1,"nb_centres_sante":0,"riviere":"","motif":"","phase":2},"geometry":{"type":"Point","coordinates":[19.00216,3.76945]}},{"type":"Feature","properties":{"village":"Bongiliyo","section":"BOYABO - GEMENA","pk_declare_km":126.0,"pop_estimee":2200,"nb_ecoles":2,"nb_centres_sante":0,"riviere":"","motif":"","phase":2},"geometry":{"type":"Point","coordinates":[19.02127,3.76665]}},{"type":"Feature","properties":{"village":"Bongo","section":"BOYABO - GEMENA","pk_declare_km":126.4,"pop_estimee":1589,"nb_ecoles":0,"nb_centres_sante":0,"riviere":"","motif":"","phase":2},"geometry":{"type":"Point","coordinates":[19.02535,3.76645]}},{"type":"Feature","properties":{"village":"Bokiliyo","section":"BOYABO - GEMENA","pk_declare_km":127.0,"pop_estimee":2761,"nb_ecoles":1,"nb_centres_sante":1,"riviere":"","motif":"","phase":2},"geometry":{"type":"Point","coordinates":[19.03295,3.7658]}},{"type":"Feature","properties":{"village":"Bogbali Boyikama","section":"BOYABO - GEMENA","pk_declare_km":128.0,"pop_estimee":3100,"nb_ecoles":1,"nb_centres_sante":0,"riviere":"","motif":"","phase":2},"geometry":{"type":"Point","coordinates":[19.04704,3.76343]}},{"type":"Feature","properties":{"village":"Bau","section":"BOYABO - GEMENA","pk_declare_km":132.0,"pop_estimee":3241,"nb_ecoles":1,"nb_centres_sante":1,"riviere":"","motif":"","phase":2},"geometry":{"type":"Point","coordinates":[19.06966,3.74855]}},{"type":"Feature","properties":{"village":"Botela","section":"BOYABO - GEMENA","pk_declare_km":133.0,"pop_estimee":4867,"nb_ecoles":0,"nb_centres_sante":1,"riviere":"","motif":"","phase":2},"geometry":{"type":"Point","coordinates":[19.07610,3.74540]}},{"type":"Feature","properties":{"village":"Ngbodenge","section":"BOYABO - GEMENA","pk_declare_km":134.0,"pop_estimee":6959,"nb_ecoles":1,"nb_centres_sante":0,"riviere":"","motif":"","phase":2},"geometry":{"type":"Point","coordinates":[19.08118,3.74166]}},{"type":"Feature","properties":{"village":"Bokembe","section":"BOYABO - GEMENA","pk_declare_km":135.0,"pop_estimee":3907,"nb_ecoles":2,"nb_centres_sante":1,"riviere":"","motif":"","phase":2},"geometry":{"type":"Point","coordinates":[19.08906,3.72291]}},{"type":"Feature","properties":{"village":"Bozoko","section":"BOYABO - GEMENA","pk_declare_km":137.0,"pop_estimee":4457,"nb_ecoles":1,"nb_centres_sante":1,"riviere":"","motif":"","phase":2},"geometry":{"type":"Point","coordinates":[19.09422,3.69145]}},{"type":"Feature","properties":{"village":"Boduli","section":"BOYABO - GEMENA","pk_declare_km":142.0,"pop_estimee":4491,"nb_ecoles":1,"nb_centres_sante":0,"riviere":"","motif":"","phase":2},"geometry":{"type":"Point","coordinates":[19.10992,3.66310]}},{"type":"Feature","properties":{"village":"Bosuma","section":"BOYABO - GEMENA","pk_declare_km":147.0,"pop_estimee":1683,"nb_ecoles":0,"nb_centres_sante":0,"riviere":"","motif":"","phase":2},"geometry":{"type":"Point","coordinates":[19.14005,3.63144]}},{"type":"Feature","properties":{"village":"Bogbali","section":"BOYABO - GEMENA","pk_declare_km":149.0,"pop_estimee":2971,"nb_ecoles":0,"nb_centres_sante":1,"riviere":"","motif":"","phase":2},"geometry":{"type":"Point","coordinates":[19.15047,3.61597]}},{"type":"Feature","properties":{"village":"Bombaolo","section":"BOYABO - GEMENA","pk_declare_km":153.0,"pop_estimee":2992,"nb_ecoles":1,"nb_centres_sante":0,"riviere":"","motif":"","phase":2},"geometry":{"type":"Point","coordinates":[19.18319,3.60261]}},{"type":"Feature","properties":{"village":"Bagilima","section":"BOYABO - GEMENA","pk_declare_km":160.0,"pop_estimee":2964,"nb_ecoles":2,"nb_centres_sante":1,"riviere":"Rivière Lua","motif":"","phase":2},"geometry":{"type":"Point","coordinates":[19.25516,3.57572]}},{"type":"Feature","properties":{"village":"Bogose","section":"BOYABO - GEMENA","pk_declare_km":164.0,"pop_estimee":3750,"nb_ecoles":0,"nb_centres_sante":1,"riviere":"","motif":"","phase":2},"geometry":{"type":"Point","coordinates":[19.28034,3.56367]}},{"type":"Feature","properties":{"village":"Bondugwa","section":"BOYABO - GEMENA","pk_declare_km":167.0,"pop_estimee":2664,"nb_ecoles":1,"nb_centres_sante":0,"riviere":"","motif":"position estimee","phase":2},"geometry":{"type":"Point","coordinates":[19.31069,3.56032]}},{"type":"Feature","properties":{"village":"Bobise","section":"BOYABO - GEMENA","pk_declare_km":170.0,"pop_estimee":5010,"nb_ecoles":1,"nb_centres_sante":1,"riviere":"Rivière Ngonda","motif":"","phase":2},"geometry":{"type":"Point","coordinates":[19.33596,3.54749]}},{"type":"Feature","properties":{"village":"Gbakombo","section":"BOYABO - GEMENA","pk_declare_km":175.0,"pop_estimee":3626,"nb_ecoles":1,"nb_centres_sante":1,"riviere":"","motif":"","phase":2},"geometry":{"type":"Point","coordinates":[19.33596,3.53309]}},{"type":"Feature","properties":{"village":"Bongidi I","section":"BOYABO - GEMENA","pk_declare_km":177.0,"pop_estimee":3459,"nb_ecoles":1,"nb_centres_sante":0,"riviere":"","motif":"population : valeur extraite du libelle","phase":2},"geometry":{"type":"Point","coordinates":[19.36243,3.52389]}},{"type":"Feature","properties":{"village":"Bongidi II","section":"BOYABO - GEMENA","pk_declare_km":178.0,"pop_estimee":3340,"nb_ecoles":2,"nb_centres_sante":0,"riviere":"","motif":"","phase":2},"geometry":{"type":"Point","coordinates":[19.37970,3.50616]}},{"type":"Feature","properties":{"village":"Bowazi","section":"BOYABO - GEMENA","pk_declare_km":181.0,"pop_estimee":2495,"nb_ecoles":2,"nb_centres_sante":1,"riviere":"Tombe","motif":"","phase":2},"geometry":{"type":"Point","coordinates":[19.39121,3.47680]}},{"type":"Feature","properties":{"village":"Boboyo","section":"BOYABO - GEMENA","pk_declare_km":186.0,"pop_estimee":2215,"nb_ecoles":1,"nb_centres_sante":0,"riviere":"","motif":"","phase":2},"geometry":{"type":"Point","coordinates":[19.39280,3.47680]}},{"type":"Feature","properties":{"village":"Bokembe II","section":"BOYABO - GEMENA","pk_declare_km":188.0,"pop_estimee":2200,"nb_ecoles":2,"nb_centres_sante":0,"riviere":"","motif":"","phase":2},"geometry":{"type":"Point","coordinates":[19.38612,3.42829]}},{"type":"Feature","properties":{"village":"Bokembe I","section":"BOYABO - GEMENA","pk_declare_km":189.0,"pop_estimee":2914,"nb_ecoles":1,"nb_centres_sante":1,"riviere":"","motif":"","phase":2},"geometry":{"type":"Point","coordinates":[19.38320,3.41680]}},{"type":"Feature","properties":{"village":"Bobiangele","section":"BOYABO - GEMENA","pk_declare_km":194.0,"pop_estimee":6674,"nb_ecoles":0,"nb_centres_sante":0,"riviere":"","motif":"","phase":2},"geometry":{"type":"Point","coordinates":[19.37729,3.36353]}},{"type":"Feature","properties":{"village":"Bongbadasua","section":"BOYABO - GEMENA","pk_declare_km":198.0,"pop_estimee":1534,"nb_ecoles":0,"nb_centres_sante":0,"riviere":"","motif":"","phase":2},"geometry":{"type":"Point","coordinates":[19.39184,3.47325]}},{"type":"Feature","properties":{"village":"Mbari","section":"BOYABO - GEMENA","pk_declare_km":201.0,"pop_estimee":0,"nb_ecoles":2,"nb_centres_sante":1,"riviere":"","motif":"","phase":2},"geometry":{"type":"Point","coordinates":[19.39065,3.31895]}},{"type":"Feature","properties":{"village":"Bodebe","section":"BOYABO - GEMENA","pk_declare_km":203.0,"pop_estimee":1509,"nb_ecoles":1,"nb_centres_sante":0,"riviere":"","motif":"coordonnee corrigee","phase":2},"geometry":{"type":"Point","coordinates":[19.41361,3.32055]}},{"type":"Feature","properties":{"village":"Bongbada II","section":"BOYABO - GEMENA","pk_declare_km":204.0,"pop_estimee":2547,"nb_ecoles":1,"nb_centres_sante":1,"riviere":"","motif":"","phase":2},"geometry":{"type":"Point","coordinates":[19.38320,3.41680]}},{"type":"Feature","properties":{"village":"Bongbada I","section":"BOYABO - GEMENA","pk_declare_km":208.0,"pop_estimee":3323,"nb_ecoles":1,"nb_centres_sante":1,"riviere":"","motif":"","phase":2},"geometry":{"type":"Point","coordinates":[19.46549,3.3009]}},{"type":"Feature","properties":{"village":"Bosapkana","section":"BOYABO - GEMENA","pk_declare_km":211.0,"pop_estimee":3454,"nb_ecoles":1,"nb_centres_sante":1,"riviere":"","motif":"","phase":2},"geometry":{"type":"Point","coordinates":[19.48846,3.29768]}},{"type":"Feature","properties":{"village":"Bozoko V","section":"BOYABO - GEMENA","pk_declare_km":213.0,"pop_estimee":3928,"nb_ecoles":1,"nb_centres_sante":1,"riviere":"","motif":"","phase":2},"geometry":{"type":"Point","coordinates":[19.50763,3.29369]}},{"type":"Feature","properties":{"village":"Bozoko IV","section":"BOYABO - GEMENA","pk_declare_km":214.4,"pop_estimee":3757,"nb_ecoles":0,"nb_centres_sante":0,"riviere":"","motif":"","phase":2},"geometry":{"type":"Point","coordinates":[19.50763,3.29369]}},{"type":"Feature","properties":{"village":"Bozoko III","section":"BOYABO - GEMENA","pk_declare_km":215.0,"pop_estimee":2456,"nb_ecoles":0,"nb_centres_sante":0,"riviere":"","motif":"","phase":2},"geometry":{"type":"Point","coordinates":[19.52193,3.29014]}},{"type":"Feature","properties":{"village":"Bozoko II","section":"BOYABO - GEMENA","pk_declare_km":216.6,"pop_estimee":2934,"nb_ecoles":2,"nb_centres_sante":1,"riviere":"","motif":"","phase":2},"geometry":{"type":"Point","coordinates":[19.53497,3.28289]}},{"type":"Feature","properties":{"village":"Bozoko I","section":"BOYABO - GEMENA","pk_declare_km":218.0,"pop_estimee":2999,"nb_ecoles":2,"nb_centres_sante":1,"riviere":"","motif":"","phase":2},"geometry":{"type":"Point","coordinates":[19.54742,3.28201]}},{"type":"Feature","properties":{"village":"Bodeme II","section":"BOYABO - GEMENA","pk_declare_km":220.0,"pop_estimee":5058,"nb_ecoles":0,"nb_centres_sante":1,"riviere":"","motif":"","phase":2},"geometry":{"type":"Point","coordinates":[19.56876,3.28185]}},{"type":"Feature","properties":{"village":"Bodeme I","section":"BOYABO - GEMENA","pk_declare_km":223.0,"pop_estimee":4748,"nb_ecoles":1,"nb_centres_sante":1,"riviere":"","motif":"","phase":2},"geometry":{"type":"Point","coordinates":[19.58858,3.27248]}},{"type":"Feature","properties":{"village":"Boduli II","section":"BOYABO - GEMENA","pk_declare_km":224.0,"pop_estimee":3178,"nb_ecoles":0,"nb_centres_sante":0,"riviere":"","motif":"","phase":2},"geometry":{"type":"Point","coordinates":[19.59630,3.27151]}},{"type":"Feature","properties":{"village":"Boduli I","section":"BOYABO - GEMENA","pk_declare_km":224.5,"pop_estimee":3793,"nb_ecoles":2,"nb_centres_sante":1,"riviere":"","motif":"","phase":2},"geometry":{"type":"Point","coordinates":[19.60051,3.27276]}},{"type":"Feature","properties":{"village":"Bodenge","section":"BOYABO - GEMENA","pk_declare_km":227.0,"pop_estimee":5457,"nb_ecoles":1,"nb_centres_sante":0,"riviere":"","motif":"","phase":2},"geometry":{"type":"Point","coordinates":[19.61968,3.27008]}},{"type":"Feature","properties":{"village":"Boyambi mbalina III","section":"BOYABO - GEMENA","pk_declare_km":233.0,"pop_estimee":5200,"nb_ecoles":1,"nb_centres_sante":1,"riviere":"","motif":"","phase":2},"geometry":{"type":"Point","coordinates":[19.67174,3.24409]}},{"type":"Feature","properties":{"village":"Boyambi II","section":"BOYABO - GEMENA","pk_declare_km":236.0,"pop_estimee":237,"nb_ecoles":1,"nb_centres_sante":1,"riviere":"","motif":"coordonnee corrigee","phase":2},"geometry":{"type":"Point","coordinates":[19.70111,3.22972]}},{"type":"Feature","properties":{"village":"Boyambi I","section":"BOYABO - GEMENA","pk_declare_km":240.0,"pop_estimee":3640,"nb_ecoles":1,"nb_centres_sante":1,"riviere":"","motif":"","phase":2},"geometry":{"type":"Point","coordinates":[19.71638,3.24111]}},{"type":"Feature","properties":{"village":"Gemena","section":"BOYABO - GEMENA","pk_declare_km":245.0,"pop_estimee":138527,"nb_ecoles":2,"nb_centres_sante":2,"riviere":"","motif":"","phase":2},"geometry":{"type":"Point","coordinates":[19.76673,3.26667]}},{"type":"Feature","properties":{"village":"Bokuda","section":"GEMENA - AKULA","pk_declare_km":256.0,"pop_estimee":4000,"nb_ecoles":1,"nb_centres_sante":1,"riviere":"","motif":"","phase":1},"geometry":{"type":"Point","coordinates":[19.77829,3.22171]}},{"type":"Feature","properties":{"village":"Boketa Salongo","section":"GEMENA - AKULA","pk_declare_km":261.0,"pop_estimee":2800,"nb_ecoles":1,"nb_centres_sante":0,"riviere":"","motif":"","phase":1},"geometry":{"type":"Point","coordinates":[19.81134,3.18791]}},{"type":"Feature","properties":{"village":"Boketa Centre","section":"GEMENA - AKULA","pk_declare_km":264.0,"pop_estimee":3800,"nb_ecoles":0,"nb_centres_sante":0,"riviere":"","motif":"","phase":1},"geometry":{"type":"Point","coordinates":[19.78333,3.25]}},{"type":"Feature","properties":{"village":"Boketa Ligidi","section":"GEMENA - AKULA","pk_declare_km":265.0,"pop_estimee":3276,"nb_ecoles":0,"nb_centres_sante":0,"riviere":"","motif":"","phase":1},"geometry":{"type":"Point","coordinates":[19.81711,3.1551]}},{"type":"Feature","properties":{"village":"Bodiawa Moke","section":"GEMENA - AKULA","pk_declare_km":267.0,"pop_estimee":2012,"nb_ecoles":2,"nb_centres_sante":1,"riviere":"","motif":"","phase":1},"geometry":{"type":"Point","coordinates":[19.81871,3.12696]}},{"type":"Feature","properties":{"village":"Bodiawa Monene","section":"GEMENA - AKULA","pk_declare_km":267.4,"pop_estimee":3002,"nb_ecoles":1,"nb_centres_sante":1,"riviere":"","motif":"","phase":1},"geometry":{"type":"Point","coordinates":[19.81871,3.14244]}},{"type":"Feature","properties":{"village":"Bogeze","section":"GEMENA - AKULA","pk_declare_km":270.0,"pop_estimee":2328,"nb_ecoles":1,"nb_centres_sante":0,"riviere":"","motif":"","phase":1},"geometry":{"type":"Point","coordinates":[19.83318,3.10906]}},{"type":"Feature","properties":{"village":"Bodanu","section":"GEMENA - AKULA","pk_declare_km":271.0,"pop_estimee":3400,"nb_ecoles":0,"nb_centres_sante":0,"riviere":"","motif":"","phase":1},"geometry":{"type":"Point","coordinates":[19.83532,3.10520]}},{"type":"Feature","properties":{"village":"Bozomo","section":"GEMENA - AKULA","pk_declare_km":272.8,"pop_estimee":980,"nb_ecoles":0,"nb_centres_sante":0,"riviere":"","motif":"","phase":1},"geometry":{"type":"Point","coordinates":[19.84583,3.09503]}},{"type":"Feature","properties":{"village":"Bomele","section":"GEMENA - AKULA","pk_declare_km":273.6,"pop_estimee":2400,"nb_ecoles":1,"nb_centres_sante":1,"riviere":"","motif":"","phase":1},"geometry":{"type":"Point","coordinates":[19.85780,3.08564]}},{"type":"Feature","properties":{"village":"Bogoko II","section":"GEMENA - AKULA","pk_declare_km":276.0,"pop_estimee":800,"nb_ecoles":0,"nb_centres_sante":0,"riviere":"","motif":"","phase":1},"geometry":{"type":"Point","coordinates":[19.87171,3.07574]}},{"type":"Feature","properties":{"village":"Bozagba","section":"GEMENA - AKULA","pk_declare_km":278.0,"pop_estimee":500,"nb_ecoles":1,"nb_centres_sante":1,"riviere":"","motif":"","phase":1},"geometry":{"type":"Point","coordinates":[19.88349,3.07282]}},{"type":"Feature","properties":{"village":"Bogoro TP V","section":"GEMENA - AKULA","pk_declare_km":280.0,"pop_estimee":960,"nb_ecoles":1,"nb_centres_sante":1,"riviere":"","motif":"","phase":1},"geometry":{"type":"Point","coordinates":[19.88633,3.05726]}},{"type":"Feature","properties":{"village":"Bogoro TP IV","section":"GEMENA - AKULA","pk_declare_km":281.0,"pop_estimee":2000,"nb_ecoles":0,"nb_centres_sante":0,"riviere":"Lac djele","motif":"","phase":1},"geometry":{"type":"Point","coordinates":[19.88878,3.0458]}},{"type":"Feature","properties":{"village":"Bokadae","section":"GEMENA - AKULA","pk_declare_km":282.0,"pop_estimee":1260,"nb_ecoles":0,"nb_centres_sante":0,"riviere":"","motif":"","phase":1},"geometry":{"type":"Point","coordinates":[19.89012,3.04069]}},{"type":"Feature","properties":{"village":"Bogoro TP III","section":"GEMENA - AKULA","pk_declare_km":283.0,"pop_estimee":1246,"nb_ecoles":1,"nb_centres_sante":1,"riviere":"","motif":"","phase":1},"geometry":{"type":"Point","coordinates":[19.89348,3.02972]}},{"type":"Feature","properties":{"village":"Bodongodale II TP","section":"GEMENA - AKULA","pk_declare_km":286.0,"pop_estimee":1860,"nb_ecoles":1,"nb_centres_sante":1,"riviere":"","motif":"","phase":1},"geometry":{"type":"Point","coordinates":[19.89579,3.01931]}},{"type":"Feature","properties":{"village":"Gbatikombo","section":"GEMENA - AKULA","pk_declare_km":286.0,"pop_estimee":500,"nb_ecoles":1,"nb_centres_sante":2,"riviere":"","motif":"","phase":1},"geometry":{"type":"Point","coordinates":[19.89891,2.99870]}},{"type":"Feature","properties":{"village":"Bogalegba III","section":"GEMENA - AKULA","pk_declare_km":289.0,"pop_estimee":3985,"nb_ecoles":1,"nb_centres_sante":0,"riviere":"","motif":"","phase":1},"geometry":{"type":"Point","coordinates":[19.90057,2.96735]}},{"type":"Feature","properties":{"village":"Bogalegba II","section":"GEMENA - AKULA","pk_declare_km":294.0,"pop_estimee":3085,"nb_ecoles":1,"nb_centres_sante":2,"riviere":"","motif":"","phase":1},"geometry":{"type":"Point","coordinates":[19.90180,2.94146]}},{"type":"Feature","properties":{"village":"Boguaka","section":"GEMENA - AKULA","pk_declare_km":296.0,"pop_estimee":7850,"nb_ecoles":2,"nb_centres_sante":1,"riviere":"","motif":"","phase":1},"geometry":{"type":"Point","coordinates":[19.90655,2.92322]}},{"type":"Feature","properties":{"village":"Bozagba sua","section":"GEMENA - AKULA","pk_declare_km":301.0,"pop_estimee":2800,"nb_ecoles":2,"nb_centres_sante":1,"riviere":"","motif":"","phase":1},"geometry":{"type":"Point","coordinates":[19.94165,2.86098]}},{"type":"Feature","properties":{"village":"Talasua","section":"GEMENA - AKULA","pk_declare_km":305.0,"pop_estimee":7141,"nb_ecoles":1,"nb_centres_sante":1,"riviere":"","motif":"","phase":1},"geometry":{"type":"Point","coordinates":[19.94548,2.85445]}},{"type":"Feature","properties":{"village":"Nganda","section":"GEMENA - AKULA","pk_declare_km":308.0,"pop_estimee":309,"nb_ecoles":0,"nb_centres_sante":0,"riviere":"","motif":"","phase":1},"geometry":{"type":"Point","coordinates":[19.98080,2.82222]}},{"type":"Feature","properties":{"village":"Yabaza I","section":"GEMENA - AKULA","pk_declare_km":309.3,"pop_estimee":1302,"nb_ecoles":1,"nb_centres_sante":1,"riviere":"","motif":"","phase":1},"geometry":{"type":"Point","coordinates":[19.96721,2.82084]}},{"type":"Feature","properties":{"village":"Yabaza II","section":"GEMENA - AKULA","pk_declare_km":312.0,"pop_estimee":800,"nb_ecoles":0,"nb_centres_sante":0,"riviere":"","motif":"","phase":1},"geometry":{"type":"Point","coordinates":[19.97506,2.80647]}},{"type":"Feature","properties":{"village":"Yabaza III","section":"GEMENA - AKULA","pk_declare_km":316.0,"pop_estimee":1800,"nb_ecoles":0,"nb_centres_sante":0,"riviere":"","motif":"","phase":1},"geometry":{"type":"Point","coordinates":[19.98951,2.77682]}},{"type":"Feature","properties":{"village":"Gbulu","section":"GEMENA - AKULA","pk_declare_km":319.0,"pop_estimee":1447,"nb_ecoles":1,"nb_centres_sante":0,"riviere":"","motif":"","phase":1},"geometry":{"type":"Point","coordinates":[19.99296,2.74851]}},{"type":"Feature","properties":{"village":"Kolongo","section":"GEMENA - AKULA","pk_declare_km":324.0,"pop_estimee":8530,"nb_ecoles":0,"nb_centres_sante":0,"riviere":"","motif":"","phase":1},"geometry":{"type":"Point","coordinates":[19.98545,2.68895]}},{"type":"Feature","properties":{"village":"Ngbonga Munene","section":"GEMENA - AKULA","pk_declare_km":328.0,"pop_estimee":2221,"nb_ecoles":0,"nb_centres_sante":0,"riviere":"","motif":"","phase":1},"geometry":{"type":"Point","coordinates":[19.99297,2.67594]}},{"type":"Feature","properties":{"village":"Ngbonga Mukie","section":"GEMENA - AKULA","pk_declare_km":333.0,"pop_estimee":2246,"nb_ecoles":0,"nb_centres_sante":0,"riviere":"","motif":"coordonnee corrigee","phase":1},"geometry":{"type":"Point","coordinates":[20.00399,2.64642]}},{"type":"Feature","properties":{"village":"Mbako","section":"GEMENA - AKULA","pk_declare_km":338.0,"pop_estimee":2267,"nb_ecoles":0,"nb_centres_sante":0,"riviere":"","motif":"","phase":1},"geometry":{"type":"Point","coordinates":[20.03436,2.60939]}},{"type":"Feature","properties":{"village":"Yanga I","section":"GEMENA - AKULA","pk_declare_km":346.0,"pop_estimee":597,"nb_ecoles":0,"nb_centres_sante":0,"riviere":"","motif":"position estimee","phase":1},"geometry":{"type":"Point","coordinates":[20.04201,2.55694]}},{"type":"Feature","properties":{"village":"Yanga II","section":"GEMENA - AKULA","pk_declare_km":348.0,"pop_estimee":711,"nb_ecoles":0,"nb_centres_sante":0,"riviere":"","motif":"position estimee","phase":1},"geometry":{"type":"Point","coordinates":[20.04447,2.54320]}},{"type":"Feature","properties":{"village":"Yanga III","section":"GEMENA - AKULA","pk_declare_km":350.0,"pop_estimee":730,"nb_ecoles":0,"nb_centres_sante":0,"riviere":"","motif":"","phase":1},"geometry":{"type":"Point","coordinates":[20.05187,2.53269]}},{"type":"Feature","properties":{"village":"Kuma","section":"GEMENA - AKULA","pk_declare_km":358.0,"pop_estimee":3944,"nb_ecoles":1,"nb_centres_sante":1,"riviere":"","motif":"","phase":1},"geometry":{"type":"Point","coordinates":[20.13991,2.43145]}},{"type":"Feature","properties":{"village":"Akula","section":"GEMENA - AKULA","pk_declare_km":368.0,"pop_estimee":3379,"nb_ecoles":1,"nb_centres_sante":1,"riviere":"Rivière Mongala","motif":"","phase":1},"geometry":{"type":"Point","coordinates":[20.18416,2.37363]}},{"type":"Feature","properties":{"village":"Bosononno","section":"BOYABO - LIBENGI","pk_declare_km":1.0,"pop_estimee":250,"nb_ecoles":0,"nb_centres_sante":0,"riviere":"","motif":"","phase":3},"geometry":{"type":"Point","coordinates":[18.76792,3.70525]}},{"type":"Feature","properties":{"village":"Bososalo","section":"BOYABO - LIBENGI","pk_declare_km":2.0,"pop_estimee":350,"nb_ecoles":0,"nb_centres_sante":0,"riviere":"","motif":"","phase":3},"geometry":{"type":"Point","coordinates":[18.76219,3.70338]}},{"type":"Feature","properties":{"village":"Bosombuma","section":"BOYABO - LIBENGI","pk_declare_km":3.0,"pop_estimee":379,"nb_ecoles":1,"nb_centres_sante":0,"riviere":"","motif":"","phase":3},"geometry":{"type":"Point","coordinates":[18.75880,3.70118]}},{"type":"Feature","properties":{"village":"Buka","section":"BOYABO - LIBENGI","pk_declare_km":4.0,"pop_estimee":1590,"nb_ecoles":0,"nb_centres_sante":0,"riviere":"","motif":"","phase":3},"geometry":{"type":"Point","coordinates":[18.75262,3.69765]}},{"type":"Feature","properties":{"village":"Boduko","section":"BOYABO - LIBENGI","pk_declare_km":8.0,"pop_estimee":465,"nb_ecoles":1,"nb_centres_sante":1,"riviere":"","motif":"","phase":3},"geometry":{"type":"Point","coordinates":[18.71701,3.69335]}},{"type":"Feature","properties":{"village":"Ngoli","section":"BOYABO - LIBENGI","pk_declare_km":10.0,"pop_estimee":380,"nb_ecoles":0,"nb_centres_sante":0,"riviere":"","motif":"","phase":3},"geometry":{"type":"Point","coordinates":[18.69197,3.67789]}},{"type":"Feature","properties":{"village":"Libenge Kete","section":"BOYABO - LIBENGI","pk_declare_km":14.0,"pop_estimee":308,"nb_ecoles":0,"nb_centres_sante":0,"riviere":"","motif":"","phase":3},"geometry":{"type":"Point","coordinates":[18.67347,3.66421]}},{"type":"Feature","properties":{"village":"Boso Nzimbelo","section":"BOYABO - LIBENGI","pk_declare_km":17.0,"pop_estimee":280,"nb_ecoles":1,"nb_centres_sante":1,"riviere":"","motif":"","phase":3},"geometry":{"type":"Point","coordinates":[18.65149,3.65236]}},{"type":"Feature","properties":{"village":"Boso Gbamongo","section":"BOYABO - LIBENGI","pk_declare_km":18.0,"pop_estimee":430,"nb_ecoles":0,"nb_centres_sante":0,"riviere":"","motif":"","phase":3},"geometry":{"type":"Point","coordinates":[18.64439,3.65081]}},{"type":"Feature","properties":{"village":"Libenge","section":"BOYABO - LIBENGI","pk_declare_km":19.0,"pop_estimee":349,"nb_ecoles":2,"nb_centres_sante":3,"riviere":"Rivière Ubangui","motif":"coordonnee corrigee","phase":3},"geometry":{"type":"Point","coordinates":[18.63166,3.64472]}},{"type":"Feature","properties":{"village":"Banga","section":"BATANGA - LIBENGE","pk_declare_km":0.0,"pop_estimee":476,"nb_ecoles":1,"nb_centres_sante":1,"riviere":"","motif":"","phase":3},"geometry":{"type":"Point","coordinates":[18.59483,3.71246]}},{"type":"Feature","properties":{"village":"Village deux kilo (Motanga)","section":"BATANGA - LIBENGE","pk_declare_km":2.0,"pop_estimee":360,"nb_ecoles":0,"nb_centres_sante":0,"riviere":"","motif":"","phase":3},"geometry":{"type":"Point","coordinates":[18.61119,3.71454]}},{"type":"Feature","properties":{"village":"Sakasa","section":"BATANGA - LIBENGE","pk_declare_km":5.9,"pop_estimee":198,"nb_ecoles":0,"nb_centres_sante":0,"riviere":"Mosio","motif":"","phase":3},"geometry":{"type":"Point","coordinates":[18.63467,3.69704]}},{"type":"Feature","properties":{"village":"Kambe (Campement des PA)","section":"BATANGA - LIBENGE","pk_declare_km":6.0,"pop_estimee":484,"nb_ecoles":1,"nb_centres_sante":0,"riviere":"","motif":"","phase":3},"geometry":{"type":"Point","coordinates":[18.63969,3.68969]}}]}